{
"type": "FeatureCollection",
"name": "CAOP_Vila Nova de Poiares_freg",
"crs": { "type": "name", "properties": { "name": "urn:ogc:def:crs:OGC:1.3:CRS84" } },
"features": [
{ "type": "Feature", "properties": { "dtmnfr": "061701", "freguesia": "Arrifana", "municipio": "Vila Nova de Poiares", "distrito_i": "Coimbra", "nuts3_cod": "192", "nuts3": "Região de Coimbra", "nuts2": "Centro", "nuts1": "Continente", "area_ha": 2384.27, "perimetro_": 31, "designacao": "Arrifana" }, "geometry": { "type": "Polygon", "coordinates": [ [ [ -8.311793299134829, 40.189546674710442 ], [ -8.312903551763648, 40.190853570841682 ], [ -8.313723216216701, 40.191729267222883 ], [ -8.314819618577166, 40.192837769882132 ], [ -8.316635014857397, 40.194641625314155 ], [ -8.3187138596879, 40.197017519218946 ], [ -8.319884984383226, 40.198288498281194 ], [ -8.319915431037549, 40.198469197196296 ], [ -8.31958667512947, 40.199435872710488 ], [ -8.319396928396225, 40.201958792168419 ], [ -8.319382638884141, 40.203205304815427 ], [ -8.319432738619215, 40.204462346804313 ], [ -8.314948588625123, 40.204819869865887 ], [ -8.314988264452666, 40.204897792981598 ], [ -8.315094602100125, 40.204999212990778 ], [ -8.315214147717573, 40.205121139205907 ], [ -8.315307579440882, 40.205314077167074 ], [ -8.315374555050296, 40.205497149346293 ], [ -8.315414572478319, 40.205659727852805 ], [ -8.315414957421561, 40.205802107356639 ], [ -8.315296227063143, 40.206026091055236 ], [ -8.315269794820711, 40.206066659067439 ], [ -8.315150541148608, 40.206097561185359 ], [ -8.314978287143704, 40.206118094248872 ], [ -8.314885519833945, 40.206169124023894 ], [ -8.3148458358465, 40.206219888479183 ], [ -8.314832818791885, 40.206270795680823 ], [ -8.314806454215933, 40.206382597205796 ], [ -8.314820054258089, 40.206504696347594 ], [ -8.314850385407482, 40.206687555232293 ], [ -8.314904136524472, 40.206931796448899 ], [ -8.314904793907758, 40.207175668930063 ], [ -8.314878895001932, 40.207460567908065 ], [ -8.314865924973892, 40.207572256530291 ], [ -8.314906377062167, 40.207806071782642 ], [ -8.314973336736861, 40.20807055807655 ], [ -8.315026704270055, 40.208172056794375 ], [ -8.315066773021718, 40.208263491621317 ], [ -8.315120325164822, 40.208476934721268 ], [ -8.315558099570387, 40.208476239254388 ], [ -8.315664140553629, 40.208465985501036 ], [ -8.315690745759113, 40.20844540656303 ], [ -8.315862812930717, 40.208353633635035 ], [ -8.31606158917414, 40.208322971675244 ], [ -8.316263860344028, 40.208322648210455 ], [ -8.316860768073864, 40.20831160304872 ], [ -8.316993351382081, 40.208301305941824 ], [ -8.317112579621371, 40.208260316305967 ], [ -8.31729803498849, 40.20816851996107 ], [ -8.317496732112899, 40.20806661745673 ], [ -8.317576318616968, 40.208045958182552 ], [ -8.317748576684016, 40.208025414946682 ], [ -8.317947440176654, 40.207984297399875 ], [ -8.318238904479928, 40.207872067924335 ], [ -8.318331756094597, 40.207851652587962 ], [ -8.318398037286014, 40.207861630382418 ], [ -8.318424726254007, 40.207871767891234 ], [ -8.318437991787061, 40.207912539628168 ], [ -8.318477923770164, 40.207953004792103 ], [ -8.318491224328129, 40.207963068262018 ], [ -8.318610624500922, 40.207942609282007 ], [ -8.318663600539526, 40.207942523475282 ], [ -8.318756501650597, 40.208023787556215 ], [ -8.318796490179597, 40.208043988418318 ], [ -8.318862826717687, 40.20803369995582 ], [ -8.318928989522091, 40.208003242195403 ], [ -8.319087869392167, 40.20790104513685 ], [ -8.319246861340245, 40.207839995484221 ], [ -8.319392686641942, 40.207819226629283 ], [ -8.31957815993842, 40.207778399805171 ], [ -8.319684170125273, 40.207757961286141 ], [ -8.319776971872198, 40.207717013295401 ], [ -8.319949652017979, 40.207849027289377 ], [ -8.320016013457705, 40.207805601038864 ], [ -8.320131769783057, 40.20774174349836 ], [ -8.320313972620706, 40.207665164785304 ], [ -8.320463083445514, 40.20760161320095 ], [ -8.320579015581991, 40.207601423705832 ], [ -8.320744823251127, 40.207626546203279 ], [ -8.320927307830974, 40.207651555850092 ], [ -8.321173436222063, 40.207667996313631 ], [ -8.321221988606855, 40.207685383401866 ], [ -8.321245258193532, 40.207688138304505 ], [ -8.321545456443381, 40.207763115577947 ], [ -8.321928026814183, 40.207889105657642 ], [ -8.322353819980636, 40.208056992953104 ], [ -8.322583361851313, 40.208189720560974 ], [ -8.322842226318262, 40.208393093897008 ], [ -8.322907703962013, 40.208453143037325 ], [ -8.323088356281012, 40.208618912150953 ], [ -8.32336604626998, 40.208869798963811 ], [ -8.323557598808572, 40.209027084803559 ], [ -8.323720171390075, 40.209194769385391 ], [ -8.323976779034288, 40.20934519298207 ], [ -8.324264831667691, 40.209563732167119 ], [ -8.324350655088889, 40.209673008050636 ], [ -8.324462829150002, 40.20987860394942 ], [ -8.32469318712034, 40.210130653658965 ], [ -8.324907152373992, 40.210316534269857 ], [ -8.32501335120549, 40.21048584588614 ], [ -8.325032917047384, 40.210508595577146 ], [ -8.325127637327364, 40.210606597885658 ], [ -8.325267996997706, 40.210728302537731 ], [ -8.32531275812236, 40.210770106381823 ], [ -8.325365982567355, 40.210815585853496 ], [ -8.32539834200443, 40.210835882649256 ], [ -8.325458470073595, 40.210871808899242 ], [ -8.325482363049765, 40.210889779116137 ], [ -8.325690547633091, 40.211066121645288 ], [ -8.325905873795408, 40.211234886976278 ], [ -8.326088843920788, 40.211384348650441 ], [ -8.326284896016633, 40.211587999877516 ], [ -8.326356258770993, 40.211652088044396 ], [ -8.326383905112992, 40.211665010325774 ], [ -8.326439318434923, 40.211695266638067 ], [ -8.326577303308909, 40.21176509898843 ], [ -8.326771374154324, 40.211852038545572 ], [ -8.32681275231419, 40.211860704094612 ], [ -8.326840259281974, 40.211868760633557 ], [ -8.326923273085125, 40.211895639248993 ], [ -8.327229724257624, 40.211970591240075 ], [ -8.327328831602669, 40.211999148283901 ], [ -8.327579791399396, 40.212139392159919 ], [ -8.327786006961695, 40.21224179878201 ], [ -8.327987624433591, 40.212377084161076 ], [ -8.328012811919745, 40.212395866701065 ], [ -8.328078587698609, 40.212433216702223 ], [ -8.328112081707459, 40.212439374324958 ], [ -8.328149913587771, 40.212440929839751 ], [ -8.328190802681293, 40.212445994276024 ], [ -8.328299180188074, 40.212470306611849 ], [ -8.328325446518555, 40.212494126042209 ], [ -8.328338422512912, 40.212511847500828 ], [ -8.328524378265296, 40.212594293060704 ], [ -8.329527674175941, 40.21303782387713 ], [ -8.33099665263881, 40.213607524358792 ], [ -8.33329475152658, 40.21413118721118 ], [ -8.334821692808713, 40.214423721351324 ], [ -8.336126706944917, 40.21466484561082 ], [ -8.336663793335141, 40.215095091874325 ], [ -8.337845708650557, 40.215914497923706 ], [ -8.338531549790998, 40.216501167722946 ], [ -8.338686802586462, 40.217333378545092 ], [ -8.3389860786471, 40.217776108263692 ], [ -8.339549116998072, 40.217920808399882 ], [ -8.339921195133181, 40.21792887537751 ], [ -8.340313324344345, 40.218614859249904 ], [ -8.339253942720905, 40.219128381113343 ], [ -8.338462740002749, 40.219597829478964 ], [ -8.337841554973242, 40.219925580026114 ], [ -8.337239084958275, 40.220226365842144 ], [ -8.336643842855848, 40.220394386034691 ], [ -8.335963048313239, 40.220593721458712 ], [ -8.335399913823812, 40.22089244474607 ], [ -8.334837213942791, 40.221300945769201 ], [ -8.334345690773057, 40.222056220000638 ], [ -8.333970598237023, 40.223015994656016 ], [ -8.333861124774254, 40.223615066727035 ], [ -8.333700415679523, 40.224212518128923 ], [ -8.333385162265216, 40.224873283036018 ], [ -8.332979628464892, 40.225480257974844 ], [ -8.332906642111761, 40.225511274009556 ], [ -8.332307972685282, 40.22589163355849 ], [ -8.331720479393294, 40.226199123498304 ], [ -8.331052673640174, 40.226285289787604 ], [ -8.3303741928338, 40.226336529571441 ], [ -8.329780546398245, 40.226431840821228 ], [ -8.329211042846637, 40.226668405199192 ], [ -8.327686713900038, 40.227408210822091 ], [ -8.327149104877957, 40.227668036516285 ], [ -8.326671344249261, 40.227779706408626 ], [ -8.326328563157931, 40.227845307575372 ], [ -8.325813550747151, 40.227914886096855 ], [ -8.325459785878905, 40.228002116980363 ], [ -8.324925186346521, 40.228250940207538 ], [ -8.324337445522588, 40.228612781927332 ], [ -8.323752379084135, 40.229010009164654 ], [ -8.323282904879324, 40.229399024760426 ], [ -8.322926122251472, 40.230171050022001 ], [ -8.322305872634937, 40.230974665232303 ], [ -8.321611388046701, 40.23191862050453 ], [ -8.32079408511364, 40.233367002461833 ], [ -8.32045894634998, 40.234669419525822 ], [ -8.320512330819568, 40.235908432706083 ], [ -8.320139649370239, 40.236646703361963 ], [ -8.319222164312967, 40.237424309441785 ], [ -8.319037631789257, 40.237580495886995 ], [ -8.318121409549112, 40.23784260788662 ], [ -8.316887843245093, 40.237783529975282 ], [ -8.314942148055016, 40.237330134130538 ], [ -8.313707782734495, 40.236883512064885 ], [ -8.312979190299636, 40.23647651540702 ], [ -8.312413693785661, 40.236328267246513 ], [ -8.311688324824944, 40.236512849948475 ], [ -8.310203441455077, 40.237439046927435 ], [ -8.308644758722796, 40.23873971581996 ], [ -8.307855466570567, 40.239254699417693 ], [ -8.30597019907497, 40.239858150199204 ], [ -8.304926832449507, 40.239925824558448 ], [ -8.304759758468327, 40.239936789392694 ], [ -8.303496220005357, 40.239747843895891 ], [ -8.301894207412653, 40.239356485708619 ], [ -8.300722595407795, 40.239454479520766 ], [ -8.29996516856807, 40.239959273914508 ], [ -8.299635200561536, 40.2404879439799 ], [ -8.299958938338955, 40.24161633791978 ], [ -8.3008288718817, 40.243241414416687 ], [ -8.301195172698483, 40.244176033049733 ], [ -8.300957266611048, 40.244773278091778 ], [ -8.300399056001512, 40.245113429762782 ], [ -8.299805222913271, 40.245121321953299 ], [ -8.298564380072582, 40.244877174577368 ], [ -8.296551629161968, 40.244139074214544 ], [ -8.294378928421521, 40.243039227976624 ], [ -8.293366210160874, 40.242480041678832 ], [ -8.293339678909298, 40.242443785879885 ], [ -8.291169111197593, 40.241105759544922 ], [ -8.290134933493752, 40.240292437070956 ], [ -8.289455788546141, 40.239931515318844 ], [ -8.288747559342847, 40.239796763899243 ], [ -8.287361837016503, 40.239956872935203 ], [ -8.285888535007409, 40.240524500662623 ], [ -8.285329093700909, 40.240909968166171 ], [ -8.283146354066956, 40.242134480008218 ], [ -8.281791093812949, 40.242811051896922 ], [ -8.281226061106691, 40.243080602684671 ], [ -8.280468756899717, 40.243725222162574 ], [ -8.280176979801269, 40.24459645003602 ], [ -8.280177481480894, 40.245257291380163 ], [ -8.280499331316882, 40.246356383344946 ], [ -8.280981843704794, 40.247613502874941 ], [ -8.280961779050401, 40.247628117918858 ], [ -8.280733314799399, 40.247794208287502 ], [ -8.279674157938594, 40.247802596119151 ], [ -8.279297458543429, 40.247954193619506 ], [ -8.279106638847351, 40.248032158219601 ], [ -8.278874034010835, 40.248078832230199 ], [ -8.278526951926958, 40.248125743332558 ], [ -8.278223179254297, 40.248146661471658 ], [ -8.278018337090151, 40.248152235168725 ], [ -8.277761383958488, 40.248136799159219 ], [ -8.277521570495262, 40.248057224348344 ], [ -8.277354601849861, 40.247967104328126 ], [ -8.27711465771773, 40.247773788184865 ], [ -8.276687094593381, 40.247554765022777 ], [ -8.276560139561568, 40.247489991478886 ], [ -8.276403754059247, 40.247345468179326 ], [ -8.276226074856986, 40.247136576764404 ], [ -8.275985692168687, 40.246787094457133 ], [ -8.275926491051541, 40.246637405419584 ], [ -8.275929728550899, 40.246557247016476 ], [ -8.27593265584059, 40.246275814544518 ], [ -8.275963360839404, 40.246015151197192 ], [ -8.275952627623544, 40.245887373792819 ], [ -8.275948815075537, 40.245753195518503 ], [ -8.275913766903104, 40.24557510472679 ], [ -8.275889250796547, 40.245484447355409 ], [ -8.275802238408822, 40.2454097199793 ], [ -8.275663282169637, 40.245335052927999 ], [ -8.275176988685223, 40.245292883200072 ], [ -8.275136204253151, 40.245289239974404 ], [ -8.274400854828075, 40.245292673392143 ], [ -8.274088397820687, 40.24531134163302 ], [ -8.273734483187939, 40.245345278333687 ], [ -8.273475829809621, 40.245412600973637 ], [ -8.273097604674239, 40.245511316994445 ], [ -8.272761010311154, 40.245566213306958 ], [ -8.272574317855355, 40.245591744764035 ], [ -8.272393754328021, 40.245571432565811 ], [ -8.272178260279038, 40.245538194596918 ], [ -8.272004649068128, 40.245468612547747 ], [ -8.271865483328513, 40.245348644654918 ], [ -8.271861926984231, 40.245273813323166 ], [ -8.271878804174788, 40.245082960828853 ], [ -8.271996266328609, 40.244827054851392 ], [ -8.272211226797879, 40.244603629040704 ], [ -8.272242359276699, 40.244538839821772 ], [ -8.272242231438391, 40.244476971840108 ], [ -8.272231629915376, 40.244409984035599 ], [ -8.272175819127634, 40.244360791113976 ], [ -8.272036922028255, 40.244312055463382 ], [ -8.271853744279737, 40.244273644769883 ], [ -8.271697344657717, 40.244227184747722 ], [ -8.27144702173017, 40.244114019084812 ], [ -8.271283634318223, 40.244041896682297 ], [ -8.270998669578923, 40.243886082038578 ], [ -8.270887370448374, 40.243767433303546 ], [ -8.27089068436473, 40.243664129964344 ], [ -8.270949307898679, 40.243542754536179 ], [ -8.271049883176428, 40.243472839641683 ], [ -8.271310143852446, 40.243333204690025 ], [ -8.271403671072658, 40.243265819530158 ], [ -8.271424378066866, 40.243165112472163 ], [ -8.271260782368717, 40.242989968246647 ], [ -8.27118072461964, 40.242920266010415 ], [ -8.270892992251854, 40.242728972361114 ], [ -8.270416664463125, 40.242318886738431 ], [ -8.270044460995091, 40.242079329905131 ], [ -8.269846548415297, 40.241960783477268 ], [ -8.269776723800483, 40.241893589794429 ], [ -8.269745399454647, 40.241803301132435 ], [ -8.269714729950804, 40.241747595828599 ], [ -8.26967766160463, 40.241722332327285 ], [ -8.269461690205267, 40.241563909867352 ], [ -8.269424735510968, 40.241537207020521 ], [ -8.269394942645139, 40.241508241572205 ], [ -8.26930455064255, 40.241499074688456 ], [ -8.269209469366686, 40.241492705952759 ], [ -8.269177502345311, 40.241493011913704 ], [ -8.269148130401033, 40.241496377694276 ], [ -8.268942267475623, 40.241568398560375 ], [ -8.268915850582593, 40.241579149186748 ], [ -8.268774445378853, 40.241682881934437 ], [ -8.268756035471004, 40.241700916049311 ], [ -8.268740208618857, 40.241720117890424 ], [ -8.268679728939876, 40.241857164535865 ], [ -8.26866310334697, 40.241890146202337 ], [ -8.268642253350999, 40.241922770779503 ], [ -8.26861786732937, 40.241950179721215 ], [ -8.268435532730914, 40.242035946528141 ], [ -8.26840418359242, 40.24205336530764 ], [ -8.268371314224355, 40.242068083209624 ], [ -8.268097941051421, 40.242173054482713 ], [ -8.267986015665493, 40.242209208242343 ], [ -8.267947608303793, 40.242220244595408 ], [ -8.267912616049353, 40.242235412429139 ], [ -8.267736814935002, 40.242416005374857 ], [ -8.267701863756827, 40.242447835658687 ], [ -8.267533647500711, 40.242544035868939 ], [ -8.267443350064752, 40.242582689210153 ], [ -8.267312731256293, 40.242614360203895 ], [ -8.267271389042943, 40.242625394331611 ], [ -8.267228980558805, 40.242633279445599 ], [ -8.266936473738525, 40.242635877608883 ], [ -8.266897217356886, 40.242633130291857 ], [ -8.266859946502002, 40.242624709704316 ], [ -8.266702574605398, 40.242558251126603 ], [ -8.266657878765942, 40.242540830525975 ], [ -8.266465829289258, 40.2425283582782 ], [ -8.266435394187615, 40.242529833373496 ], [ -8.266312860969132, 40.242552762785188 ], [ -8.266282207098705, 40.242559551523776 ], [ -8.266253308812646, 40.242568049339745 ], [ -8.266227246484121, 40.242578436909227 ], [ -8.266004327264902, 40.242765296314651 ], [ -8.265809306698989, 40.242977520601862 ], [ -8.26577670485999, 40.243012406883651 ], [ -8.265658562098279, 40.243233454011424 ], [ -8.265489502674633, 40.243437449113401 ], [ -8.265268234464546, 40.243627908413515 ], [ -8.265059186361633, 40.24382204213488 ], [ -8.264837858883995, 40.243984404328351 ], [ -8.264692662501465, 40.244075797499768 ], [ -8.264589252978237, 40.244140667730406 ], [ -8.264548288788935, 40.244168000977325 ], [ -8.264452122049986, 40.244209180269259 ], [ -8.264400440949355, 40.244224457834527 ], [ -8.264231461285432, 40.244233031117538 ], [ -8.264174930586433, 40.244232824076171 ], [ -8.263918876840792, 40.244188087399387 ], [ -8.263707898945119, 40.244116014383266 ], [ -8.263487287565919, 40.244043679858734 ], [ -8.2631794555559, 40.243963519654898 ], [ -8.262871743631479, 40.243883090122942 ], [ -8.262564301412022, 40.243819856073195 ], [ -8.262257681818348, 40.243818763112451 ], [ -8.262041577259302, 40.243828010779445 ], [ -8.261767086445657, 40.243913336543898 ], [ -8.261737501338521, 40.243927149226181 ], [ -8.261644934777614, 40.244010286580988 ], [ -8.261521845378521, 40.244231873495998 ], [ -8.261400862397595, 40.244453462439893 ], [ -8.261253397661749, 40.244653104587449 ], [ -8.261042178543187, 40.244821120172489 ], [ -8.260800702887531, 40.244900459693355 ], [ -8.2605264726222, 40.24500127131266 ], [ -8.260260138810212, 40.245111888140528 ], [ -8.260013113654505, 40.245243284809341 ], [ -8.259986223980469, 40.245256011586847 ], [ -8.259930203888494, 40.245275439087443 ], [ -8.259747959076583, 40.245293924051616 ], [ -8.259441584980967, 40.245301374383779 ], [ -8.259257243031948, 40.245269697586878 ], [ -8.258949682853954, 40.245208441662967 ], [ -8.258642133215687, 40.245151955288542 ], [ -8.258335508640226, 40.24515139049246 ], [ -8.258028895357716, 40.245155688010882 ], [ -8.257722556717223, 40.245181597471927 ], [ -8.257416203493733, 40.245200305089703 ], [ -8.257110136652161, 40.24524530406066 ], [ -8.256804362052854, 40.245324528501442 ], [ -8.25677078265587, 40.245341402554466 ], [ -8.256189555981562, 40.245434073255637 ], [ -8.255804286181542, 40.245166566614479 ], [ -8.25528303287355, 40.244698831958402 ], [ -8.254965838949694, 40.24456912421671 ], [ -8.254298053085652, 40.244301104515998 ], [ -8.254026346804391, 40.244240606666949 ], [ -8.25382245344171, 40.24418003206479 ], [ -8.253697955787642, 40.244093441258741 ], [ -8.253539590159939, 40.244189067797286 ], [ -8.253370126074278, 40.24425868244883 ], [ -8.252974161786435, 40.244371667709864 ], [ -8.252646219856162, 40.244476211372607 ], [ -8.252323392504298, 40.244679086923547 ], [ -8.252658530914577, 40.245117766533596 ], [ -8.252919617701766, 40.245481683518662 ], [ -8.253191924508409, 40.245940960700601 ], [ -8.253339591155049, 40.246296168616858 ], [ -8.253381854357173, 40.246468945322924 ], [ -8.253277524781597, 40.247796857747922 ], [ -8.252365065132118, 40.25388388013009 ], [ -8.249279609812236, 40.253868517022752 ], [ -8.245716909829895, 40.253896586542922 ], [ -8.244647003359947, 40.24054566020753 ], [ -8.247676769164519, 40.238320489657809 ], [ -8.247893959046859, 40.238267949719578 ], [ -8.248272244177523, 40.23820677741076 ], [ -8.249497438680372, 40.238072699690512 ], [ -8.250363349923873, 40.237849190878414 ], [ -8.251317863188376, 40.237361894555448 ], [ -8.251466623975084, 40.237223320281281 ], [ -8.25177896181394, 40.236888882506946 ], [ -8.251808904003324, 40.236877593619063 ], [ -8.251972567334967, 40.236727297625713 ], [ -8.25286776457372, 40.236400713294707 ], [ -8.253442332660482, 40.236241966915479 ], [ -8.254271182997158, 40.236013425874447 ], [ -8.255017399257769, 40.235836387434617 ], [ -8.255749600328731, 40.235774273395386 ], [ -8.256347635131645, 40.235793351012042 ], [ -8.256745999521984, 40.235801026891828 ], [ -8.256784782774821, 40.235801885137789 ], [ -8.257137675034736, 40.235808527551448 ], [ -8.257470514420303, 40.235649485007926 ], [ -8.258280694838927, 40.23531538789112 ], [ -8.258376772838334, 40.235290784487894 ], [ -8.258386401368739, 40.235288161475495 ], [ -8.25838638493693, 40.235279244822564 ], [ -8.258448018132615, 40.235245404436121 ], [ -8.267259961690925, 40.234740257855755 ], [ -8.267245214331822, 40.234711006905201 ], [ -8.267186035110011, 40.234557886325987 ], [ -8.267138576896867, 40.234269759260492 ], [ -8.267126543071575, 40.234188722530675 ], [ -8.267126093374245, 40.233963580909432 ], [ -8.267111525036837, 40.233787173565979 ], [ -8.267077089402179, 40.233667076553999 ], [ -8.266991797661667, 40.233615121546435 ], [ -8.266772790003664, 40.233567736533963 ], [ -8.266714172661526, 40.2335769037049 ], [ -8.266620089675472, 40.233595025733543 ], [ -8.266408880900173, 40.233685330184457 ], [ -8.266263062257178, 40.233689103968153 ], [ -8.266232621232565, 40.233685535752343 ], [ -8.266160916401095, 40.233670940501746 ], [ -8.2661266957676, 40.233658640947361 ], [ -8.266103755506004, 40.233646237462466 ], [ -8.26609093771088, 40.23363949871807 ], [ -8.266034710114551, 40.233608313075926 ], [ -8.265997210752779, 40.233541719294529 ], [ -8.265961932139383, 40.233469621289125 ], [ -8.265961682237162, 40.233343540844125 ], [ -8.265973228414971, 40.233298498435225 ], [ -8.266067059897248, 40.233154298285783 ], [ -8.2661725274491, 40.233010082878685 ], [ -8.266324827163922, 40.232838886942382 ], [ -8.266489002976883, 40.232613552064961 ], [ -8.266512186982416, 40.232514372934446 ], [ -8.266476719375138, 40.232406434779797 ], [ -8.266441459866115, 40.232343436377484 ], [ -8.266276635329776, 40.232181525650589 ], [ -8.266217782527116, 40.23212746649282 ], [ -8.266147169319616, 40.232073607243777 ], [ -8.265994276933018, 40.232001646160917 ], [ -8.265841442763689, 40.231902762770467 ], [ -8.265841353678963, 40.231857732805672 ], [ -8.265864557482681, 40.231767737917842 ], [ -8.265899891685653, 40.231749684816741 ], [ -8.265993724415683, 40.231722562325551 ], [ -8.266346227699502, 40.231722151672059 ], [ -8.266557591719888, 40.231712805969899 ], [ -8.266675140710653, 40.231676647944674 ], [ -8.266745432488769, 40.231631535837657 ], [ -8.266780712272709, 40.231586555988159 ], [ -8.266790046987479, 40.231437320342252 ], [ -8.266745047492751, 40.231379465695724 ], [ -8.26668622453264, 40.231343422004514 ], [ -8.266404148644067, 40.231244684827914 ], [ -8.266357090425672, 40.231217726013334 ], [ -8.266309794935296, 40.231127813067914 ], [ -8.266309401920003, 40.230929599604124 ], [ -8.266379695162527, 40.23076740915667 ], [ -8.26646180095182, 40.23069536156806 ], [ -8.26667312592425, 40.230604964984543 ], [ -8.266971910703585, 40.230598762413663 ], [ -8.267019496738088, 40.230597895942239 ], [ -8.267577717144453, 40.230585893295952 ], [ -8.26777750811036, 40.230549726825359 ], [ -8.267824375026652, 40.230540572789558 ], [ -8.26782417640325, 40.230441510633376 ], [ -8.267812333664372, 40.230396495239582 ], [ -8.267788726814667, 40.23034257685589 ], [ -8.267681355037027, 40.230237426228186 ], [ -8.267623902763969, 40.23018066799014 ], [ -8.267579317735782, 40.230155865491909 ], [ -8.267447362804438, 40.230036785056264 ], [ -8.267426292747052, 40.230016549080098 ], [ -8.267388523025534, 40.229991824153807 ], [ -8.267306093270605, 40.229901776738572 ], [ -8.267200202155994, 40.229829942832062 ], [ -8.266753186236508, 40.22950625783222 ], [ -8.266341004263204, 40.229092476220998 ], [ -8.266282147047153, 40.229038420673234 ], [ -8.2661857241863, 40.228882640523381 ], [ -8.266176062150892, 40.228867525426502 ], [ -8.266116991698471, 40.228705492740261 ], [ -8.266104928339304, 40.228489275522207 ], [ -8.266139840234688, 40.228318124466426 ], [ -8.266221979759147, 40.228264086856534 ], [ -8.266351133746005, 40.228218817195327 ], [ -8.266715073568815, 40.228128694104136 ], [ -8.267044051971077, 40.22806508749612 ], [ -8.267278867179037, 40.228037793518226 ], [ -8.267560992457822, 40.228046379216373 ], [ -8.268012704424148, 40.228017478916094 ], [ -8.268453597913425, 40.227928252182281 ], [ -8.268594411146623, 40.227838116401379 ], [ -8.268817333943421, 40.227621622333487 ], [ -8.268958128073152, 40.227522482990118 ], [ -8.269216337106906, 40.227387001084743 ], [ -8.269298272300279, 40.227233894580628 ], [ -8.269321522731062, 40.227170827239156 ], [ -8.269321375879167, 40.227098687928127 ], [ -8.269286022923742, 40.227044698986717 ], [ -8.269227303195345, 40.226999738853848 ], [ -8.269121313753061, 40.226936825267387 ], [ -8.268909774324371, 40.226910147991539 ], [ -8.268451545599556, 40.226910691916892 ], [ -8.268334121306912, 40.226883817944703 ], [ -8.268275283496191, 40.226838766506212 ], [ -8.268181096041845, 40.226802942252917 ], [ -8.268040002895551, 40.226694953871991 ], [ -8.268004551529533, 40.226649965987924 ], [ -8.267710355463386, 40.226362129661048 ], [ -8.267710337812412, 40.226353212097052 ], [ -8.267651334627489, 40.226281143003504 ], [ -8.26741586204689, 40.225921283654287 ], [ -8.267368633826697, 40.22580417063341 ], [ -8.26737986378, 40.225606033567665 ], [ -8.267519997374311, 40.22511964814111 ], [ -8.26754308851373, 40.224975528723405 ], [ -8.267507610951442, 40.224858402091428 ], [ -8.267484042871414, 40.224822408780135 ], [ -8.26744885753665, 40.224795431189705 ], [ -8.267331311755321, 40.224768646387872 ], [ -8.267190224711506, 40.224777723894199 ], [ -8.267166762163171, 40.224795762759427 ], [ -8.267002511131089, 40.224913123414055 ], [ -8.266814780089398, 40.225039424042748 ], [ -8.266685668821482, 40.225102615823161 ], [ -8.2664860590467, 40.22516579865902 ], [ -8.266368702065487, 40.225174938775702 ], [ -8.266286441941579, 40.22516603211244 ], [ -8.266168731304976, 40.225112131526927 ], [ -8.266157062302243, 40.225094225112748 ], [ -8.266098226309213, 40.225049173450707 ], [ -8.265897720406809, 40.224716193721541 ], [ -8.265802865221977, 40.224220989143021 ], [ -8.265790923822948, 40.224184980351737 ], [ -8.26568491916156, 40.224050106896698 ], [ -8.265608370120511, 40.224017504231441 ], [ -8.265579091336271, 40.224005199735664 ], [ -8.26544992177435, 40.223978245303634 ], [ -8.265238444115917, 40.223978489607823 ], [ -8.264674692583698, 40.224078203283547 ], [ -8.2642049321336, 40.224177896052943 ], [ -8.264016970031761, 40.224187028176935 ], [ -8.263934727549131, 40.224187122063228 ], [ -8.263582258662328, 40.224124485298617 ], [ -8.263347044490667, 40.22406171378347 ], [ -8.263041448400056, 40.223935980798458 ], [ -8.262806095799949, 40.22380125072668 ], [ -8.262747364818189, 40.223747285046713 ], [ -8.262735443456652, 40.223720279959068 ], [ -8.262676228936114, 40.223477192909279 ], [ -8.262687889323265, 40.223369109696193 ], [ -8.262722601402455, 40.223152840446616 ], [ -8.262757372376159, 40.22290964723117 ], [ -8.262791832461138, 40.222441306342077 ], [ -8.262889451308869, 40.221706415133681 ], [ -8.263124553920701, 40.221777385758045 ], [ -8.264625329896052, 40.222210190952552 ], [ -8.265357349932135, 40.220110196822397 ], [ -8.269991871373794, 40.21808969259137 ], [ -8.270012872249261, 40.218077599909535 ], [ -8.270076939001603, 40.218040061563386 ], [ -8.27226239350516, 40.217648641519439 ], [ -8.272288615847565, 40.217660139288284 ], [ -8.273238818643776, 40.218133488828194 ], [ -8.273650273212143, 40.218267982334005 ], [ -8.274073386724416, 40.218357606520421 ], [ -8.274284964305831, 40.218357345060113 ], [ -8.275165898961205, 40.218284119576587 ], [ -8.275365508939172, 40.218292964939302 ], [ -8.275859092658035, 40.218319368535745 ], [ -8.276058688413876, 40.21831911860933 ], [ -8.276357165847463, 40.218302354455005 ], [ -8.277456387805259, 40.218236220588501 ], [ -8.27764435054265, 40.218235983334964 ], [ -8.277902994971621, 40.218271768153173 ], [ -8.278032303299264, 40.218307632444393 ], [ -8.278478948853266, 40.218469076867891 ], [ -8.278725711272028, 40.218495958072133 ], [ -8.278972515896424, 40.218486549611029 ], [ -8.279160440641483, 40.218468299137029 ], [ -8.279794353798358, 40.218305470534865 ], [ -8.280580961017343, 40.218079315686317 ], [ -8.280678105296314, 40.218074329618972 ], [ -8.280768910602678, 40.218069979264712 ], [ -8.280886521747844, 40.218078921482238 ], [ -8.281086237635717, 40.218132610499417 ], [ -8.281380227891361, 40.218267404043466 ], [ -8.281544894741716, 40.218357158770189 ], [ -8.281944837388977, 40.218590881139392 ], [ -8.282415431983674, 40.218896370501923 ], [ -8.282709477192649, 40.219049177685996 ], [ -8.282862260179032, 40.219130028288454 ], [ -8.283073961838813, 40.219237730766224 ], [ -8.28337980980027, 40.219363409728935 ], [ -8.283426722103309, 40.219381358718415 ], [ -8.28365025488524, 40.219471124027805 ], [ -8.283650275012347, 40.219480218110441 ], [ -8.283661907984293, 40.219480202980336 ], [ -8.284003018751905, 40.219614752013072 ], [ -8.284026512653075, 40.219614720483001 ], [ -8.284038165824903, 40.219623798496713 ], [ -8.284508531475348, 40.21976726883139 ], [ -8.284755383213529, 40.219829982142286 ], [ -8.28504922574921, 40.219892632351836 ], [ -8.285362054955641, 40.219935263853287 ], [ -8.28540024848164, 40.2199410701133 ], [ -8.285458832205247, 40.219715034422869 ], [ -8.285779529420164, 40.218978659095519 ], [ -8.285825992752116, 40.218903217019196 ], [ -8.286186232345736, 40.218305021831142 ], [ -8.286549865536895, 40.217600103394922 ], [ -8.286716212109482, 40.21728999311599 ], [ -8.286742408047932, 40.217239885797831 ], [ -8.286633491525569, 40.216613859498111 ], [ -8.286654111214471, 40.21653953383781 ], [ -8.286722105406637, 40.216272691969031 ], [ -8.286740047760114, 40.216206748890905 ], [ -8.28691074554717, 40.215642844732301 ], [ -8.28682421578117, 40.21540827153202 ], [ -8.286565827471422, 40.215173928923988 ], [ -8.286092279485629, 40.214704821885753 ], [ -8.285511099779784, 40.214267377837338 ], [ -8.285187801217768, 40.213845164346651 ], [ -8.285358392406993, 40.213234169835026 ], [ -8.285614557239558, 40.212545152585477 ], [ -8.28597816617291, 40.211840418106348 ], [ -8.285998702283184, 40.211417656650291 ], [ -8.286088083267536, 40.211103143845648 ], [ -8.286105324550423, 40.211041797426418 ], [ -8.286519136245884, 40.210412815088347 ], [ -8.286953033801183, 40.201161487976648 ], [ -8.286956601888953, 40.201079893565606 ], [ -8.286961146618541, 40.201012613602217 ], [ -8.287744025156007, 40.200078017288192 ], [ -8.288844417940831, 40.198977005001858 ], [ -8.289260755144262, 40.198163758622172 ], [ -8.289436574118263, 40.197812832185882 ], [ -8.291919467680742, 40.197527983655498 ], [ -8.291950819889891, 40.197524246427051 ], [ -8.29317165226964, 40.197384124608611 ], [ -8.293886917766935, 40.197058374001841 ], [ -8.294587835385162, 40.196824140579302 ], [ -8.295378359294689, 40.196589681876603 ], [ -8.296422574586057, 40.196318924869296 ], [ -8.297078810196377, 40.196119584947212 ], [ -8.298227163703313, 40.195744738863112 ], [ -8.299479842994105, 40.195346937586024 ], [ -8.300180171106005, 40.19503251689585 ], [ -8.300835523335662, 40.194672408112261 ], [ -8.301752558650589, 40.19423770255797 ], [ -8.302006505209194, 40.194117100114923 ], [ -8.302240165937025, 40.194006435031362 ], [ -8.302310778276816, 40.193973192875255 ], [ -8.302772570438627, 40.193753757641034 ], [ -8.303353472429276, 40.193451832521063 ], [ -8.304799169732561, 40.192834215091992 ], [ -8.3062887604815, 40.192079179451071 ], [ -8.307286975941613, 40.191590812530798 ], [ -8.308464162051587, 40.191067043036746 ], [ -8.31023800469154, 40.190412741847425 ], [ -8.311707938907823, 40.189594353955655 ], [ -8.311793299134829, 40.189546674710442 ] ] ] } },
{ "type": "Feature", "properties": { "dtmnfr": "061702", "freguesia": "Lavegadas", "municipio": "Vila Nova de Poiares", "distrito_i": "Coimbra", "nuts3_cod": "192", "nuts3": "Região de Coimbra", "nuts2": "Centro", "nuts1": "Continente", "area_ha": 1126.42, "perimetro_": 23, "designacao": "Lavegadas" }, "geometry": { "type": "Polygon", "coordinates": [ [ [ -8.173599668619691, 40.205548113342481 ], [ -8.174515269253609, 40.205407824601743 ], [ -8.175298867929358, 40.205301441606188 ], [ -8.175836517366532, 40.205207306786988 ], [ -8.176604687030917, 40.20504175111914 ], [ -8.177493120972315, 40.20469413548259 ], [ -8.17800263756881, 40.204523092066964 ], [ -8.182872371083244, 40.203519762454505 ], [ -8.184841910227593, 40.202581456085639 ], [ -8.187444272900926, 40.206137241369916 ], [ -8.188533890450833, 40.207626357862296 ], [ -8.188714158721231, 40.207726679703903 ], [ -8.188866052892722, 40.207889250927039 ], [ -8.189029641286137, 40.208124941290478 ], [ -8.189123055663352, 40.208303931090505 ], [ -8.189333044595072, 40.208401450252815 ], [ -8.189508314442122, 40.208564002953381 ], [ -8.189577065835069, 40.208743005287396 ], [ -8.189695302028134, 40.20896241796131 ], [ -8.190264329360284, 40.20941412690491 ], [ -8.190438639769036, 40.209674398648922 ], [ -8.190513727881157, 40.210246767378585 ], [ -8.190464573254308, 40.211131610332245 ], [ -8.19066415873089, 40.21154775621131 ], [ -8.190988333029031, 40.212311095825697 ], [ -8.191835797087805, 40.214080294568099 ], [ -8.192508679928663, 40.215138118572924 ], [ -8.1931566719063, 40.216178755592132 ], [ -8.193704830081066, 40.217097950252864 ], [ -8.194327913822203, 40.218103648861074 ], [ -8.194591737861613, 40.218949954245417 ], [ -8.199490460840881, 40.226629093127471 ], [ -8.19956295358357, 40.226978024391073 ], [ -8.199517191603233, 40.227625025947468 ], [ -8.199679915479068, 40.227851512270014 ], [ -8.200268132414942, 40.228579189417488 ], [ -8.200509419897172, 40.228877947627403 ], [ -8.209323441388864, 40.233800740791466 ], [ -8.209339262677663, 40.233964452811399 ], [ -8.209569689844496, 40.234473752645272 ], [ -8.209820631057656, 40.234735833713209 ], [ -8.210197056387322, 40.235084818036185 ], [ -8.210541696619151, 40.235375649220437 ], [ -8.211054195129444, 40.235819372787873 ], [ -8.211671024298738, 40.236437457179328 ], [ -8.212350697171331, 40.23712115129112 ], [ -8.212873540755288, 40.237645099694802 ], [ -8.213072474074922, 40.238023200834164 ], [ -8.213396858460623, 40.238743699883926 ], [ -8.213749091953952, 40.239843857755261 ], [ -8.213873804591541, 40.240739300797607 ], [ -8.213899521263041, 40.241496757084334 ], [ -8.214024023528536, 40.242409665739942 ], [ -8.21422209577992, 40.242736525680591 ], [ -8.214593114559179, 40.243029212627931 ], [ -8.215161682030125, 40.243218194276039 ], [ -8.216187866273243, 40.243587851658496 ], [ -8.216410608985152, 40.24380265500502 ], [ -8.216719685389986, 40.243983440944511 ], [ -8.217263527526736, 40.244129384089675 ], [ -8.217795150658738, 40.244275334517226 ], [ -8.218452268768843, 40.244310862472638 ], [ -8.21835086049091, 40.245239341328151 ], [ -8.218105467792357, 40.245879467770692 ], [ -8.218172523504014, 40.246483701375077 ], [ -8.218196416030182, 40.246971976263232 ], [ -8.21826392676863, 40.247190314846591 ], [ -8.218555162373999, 40.247377504825373 ], [ -8.219003362701949, 40.24742390690178 ], [ -8.219652656564095, 40.247205024147917 ], [ -8.220033243141957, 40.247048484483585 ], [ -8.220257138141257, 40.247048312500553 ], [ -8.22036928232863, 40.247157463093409 ], [ -8.220503901015171, 40.247282272121531 ], [ -8.220616209189927, 40.247516330247123 ], [ -8.221095797977435, 40.247834853383026 ], [ -8.221187300056286, 40.247883771788018 ], [ -8.22118057391395, 40.248040746381811 ], [ -8.220920346436369, 40.248207916347226 ], [ -8.220420822516505, 40.248458213615464 ], [ -8.220125318085618, 40.248615409240905 ], [ -8.219611866504888, 40.248826893932545 ], [ -8.219217922053204, 40.249023338739889 ], [ -8.218767947663656, 40.249337441345055 ], [ -8.21865550741405, 40.249641827170009 ], [ -8.218613727157834, 40.249965437616552 ], [ -8.218684616555505, 40.250249963323576 ], [ -8.218758462666328, 40.250458120246634 ], [ -8.218739335124445, 40.2506661667298 ], [ -8.218529069547689, 40.250850670070662 ], [ -8.218377555178872, 40.250935619198948 ], [ -8.218220920100165, 40.250966715373792 ], [ -8.217922522599096, 40.25098378250469 ], [ -8.217658197884665, 40.250990824832094 ], [ -8.21754559390911, 40.250990908844628 ], [ -8.217462546374403, 40.251028612774682 ], [ -8.217379470855461, 40.251137644447589 ], [ -8.217345435246683, 40.25127077503226 ], [ -8.217365357388427, 40.251594697540988 ], [ -8.217380227328256, 40.251734273086349 ], [ -8.217351016827203, 40.251778694771446 ], [ -8.217316719078891, 40.251799252066625 ], [ -8.21724820031837, 40.251802725009149 ], [ -8.217170039735425, 40.251799361404018 ], [ -8.21705248318341, 40.251785669653323 ], [ -8.216841891409194, 40.25171774283352 ], [ -8.216753910617189, 40.251666563427399 ], [ -8.21665596996182, 40.251639350187951 ], [ -8.216602155673154, 40.251656591013052 ], [ -8.216538678794288, 40.251741920862365 ], [ -8.216597513484137, 40.251888489329779 ], [ -8.216685898802243, 40.252072502373153 ], [ -8.216703726527934, 40.252231706709694 ], [ -8.215203477156653, 40.252132660445412 ], [ -8.215011041120572, 40.252300759542827 ], [ -8.214868925659953, 40.252194232213377 ], [ -8.214787680605619, 40.252269131416945 ], [ -8.214607854843832, 40.252367512416036 ], [ -8.214499519391072, 40.252396587346404 ], [ -8.214050809039319, 40.252533078808419 ], [ -8.213676120304173, 40.252645647137484 ], [ -8.213492961848177, 40.252711067478494 ], [ -8.213383297689646, 40.252810207434607 ], [ -8.213271968125511, 40.252988420289505 ], [ -8.213081187263299, 40.253264669293891 ], [ -8.212918506064256, 40.253457598528534 ], [ -8.21260347060948, 40.253626675048402 ], [ -8.21226523054793, 40.25376001714973 ], [ -8.212010714514202, 40.253822334590502 ], [ -8.211801369307388, 40.253814917661032 ], [ -8.211554454950234, 40.253746733961655 ], [ -8.211272169296171, 40.253587349358895 ], [ -8.210959502218131, 40.253573786640963 ], [ -8.208956737794717, 40.253565238120757 ], [ -8.207672525893726, 40.25368929455697 ], [ -8.207105831019771, 40.25386725811066 ], [ -8.206604226207659, 40.25423852941902 ], [ -8.206440505871278, 40.254145698812366 ], [ -8.205710153039993, 40.253969479887424 ], [ -8.204782231979738, 40.254020411535961 ], [ -8.203407648092769, 40.254176896559358 ], [ -8.20295834815496, 40.254453289182607 ], [ -8.201926169264727, 40.25462953780255 ], [ -8.200985430142234, 40.254687561208954 ], [ -8.200643626573497, 40.254579968950104 ], [ -8.200414232417156, 40.254398282673016 ], [ -8.200015414807398, 40.253694632179844 ], [ -8.199798419164422, 40.25321160602509 ], [ -8.199516336300682, 40.252753019815721 ], [ -8.19903350743791, 40.252418653699088 ], [ -8.197896001710463, 40.25183934117603 ], [ -8.196886684157084, 40.251321460995307 ], [ -8.195732320069679, 40.25052482985194 ], [ -8.195175354189946, 40.249935534970106 ], [ -8.19482492085033, 40.249358820178415 ], [ -8.194533939092908, 40.247873579142663 ], [ -8.194429824453406, 40.247003316268191 ], [ -8.194376406704022, 40.246311529681257 ], [ -8.194262124069228, 40.245874271385496 ], [ -8.19415345343873, 40.245538868455512 ], [ -8.193824513938315, 40.245425125133046 ], [ -8.193174954656101, 40.245433309047833 ], [ -8.192674225510883, 40.2456100854276 ], [ -8.192188039348315, 40.246161851628436 ], [ -8.191993437389758, 40.246705900159263 ], [ -8.192142278782235, 40.247422679829526 ], [ -8.192594292347643, 40.248197476822533 ], [ -8.192906330244178, 40.248845180516206 ], [ -8.192853530469412, 40.249334850054048 ], [ -8.19245364433657, 40.249804529520389 ], [ -8.19154742865433, 40.250297439067452 ], [ -8.190847475632021, 40.250516189339045 ], [ -8.190198060746377, 40.250609102024768 ], [ -8.189502156459367, 40.250493820362045 ], [ -8.188531045199809, 40.250159111341347 ], [ -8.187611693457427, 40.249724495367381 ], [ -8.187200880914707, 40.249255856491615 ], [ -8.187142902142412, 40.248639799715008 ], [ -8.18732038864386, 40.24794510571023 ], [ -8.187632295631156, 40.247364442739489 ], [ -8.188074398265012, 40.247029847784383 ], [ -8.188574341622163, 40.246726825715676 ], [ -8.188913184409856, 40.246324463183583 ], [ -8.188927671483322, 40.245804373112868 ], [ -8.188735673014961, 40.24529537672462 ], [ -8.188052857698347, 40.244602542340154 ], [ -8.187489067274495, 40.244141094788837 ], [ -8.186810491660005, 40.243858549716585 ], [ -8.186164699452817, 40.243706210660193 ], [ -8.185288492926178, 40.243753902177104 ], [ -8.184574632783704, 40.244015129379434 ], [ -8.184067639945505, 40.244471594740475 ], [ -8.183582682663349, 40.245316372722755 ], [ -8.183383435919978, 40.246185241424847 ], [ -8.182755075081946, 40.247183179421434 ], [ -8.181968557294404, 40.247791413691374 ], [ -8.181629249539164, 40.248420252142758 ], [ -8.18147467096637, 40.249348177372489 ], [ -8.181516462108046, 40.250229009957209 ], [ -8.181309042076684, 40.250748010273917 ], [ -8.180515489100166, 40.251286443132322 ], [ -8.179701852886774, 40.251538674076237 ], [ -8.178469537427615, 40.251605016810018 ], [ -8.178114998767581, 40.25153734511364 ], [ -8.177804886596219, 40.251463172801188 ], [ -8.177622945451336, 40.251464689259102 ], [ -8.177233807916416, 40.25150194760937 ], [ -8.176683813705843, 40.251612484335105 ], [ -8.176221196327639, 40.251616087010113 ], [ -8.175731963599294, 40.251542516081471 ], [ -8.175552621278245, 40.251390301914839 ], [ -8.175488541861306, 40.251172294819767 ], [ -8.175618144712454, 40.250932423547063 ], [ -8.176272552130298, 40.250358595129548 ], [ -8.176691666261112, 40.250164812275678 ], [ -8.177164273302413, 40.249827268534801 ], [ -8.177423046331498, 40.249257554098797 ], [ -8.177506984863353, 40.24894646215057 ], [ -8.177280072207459, 40.248649996646677 ], [ -8.176849827854845, 40.247831726333359 ], [ -8.176751929150996, 40.24731483236318 ], [ -8.176843041257902, 40.247005720265712 ], [ -8.177023436101482, 40.246814097402648 ], [ -8.177480630398849, 40.246658568226799 ], [ -8.177906985506004, 40.246606342266404 ], [ -8.178134086580894, 40.246494491984414 ], [ -8.178448301087494, 40.246248958173247 ], [ -8.178545128921154, 40.245889050545003 ], [ -8.178510942651135, 40.245572424000464 ], [ -8.178264482161739, 40.245384480795849 ], [ -8.178013040717142, 40.245304432270771 ], [ -8.176978664427066, 40.24507321650713 ], [ -8.175702427350378, 40.245013193970365 ], [ -8.174822808533573, 40.245103314955216 ], [ -8.174159871558139, 40.245316908792098 ], [ -8.173380299567039, 40.245841962366775 ], [ -8.172300379249776, 40.246858823883947 ], [ -8.171586590169117, 40.247378885244757 ], [ -8.170781248059271, 40.247924553005149 ], [ -8.169533046548565, 40.248486747719276 ], [ -8.168093274336302, 40.248891028676681 ], [ -8.166430952284745, 40.249186485652949 ], [ -8.165029508098725, 40.24943221966209 ], [ -8.164160835185424, 40.249449670606495 ], [ -8.163749436045331, 40.249374316077542 ], [ -8.163629269441168, 40.249278438657065 ], [ -8.163716680470575, 40.249204116738518 ], [ -8.165370938142164, 40.247795149530454 ], [ -8.168070266723902, 40.245248490329629 ], [ -8.170855425224058, 40.242711198822974 ], [ -8.175018085408329, 40.237902434164702 ], [ -8.17680719274799, 40.236826909765597 ], [ -8.177834340332165, 40.236639901302176 ], [ -8.178566540315604, 40.236633123734528 ], [ -8.179139106883506, 40.236880907165315 ], [ -8.179804948726419, 40.236753377264954 ], [ -8.18149831508808, 40.236331638422328 ], [ -8.181813667838766, 40.236272960146323 ], [ -8.18186771415454, 40.236262760802212 ], [ -8.182082873506129, 40.235788247320926 ], [ -8.182053784249685, 40.235075360727009 ], [ -8.182057998818745, 40.234740169980711 ], [ -8.182204560438802, 40.234307378544905 ], [ -8.184386846760409, 40.232611605403974 ], [ -8.185261209775531, 40.232042756447221 ], [ -8.185651097973654, 40.231913343653083 ], [ -8.185656016698603, 40.231898208912718 ], [ -8.185743817943756, 40.231785327683845 ], [ -8.18576060403322, 40.231766674364309 ], [ -8.185891908099206, 40.231681329282765 ], [ -8.186143382104065, 40.231559095175854 ], [ -8.186439776740798, 40.231491410701857 ], [ -8.186467852849622, 40.231484099431128 ], [ -8.186733063970548, 40.231349156772687 ], [ -8.186990044894497, 40.231210617701933 ], [ -8.187027865472171, 40.231196187146494 ], [ -8.18711793479171, 40.23113058265313 ], [ -8.18714106747894, 40.231108599413133 ], [ -8.187154907804748, 40.231084723878453 ], [ -8.187155590321229, 40.23090713203591 ], [ -8.187153339692429, 40.230884352819103 ], [ -8.187145204498067, 40.230852561505557 ], [ -8.187129196434974, 40.23082186177129 ], [ -8.186924136976957, 40.230649410835724 ], [ -8.186903441395188, 40.230632848812846 ], [ -8.186884509760525, 40.230615119710556 ], [ -8.186809096866208, 40.230496366810435 ], [ -8.18671349577337, 40.230258930753791 ], [ -8.186633061393794, 40.230036885780073 ], [ -8.186617978725771, 40.229987093162755 ], [ -8.186614787598202, 40.229963407478557 ], [ -8.186614415783801, 40.229940354502006 ], [ -8.186693768687693, 40.229698330873724 ], [ -8.186720057895672, 40.229522436441528 ], [ -8.18671967904849, 40.229491995975941 ], [ -8.186714250186418, 40.229461654211676 ], [ -8.186702709686957, 40.229432119498668 ], [ -8.186562172296135, 40.229271160958206 ], [ -8.186508438273355, 40.229222196689413 ], [ -8.186479510916849, 40.229199156880398 ], [ -8.186235257645437, 40.229079946361068 ], [ -8.186209633875317, 40.229068162268966 ], [ -8.186186124912648, 40.229054661588634 ], [ -8.18616107602252, 40.229028198601647 ], [ -8.186146246529221, 40.228999474963494 ], [ -8.186135654934423, 40.228971923743494 ], [ -8.186114595261875, 40.22894410443984 ], [ -8.18590402327383, 40.228773728209035 ], [ -8.185873573418423, 40.228752038016246 ], [ -8.185802109904509, 40.228724242522148 ], [ -8.18576391551022, 40.228712731526294 ], [ -8.185727248506179, 40.228698069580062 ], [ -8.185639748309415, 40.22859931974461 ], [ -8.185603522171737, 40.228545299328026 ], [ -8.185587164809151, 40.228518650354104 ], [ -8.18556376608182, 40.228493806638085 ], [ -8.185537309429295, 40.228474187690779 ], [ -8.185392992874332, 40.228434811886643 ], [ -8.185355393595231, 40.228428342857526 ], [ -8.185112522143351, 40.228275356519113 ], [ -8.184910874224547, 40.228093087639316 ], [ -8.184740817029709, 40.227890266489545 ], [ -8.184599647952282, 40.227668338946479 ], [ -8.184589524789462, 40.227643845754507 ], [ -8.184578929301447, 40.227468779571325 ], [ -8.184578554572621, 40.227434735847851 ], [ -8.184574292751451, 40.22740177635503 ], [ -8.184563463085334, 40.227370534494469 ], [ -8.184497372419623, 40.227293202757394 ], [ -8.184473620882562, 40.227271509216429 ], [ -8.184450339166544, 40.227252698232746 ], [ -8.184425306666407, 40.227238393644285 ], [ -8.184167129058501, 40.227184745634801 ], [ -8.18408816596189, 40.227174334562257 ], [ -8.18404575023513, 40.22717102197462 ], [ -8.184004143934446, 40.227162844058533 ], [ -8.183963718123552, 40.227151066873517 ], [ -8.183931040275009, 40.22713189787801 ], [ -8.183726221439089, 40.226941158292632 ], [ -8.18350849638467, 40.22677807280278 ], [ -8.183437028766626, 40.226731096993142 ], [ -8.183412110928638, 40.226718769817879 ], [ -8.183385079607472, 40.22670833388208 ], [ -8.183304824153666, 40.226701889009554 ], [ -8.183222822221197, 40.226710662013559 ], [ -8.183057647995271, 40.226742525844408 ], [ -8.183016177310151, 40.226747314129298 ], [ -8.182975176307199, 40.226748505262599 ], [ -8.182936991670458, 40.226746539520953 ], [ -8.182903027953497, 40.226737279918389 ], [ -8.182811698580505, 40.226688868628223 ], [ -8.182780661484433, 40.226668079350844 ], [ -8.182755388651373, 40.226647286692142 ], [ -8.182743263826318, 40.226623875794758 ], [ -8.1828074856924, 40.226404919743892 ], [ -8.182890976465536, 40.226188204122884 ], [ -8.182900264874876, 40.226038165438872 ], [ -8.182899071889846, 40.226015107384221 ], [ -8.182831066275055, 40.225891850188646 ], [ -8.182633239083062, 40.22577036148239 ], [ -8.182606435991689, 40.225758034037561 ], [ -8.182536728463068, 40.225708802747377 ], [ -8.182483812466691, 40.2256491174711 ], [ -8.182469582589665, 40.22562750950879 ], [ -8.182445328145905, 40.225563578339035 ], [ -8.182367315028328, 40.225409975422494 ], [ -8.182230980359556, 40.225190835548581 ], [ -8.18221756911877, 40.225168598597989 ], [ -8.182193647014856, 40.225074589500252 ], [ -8.182187171496658, 40.225052616177301 ], [ -8.182116948854866, 40.224947460334356 ], [ -8.18210119107019, 40.224928017076209 ], [ -8.182082025923529, 40.22491001439203 ], [ -8.182061104353927, 40.224893719055615 ], [ -8.181926285845163, 40.224823083693167 ], [ -8.181712572483764, 40.224661703281818 ], [ -8.18149451072083, 40.224495463832689 ], [ -8.181284898398552, 40.22432048297695 ], [ -8.181016453072814, 40.224183799158574 ], [ -8.180987658911077, 40.22417570941132 ], [ -8.180795564092696, 40.224169843050987 ], [ -8.180539582154575, 40.224207956514967 ], [ -8.180445729322685, 40.224240329535462 ], [ -8.180390879283463, 40.224260617815922 ], [ -8.18036292398784, 40.224269362203671 ], [ -8.180089655862444, 40.224281277410093 ], [ -8.180028320408688, 40.224274549704219 ], [ -8.179966984639202, 40.224260525427304 ], [ -8.179753424207473, 40.224148312354544 ], [ -8.179500472315988, 40.223978747421441 ], [ -8.179240494614952, 40.223854128422246 ], [ -8.179214173227537, 40.223843244533811 ], [ -8.179175273967935, 40.223833078909259 ], [ -8.179078679669539, 40.223802411869229 ], [ -8.178829284365678, 40.223682915669777 ], [ -8.178564135771763, 40.223547396506383 ], [ -8.178297951536166, 40.223432414977673 ], [ -8.178021074331028, 40.223326168155779 ], [ -8.17774456748627, 40.223233341044903 ], [ -8.177468059572673, 40.223148525777468 ], [ -8.177161133035812, 40.223066424084983 ], [ -8.176854334939803, 40.223011158964042 ], [ -8.176701367370281, 40.223007530580816 ], [ -8.176609612698586, 40.223016030600647 ], [ -8.176487196703285, 40.223019948158225 ], [ -8.176180524243222, 40.222974499382232 ], [ -8.176149854400293, 40.222967486227354 ], [ -8.176122477240158, 40.222955972517703 ], [ -8.17608850848818, 40.222934281936105 ], [ -8.176060997107152, 40.222909256783566 ], [ -8.176043003408566, 40.22288053299372 ], [ -8.17603024281042, 40.222764633323912 ], [ -8.176028575580041, 40.222732844188137 ], [ -8.176010701759743, 40.2227078154487 ], [ -8.175938542820573, 40.222674880756387 ], [ -8.175871796333634, 40.222654645872083 ], [ -8.17592691799786, 40.222507740057473 ], [ -8.176095015909693, 40.22210862845612 ], [ -8.176763450457551, 40.221148353464827 ], [ -8.17745806534945, 40.220194364924744 ], [ -8.17779267742231, 40.219885425454471 ], [ -8.177693941801582, 40.21980639571791 ], [ -8.176670091704008, 40.218395146321754 ], [ -8.1766308576514, 40.218045378050135 ], [ -8.177069828818752, 40.217111754858074 ], [ -8.177786061196619, 40.215709450883438 ], [ -8.177147817571218, 40.214818403237189 ], [ -8.177098028996051, 40.214675140679752 ], [ -8.176988871541035, 40.214459853706131 ], [ -8.176892750743606, 40.214244651749652 ], [ -8.176837933458808, 40.214136874975125 ], [ -8.176712452638313, 40.213921599289499 ], [ -8.17660012006956, 40.213706403175429 ], [ -8.176518457499832, 40.213491105387853 ], [ -8.176350800596483, 40.213280706461248 ], [ -8.176210638102031, 40.213065703157113 ], [ -8.176195463966138, 40.21303896138344 ], [ -8.176191029676241, 40.212903879540569 ], [ -8.176207673842043, 40.212849835443464 ], [ -8.17623771542223, 40.212795790855417 ], [ -8.176394746653827, 40.21258688618822 ], [ -8.176496680072686, 40.212370167761833 ], [ -8.176552082835958, 40.21212671928312 ], [ -8.176549106159529, 40.211883833943638 ], [ -8.176532702045119, 40.211775769680273 ], [ -8.176456892802856, 40.211536067279248 ], [ -8.176440782467026, 40.211512657152021 ], [ -8.176401404331099, 40.211471065673315 ], [ -8.176172710670938, 40.211314093128927 ], [ -8.176119603558714, 40.211286012761434 ], [ -8.176095039179529, 40.211273598289765 ], [ -8.176061084287278, 40.211264603223867 ], [ -8.175999176491105, 40.211258684106475 ], [ -8.175722900051927, 40.211259690333883 ], [ -8.175653004245504, 40.211255214010265 ], [ -8.175619406482623, 40.211249917393936 ], [ -8.175587681910812, 40.211238309667976 ], [ -8.175558304778413, 40.211221749645595 ], [ -8.175385393935235, 40.211045389747532 ], [ -8.175355310796553, 40.21102289146058 ], [ -8.175328756539765, 40.211008222482221 ], [ -8.174988411458788, 40.209845519837408 ], [ -8.174605013597386, 40.209483726342171 ], [ -8.174609900362318, 40.208665635632492 ], [ -8.174579938572172, 40.208657001632851 ], [ -8.174361490741536, 40.20833341580132 ], [ -8.174150449671254, 40.208021349929325 ], [ -8.174012131446647, 40.207722231844393 ], [ -8.173913398206379, 40.207624106257825 ], [ -8.173814564162148, 40.207162592654036 ], [ -8.173839145550048, 40.207026055833417 ], [ -8.173704990193524, 40.206431991609961 ], [ -8.173599668619691, 40.205548113342481 ] ] ] } },
{ "type": "Feature", "properties": { "dtmnfr": "061703", "freguesia": "Poiares (Santo André)", "municipio": "Vila Nova de Poiares", "distrito_i": "Coimbra", "nuts3_cod": "192", "nuts3": "Região de Coimbra", "nuts2": "Centro", "nuts1": "Continente", "area_ha": 2880.69, "perimetro_": 34, "designacao": "Poiares (Santo André)" }, "geometry": { "type": "Polygon", "coordinates": [ [ [ -8.218857929539848, 40.18588214582001 ], [ -8.220352068966971, 40.184217723745292 ], [ -8.223444483891008, 40.183213766961366 ], [ -8.22379713855792, 40.183074525540341 ], [ -8.224016305216086, 40.183037695092487 ], [ -8.224187955293674, 40.18303025999176 ], [ -8.224388117947507, 40.183000831337985 ], [ -8.224664524040259, 40.182920100232437 ], [ -8.224721644547063, 40.182876463731908 ], [ -8.224855189868276, 40.182817819552788 ], [ -8.225302953049216, 40.182685698355492 ], [ -8.2255125537983, 40.182612402348454 ], [ -8.225741076866292, 40.182378335285257 ], [ -8.225874290671996, 40.182173342307323 ], [ -8.225988399842016, 40.181902807752678 ], [ -8.226245392464987, 40.181544340651513 ], [ -8.2263499624156, 40.181427182302485 ], [ -8.226521496583606, 40.181339234564838 ], [ -8.226845422226912, 40.18123647824622 ], [ -8.227226628846344, 40.18112674441727 ], [ -8.227493336200851, 40.18100206105315 ], [ -8.22767456154301, 40.180958053465126 ], [ -8.227990223327636, 40.180915015306347 ], [ -8.229040996582595, 40.180284353142802 ], [ -8.229897370559774, 40.179934921413626 ], [ -8.230262109209082, 40.17972946024463 ], [ -8.230740989277832, 40.179460043468602 ], [ -8.23139055591971, 40.179094115716133 ], [ -8.232476960141041, 40.178936739387183 ], [ -8.233727928333478, 40.178755253318123 ], [ -8.234367752281896, 40.178711911082424 ], [ -8.235452444634968, 40.178674917448234 ], [ -8.235738016472403, 40.178692128035223 ], [ -8.236384391465958, 40.178486302086228 ], [ -8.2366988813126, 40.17837632454188 ], [ -8.236965702138308, 40.178346813564964 ], [ -8.23711825398539, 40.178368650160117 ], [ -8.237270941083871, 40.178405161576286 ], [ -8.237375784242825, 40.178478192558281 ], [ -8.237605043140281, 40.178675211866995 ], [ -8.237709806449413, 40.178697268219857 ], [ -8.237905163123415, 40.178689614844174 ], [ -8.238143659592263, 40.178638241507322 ], [ -8.238333964251543, 40.178477310366659 ], [ -8.238609984183777, 40.178169776341718 ], [ -8.238781248883029, 40.178001570610142 ], [ -8.238905107276574, 40.177920941879883 ], [ -8.239105088824674, 40.177869601744924 ], [ -8.239581853051144, 40.177847186235212 ], [ -8.239734293201847, 40.177803094359639 ], [ -8.239982004174308, 40.177715051950422 ], [ -8.240086862667303, 40.177649392017464 ], [ -8.240334595781295, 40.177649159246997 ], [ -8.240468001980936, 40.177670738082881 ], [ -8.240725782494575, 40.177787573908262 ], [ -8.240964232285629, 40.17785317718382 ], [ -8.241087992192456, 40.177860356621025 ], [ -8.241431034426723, 40.177772225766596 ], [ -8.241583355935923, 40.177728218024214 ], [ -8.241735765407052, 40.177589293913975 ], [ -8.241868781002234, 40.177369693879761 ], [ -8.24192602845709, 40.177340370849578 ], [ -8.24215464420219, 40.177281616375041 ], [ -8.242650349493227, 40.177142360905506 ], [ -8.242888435061744, 40.177061618873729 ], [ -8.243183822634524, 40.176914992211948 ], [ -8.243450484803546, 40.176790628691556 ], [ -8.243555412721525, 40.176768556899518 ], [ -8.243898471643641, 40.176768223728672 ], [ -8.24406056259215, 40.176738797466399 ], [ -8.244289077749873, 40.176621495881825 ], [ -8.244650966799728, 40.176365107669739 ], [ -8.245556080858776, 40.176101155672917 ], [ -8.246175656055723, 40.17604930227386 ], [ -8.246442982479861, 40.176043722004664 ], [ -8.246557049004023, 40.176085484223343 ], [ -8.247157848001624, 40.176172695390775 ], [ -8.247558454318138, 40.17618355117564 ], [ -8.247619763931926, 40.176199517491256 ], [ -8.247650411803463, 40.176200925420673 ], [ -8.247711597393412, 40.176210144574156 ], [ -8.248015474152181, 40.176297105358096 ], [ -8.248319468479687, 40.176383703187838 ], [ -8.248380193117907, 40.176398593474637 ], [ -8.248586815815406, 40.176458359801344 ], [ -8.248616082985876, 40.176477695137294 ], [ -8.248639719055012, 40.176499642398383 ], [ -8.248711790542924, 40.176558378219895 ], [ -8.24874292784231, 40.1765741083873 ], [ -8.248780759869634, 40.176587848754259 ], [ -8.248810471375304, 40.176594299726808 ], [ -8.24911536410387, 40.176656221043594 ], [ -8.249419578202419, 40.176731562860688 ], [ -8.249722276298671, 40.176809784596806 ], [ -8.249898821772661, 40.176858055792295 ], [ -8.250166975939488, 40.176990887978938 ], [ -8.250431479621843, 40.177117508255137 ], [ -8.250460845071913, 40.177124589568457 ], [ -8.250793190619296, 40.17717089748912 ], [ -8.250962543453019, 40.177203145634302 ], [ -8.251090800986207, 40.177230571319143 ], [ -8.251133190304397, 40.177231336846901 ], [ -8.251173807328586, 40.177227691265962 ], [ -8.251212294207114, 40.177217748203091 ], [ -8.251249485294098, 40.177201948099075 ], [ -8.251287626966667, 40.177189298184011 ], [ -8.251327759866736, 40.177179351601367 ], [ -8.251410621201645, 40.177164677374371 ], [ -8.25161864013347, 40.177149510305931 ], [ -8.251919028920778, 40.177181530990389 ], [ -8.252192722665626, 40.17725644473019 ], [ -8.252467840959334, 40.177276956098297 ], [ -8.252496034754673, 40.17728593474957 ], [ -8.252578403333143, 40.177322414716862 ], [ -8.25280892100494, 40.177482026279748 ], [ -8.252959846478802, 40.177575344376237 ], [ -8.253261950790719, 40.177651308680147 ], [ -8.253565028358992, 40.177742125543801 ], [ -8.253754329075486, 40.177829192186344 ], [ -8.254017170011844, 40.17793752847011 ], [ -8.254093567543086, 40.17798391649761 ], [ -8.254111685306933, 40.178003890701682 ], [ -8.254123232139145, 40.178026122350019 ], [ -8.254142807793976, 40.178075629933012 ], [ -8.254245814621914, 40.178291934406943 ], [ -8.254331507194486, 40.17841369297804 ], [ -8.254349285616101, 40.178438166854932 ], [ -8.254370221915982, 40.178460392246407 ], [ -8.254397262867462, 40.178480896512319 ], [ -8.254627801942679, 40.178647258833578 ], [ -8.254660358222633, 40.178662713934862 ], [ -8.254713240159687, 40.178689042137805 ], [ -8.254783305923626, 40.178741384761906 ], [ -8.254800249286017, 40.178761627565343 ], [ -8.254813911315622, 40.178784666550399 ], [ -8.254959028608091, 40.178975345682709 ], [ -8.254983615705795, 40.179002881509959 ], [ -8.255159860683587, 40.179201900411876 ], [ -8.255306655461309, 40.179412299380402 ], [ -8.255410950119623, 40.179626618303374 ], [ -8.255486507179057, 40.179850600230459 ], [ -8.255548998814737, 40.179997417929819 ], [ -8.255576746341168, 40.180015938064692 ], [ -8.255610921004214, 40.180022659948342 ], [ -8.255647440281241, 40.180023431834265 ], [ -8.255886982338675, 40.180035870089661 ], [ -8.255916358057835, 40.180047634880864 ], [ -8.255940814868556, 40.180067602066885 ], [ -8.255956128390093, 40.180093250874762 ], [ -8.255995264906144, 40.180179307686032 ], [ -8.255983283334901, 40.180240107623597 ], [ -8.256015188619797, 40.180285913862058 ], [ -8.25602189906963, 40.180295814144515 ], [ -8.256694336362804, 40.181261505774806 ], [ -8.257318878261525, 40.181903933402616 ], [ -8.257813928082031, 40.182233186898834 ], [ -8.25828501664845, 40.182683231626278 ], [ -8.258502981944201, 40.182891836511942 ], [ -8.259902375766337, 40.184143544976529 ], [ -8.262945836026377, 40.184664348969093 ], [ -8.263015377178629, 40.184676428033633 ], [ -8.26907849566301, 40.186072123192943 ], [ -8.26910821675882, 40.186077402667308 ], [ -8.27179174293977, 40.18696151955249 ], [ -8.272612176872221, 40.18701428648248 ], [ -8.273360284885111, 40.187125131450657 ], [ -8.274102404144948, 40.187235349362339 ], [ -8.275462555609378, 40.187299859371528 ], [ -8.275854502674163, 40.187179772081322 ], [ -8.277380647253622, 40.187390393472491 ], [ -8.279917705656024, 40.187376451909685 ], [ -8.283145511509636, 40.186808676689594 ], [ -8.286898287913729, 40.18604720523107 ], [ -8.287720225423337, 40.185580677265307 ], [ -8.288040510132804, 40.185307010857841 ], [ -8.288693599405455, 40.184337639989302 ], [ -8.288928982396799, 40.183759862910776 ], [ -8.288915942986767, 40.182741051140987 ], [ -8.289152137188868, 40.181607795956893 ], [ -8.289322957013882, 40.179623223736897 ], [ -8.289918070333542, 40.178595745948662 ], [ -8.290305831407338, 40.178024423410257 ], [ -8.29174554844818, 40.177697234457739 ], [ -8.294091268948003, 40.177656770689154 ], [ -8.297156172829389, 40.178169712502886 ], [ -8.300973315677544, 40.179653928971298 ], [ -8.302592250291834, 40.180051676011232 ], [ -8.303342643164186, 40.180986897117876 ], [ -8.305332711585972, 40.183108218869179 ], [ -8.306859657786077, 40.184492538768119 ], [ -8.307191758543883, 40.184235368002525 ], [ -8.307294555616298, 40.18416424505628 ], [ -8.307315212622324, 40.184116663698624 ], [ -8.307273107126676, 40.183816473775416 ], [ -8.307261951873365, 40.183453106769306 ], [ -8.30729235026269, 40.183310678565945 ], [ -8.307374611308624, 40.183199962246761 ], [ -8.307580323512921, 40.183065375259723 ], [ -8.307806613907294, 40.182938677549814 ], [ -8.308145857455091, 40.182677260430452 ], [ -8.308176633436451, 40.182590308695012 ], [ -8.308206797177231, 40.182361152797505 ], [ -8.308319486469319, 40.182076489289919 ], [ -8.308442506292241, 40.18183926484749 ], [ -8.308514394875118, 40.181760085881038 ], [ -8.308576150011328, 40.18171270678031 ], [ -8.308802479270643, 40.181649052001774 ], [ -8.308926109739328, 40.181601578799068 ], [ -8.309275744285872, 40.1814114720354 ], [ -8.309481641650045, 40.181347842511734 ], [ -8.309677328218656, 40.181331784797344 ], [ -8.30979068736433, 40.181307922715952 ], [ -8.309955234494398, 40.18123643474825 ], [ -8.31006824005914, 40.18107838488752 ], [ -8.31033518779226, 40.180746201552992 ], [ -8.310437670630753, 40.18060366029372 ], [ -8.31051984694793, 40.180421703271513 ], [ -8.310622536861821, 40.180358503595045 ], [ -8.310787518385474, 40.180366083861145 ], [ -8.310983278826999, 40.18046853710181 ], [ -8.311220819292593, 40.180649993128327 ], [ -8.31129313922175, 40.180736517799566 ], [ -8.311169609610912, 40.180776425713965 ], [ -8.311087322812057, 40.180784389182378 ], [ -8.311015398507923, 40.180847904032461 ], [ -8.310964194340016, 40.181021616638439 ], [ -8.310965570018617, 40.181543051249044 ], [ -8.311017608459727, 40.181685442064271 ], [ -8.311079616879878, 40.181780176273023 ], [ -8.311265610879838, 40.181961355656213 ], [ -8.311337996349096, 40.182071921448625 ], [ -8.311358610190812, 40.182095757169478 ], [ -8.311360371657067, 40.182806942834453 ], [ -8.311309097712817, 40.182909778258569 ], [ -8.311278277398541, 40.182933423869493 ], [ -8.31123698365367, 40.182901964936939 ], [ -8.311175014023089, 40.182822992909585 ], [ -8.311102856527569, 40.182799416532795 ], [ -8.311051313736144, 40.182799496664643 ], [ -8.31103084589901, 40.182831142455612 ], [ -8.311000351569703, 40.182933764788295 ], [ -8.310928348404909, 40.183012945457236 ], [ -8.310876990680981, 40.183083991768108 ], [ -8.310692866845892, 40.183613640576603 ], [ -8.310631278826389, 40.183724326644807 ], [ -8.31060063892839, 40.183771925702118 ], [ -8.310579879898732, 40.183779884523297 ], [ -8.310538697509136, 40.183748425175736 ], [ -8.310414614722998, 40.183535268077627 ], [ -8.310259736860418, 40.183400961439546 ], [ -8.310166829349791, 40.183345990122298 ], [ -8.31005353823709, 40.183306449984137 ], [ -8.309909112363965, 40.183306672429573 ], [ -8.309785736762111, 40.183362340754201 ], [ -8.309518382814806, 40.183544486715405 ], [ -8.309405247156668, 40.183655252468668 ], [ -8.309374432194463, 40.183726266822831 ], [ -8.309354219725174, 40.183852917919268 ], [ -8.309220852294059, 40.184042879790297 ], [ -8.309210813525301, 40.184153482166629 ], [ -8.309190511402891, 40.184248347922619 ], [ -8.308882187423121, 40.18457275701946 ], [ -8.30880000457822, 40.184620167263134 ], [ -8.308707163063248, 40.184636066647407 ], [ -8.308604363986564, 40.184660091768848 ], [ -8.308583944212641, 40.184707402814922 ], [ -8.308615383182888, 40.184968254385126 ], [ -8.308553784315546, 40.185031389072904 ], [ -8.308337562238204, 40.185102953232608 ], [ -8.308286035503476, 40.185110868146438 ], [ -8.308050105604103, 40.185458855448175 ], [ -8.308017958314268, 40.185516268918498 ], [ -8.308916536935037, 40.186306328510277 ], [ -8.309633455357689, 40.186774607145423 ], [ -8.310646697636191, 40.188196680601706 ], [ -8.311793299134829, 40.189546674710442 ], [ -8.311707938907823, 40.189594353955655 ], [ -8.31023800469154, 40.190412741847425 ], [ -8.308464162051587, 40.191067043036746 ], [ -8.307286975941613, 40.191590812530798 ], [ -8.3062887604815, 40.192079179451071 ], [ -8.304799169732561, 40.192834215091992 ], [ -8.303353472429276, 40.193451832521063 ], [ -8.302772570438627, 40.193753757641034 ], [ -8.302310778276816, 40.193973192875255 ], [ -8.302240165937025, 40.194006435031362 ], [ -8.302006505209194, 40.194117100114923 ], [ -8.301752558650589, 40.19423770255797 ], [ -8.300835523335662, 40.194672408112261 ], [ -8.300180171106005, 40.19503251689585 ], [ -8.299479842994105, 40.195346937586024 ], [ -8.298227163703313, 40.195744738863112 ], [ -8.297078810196377, 40.196119584947212 ], [ -8.296422574586057, 40.196318924869296 ], [ -8.295378359294689, 40.196589681876603 ], [ -8.294587835385162, 40.196824140579302 ], [ -8.293886917766935, 40.197058374001841 ], [ -8.29317165226964, 40.197384124608611 ], [ -8.291950819889891, 40.197524246427051 ], [ -8.291919467680742, 40.197527983655498 ], [ -8.289436574118263, 40.197812832185882 ], [ -8.289260755144262, 40.198163758622172 ], [ -8.288844417940831, 40.198977005001858 ], [ -8.287744025156007, 40.200078017288192 ], [ -8.286961146618541, 40.201012613602217 ], [ -8.286956601888953, 40.201079893565606 ], [ -8.286953033801183, 40.201161487976648 ], [ -8.286519136245884, 40.210412815088347 ], [ -8.286105324550423, 40.211041797426418 ], [ -8.286088083267536, 40.211103143845648 ], [ -8.285998702283184, 40.211417656650291 ], [ -8.28597816617291, 40.211840418106348 ], [ -8.285614557239558, 40.212545152585477 ], [ -8.285358392406993, 40.213234169835026 ], [ -8.285187801217768, 40.213845164346651 ], [ -8.285511099779784, 40.214267377837338 ], [ -8.286092279485629, 40.214704821885753 ], [ -8.286565827471422, 40.215173928923988 ], [ -8.28682421578117, 40.21540827153202 ], [ -8.28691074554717, 40.215642844732301 ], [ -8.286740047760114, 40.216206748890905 ], [ -8.286722105406637, 40.216272691969031 ], [ -8.286654111214471, 40.21653953383781 ], [ -8.286633491525569, 40.216613859498111 ], [ -8.286742408047932, 40.217239885797831 ], [ -8.286716212109482, 40.21728999311599 ], [ -8.286549865536895, 40.217600103394922 ], [ -8.286186232345736, 40.218305021831142 ], [ -8.285825992752116, 40.218903217019196 ], [ -8.285779529420164, 40.218978659095519 ], [ -8.285458832205247, 40.219715034422869 ], [ -8.28540024848164, 40.2199410701133 ], [ -8.285362054955641, 40.219935263853287 ], [ -8.28504922574921, 40.219892632351836 ], [ -8.284755383213529, 40.219829982142286 ], [ -8.284508531475348, 40.21976726883139 ], [ -8.284038165824903, 40.219623798496713 ], [ -8.284026512653075, 40.219614720483001 ], [ -8.284003018751905, 40.219614752013072 ], [ -8.283661907984293, 40.219480202980336 ], [ -8.283650275012347, 40.219480218110441 ], [ -8.28365025488524, 40.219471124027805 ], [ -8.283426722103309, 40.219381358718415 ], [ -8.28337980980027, 40.219363409728935 ], [ -8.283073961838813, 40.219237730766224 ], [ -8.282862260179032, 40.219130028288454 ], [ -8.282709477192649, 40.219049177685996 ], [ -8.282415431983674, 40.218896370501923 ], [ -8.281944837388977, 40.218590881139392 ], [ -8.281544894741716, 40.218357158770189 ], [ -8.281380227891361, 40.218267404043466 ], [ -8.281086237635717, 40.218132610499417 ], [ -8.280886521747844, 40.218078921482238 ], [ -8.280768910602678, 40.218069979264712 ], [ -8.280678105296314, 40.218074329618972 ], [ -8.280580961017343, 40.218079315686317 ], [ -8.279794353798358, 40.218305470534865 ], [ -8.279160440641483, 40.218468299137029 ], [ -8.278972515896424, 40.218486549611029 ], [ -8.278725711272028, 40.218495958072133 ], [ -8.278478948853266, 40.218469076867891 ], [ -8.278032303299264, 40.218307632444393 ], [ -8.277902994971621, 40.218271768153173 ], [ -8.27764435054265, 40.218235983334964 ], [ -8.277456387805259, 40.218236220588501 ], [ -8.276357165847463, 40.218302354455005 ], [ -8.276058688413876, 40.21831911860933 ], [ -8.275859092658035, 40.218319368535745 ], [ -8.275365508939172, 40.218292964939302 ], [ -8.275165898961205, 40.218284119576587 ], [ -8.274284964305831, 40.218357345060113 ], [ -8.274073386724416, 40.218357606520421 ], [ -8.273650273212143, 40.218267982334005 ], [ -8.273238818643776, 40.218133488828194 ], [ -8.272288615847565, 40.217660139288284 ], [ -8.27226239350516, 40.217648641519439 ], [ -8.270076939001603, 40.218040061563386 ], [ -8.270012872249261, 40.218077599909535 ], [ -8.269991871373794, 40.21808969259137 ], [ -8.265357349932135, 40.220110196822397 ], [ -8.264625329896052, 40.222210190952552 ], [ -8.263124553920701, 40.221777385758045 ], [ -8.262889451308869, 40.221706415133681 ], [ -8.262791832461138, 40.222441306342077 ], [ -8.262757372376159, 40.22290964723117 ], [ -8.262722601402455, 40.223152840446616 ], [ -8.262687889323265, 40.223369109696193 ], [ -8.262676228936114, 40.223477192909279 ], [ -8.262735443456652, 40.223720279959068 ], [ -8.262747364818189, 40.223747285046713 ], [ -8.262806095799949, 40.22380125072668 ], [ -8.263041448400056, 40.223935980798458 ], [ -8.263347044490667, 40.22406171378347 ], [ -8.263582258662328, 40.224124485298617 ], [ -8.263934727549131, 40.224187122063228 ], [ -8.264016970031761, 40.224187028176935 ], [ -8.2642049321336, 40.224177896052943 ], [ -8.264674692583698, 40.224078203283547 ], [ -8.265238444115917, 40.223978489607823 ], [ -8.26544992177435, 40.223978245303634 ], [ -8.265579091336271, 40.224005199735664 ], [ -8.265608370120511, 40.224017504231441 ], [ -8.26568491916156, 40.224050106896698 ], [ -8.265790923822948, 40.224184980351737 ], [ -8.265802865221977, 40.224220989143021 ], [ -8.265897720406809, 40.224716193721541 ], [ -8.266098226309213, 40.225049173450707 ], [ -8.266157062302243, 40.225094225112748 ], [ -8.266168731304976, 40.225112131526927 ], [ -8.266286441941579, 40.22516603211244 ], [ -8.266368702065487, 40.225174938775702 ], [ -8.2664860590467, 40.22516579865902 ], [ -8.266685668821482, 40.225102615823161 ], [ -8.266814780089398, 40.225039424042748 ], [ -8.267002511131089, 40.224913123414055 ], [ -8.267166762163171, 40.224795762759427 ], [ -8.267190224711506, 40.224777723894199 ], [ -8.267331311755321, 40.224768646387872 ], [ -8.26744885753665, 40.224795431189705 ], [ -8.267484042871414, 40.224822408780135 ], [ -8.267507610951442, 40.224858402091428 ], [ -8.26754308851373, 40.224975528723405 ], [ -8.267519997374311, 40.22511964814111 ], [ -8.26737986378, 40.225606033567665 ], [ -8.267368633826697, 40.22580417063341 ], [ -8.26741586204689, 40.225921283654287 ], [ -8.267651334627489, 40.226281143003504 ], [ -8.267710337812412, 40.226353212097052 ], [ -8.267710355463386, 40.226362129661048 ], [ -8.268004551529533, 40.226649965987924 ], [ -8.268040002895551, 40.226694953871991 ], [ -8.268181096041845, 40.226802942252917 ], [ -8.268275283496191, 40.226838766506212 ], [ -8.268334121306912, 40.226883817944703 ], [ -8.268451545599556, 40.226910691916892 ], [ -8.268909774324371, 40.226910147991539 ], [ -8.269121313753061, 40.226936825267387 ], [ -8.269227303195345, 40.226999738853848 ], [ -8.269286022923742, 40.227044698986717 ], [ -8.269321375879167, 40.227098687928127 ], [ -8.269321522731062, 40.227170827239156 ], [ -8.269298272300279, 40.227233894580628 ], [ -8.269216337106906, 40.227387001084743 ], [ -8.268958128073152, 40.227522482990118 ], [ -8.268817333943421, 40.227621622333487 ], [ -8.268594411146623, 40.227838116401379 ], [ -8.268453597913425, 40.227928252182281 ], [ -8.268012704424148, 40.228017478916094 ], [ -8.267560992457822, 40.228046379216373 ], [ -8.267278867179037, 40.228037793518226 ], [ -8.267044051971077, 40.22806508749612 ], [ -8.266715073568815, 40.228128694104136 ], [ -8.266351133746005, 40.228218817195327 ], [ -8.266221979759147, 40.228264086856534 ], [ -8.266139840234688, 40.228318124466426 ], [ -8.266104928339304, 40.228489275522207 ], [ -8.266116991698471, 40.228705492740261 ], [ -8.266176062150892, 40.228867525426502 ], [ -8.2661857241863, 40.228882640523381 ], [ -8.266282147047153, 40.229038420673234 ], [ -8.266341004263204, 40.229092476220998 ], [ -8.266753186236508, 40.22950625783222 ], [ -8.267200202155994, 40.229829942832062 ], [ -8.267306093270605, 40.229901776738572 ], [ -8.267388523025534, 40.229991824153807 ], [ -8.267426292747052, 40.230016549080098 ], [ -8.267447362804438, 40.230036785056264 ], [ -8.267579317735782, 40.230155865491909 ], [ -8.267623902763969, 40.23018066799014 ], [ -8.267681355037027, 40.230237426228186 ], [ -8.267788726814667, 40.23034257685589 ], [ -8.267812333664372, 40.230396495239582 ], [ -8.26782417640325, 40.230441510633376 ], [ -8.267824375026652, 40.230540572789558 ], [ -8.26777750811036, 40.230549726825359 ], [ -8.267577717144453, 40.230585893295952 ], [ -8.267019496738088, 40.230597895942239 ], [ -8.266971910703585, 40.230598762413663 ], [ -8.26667312592425, 40.230604964984543 ], [ -8.26646180095182, 40.23069536156806 ], [ -8.266379695162527, 40.23076740915667 ], [ -8.266309401920003, 40.230929599604124 ], [ -8.266309794935296, 40.231127813067914 ], [ -8.266357090425672, 40.231217726013334 ], [ -8.266404148644067, 40.231244684827914 ], [ -8.26668622453264, 40.231343422004514 ], [ -8.266745047492751, 40.231379465695724 ], [ -8.266790046987479, 40.231437320342252 ], [ -8.266780712272709, 40.231586555988159 ], [ -8.266745432488769, 40.231631535837657 ], [ -8.266675140710653, 40.231676647944674 ], [ -8.266557591719888, 40.231712805969899 ], [ -8.266346227699502, 40.231722151672059 ], [ -8.265993724415683, 40.231722562325551 ], [ -8.265899891685653, 40.231749684816741 ], [ -8.265864557482681, 40.231767737917842 ], [ -8.265841353678963, 40.231857732805672 ], [ -8.265841442763689, 40.231902762770467 ], [ -8.265994276933018, 40.232001646160917 ], [ -8.266147169319616, 40.232073607243777 ], [ -8.266217782527116, 40.23212746649282 ], [ -8.266276635329776, 40.232181525650589 ], [ -8.266441459866115, 40.232343436377484 ], [ -8.266476719375138, 40.232406434779797 ], [ -8.266512186982416, 40.232514372934446 ], [ -8.266489002976883, 40.232613552064961 ], [ -8.266324827163922, 40.232838886942382 ], [ -8.2661725274491, 40.233010082878685 ], [ -8.266067059897248, 40.233154298285783 ], [ -8.265973228414971, 40.233298498435225 ], [ -8.265961682237162, 40.233343540844125 ], [ -8.265961932139383, 40.233469621289125 ], [ -8.265997210752779, 40.233541719294529 ], [ -8.266034710114551, 40.233608313075926 ], [ -8.26609093771088, 40.23363949871807 ], [ -8.266103755506004, 40.233646237462466 ], [ -8.2661266957676, 40.233658640947361 ], [ -8.266160916401095, 40.233670940501746 ], [ -8.266232621232565, 40.233685535752343 ], [ -8.266263062257178, 40.233689103968153 ], [ -8.266408880900173, 40.233685330184457 ], [ -8.266620089675472, 40.233595025733543 ], [ -8.266714172661526, 40.2335769037049 ], [ -8.266772790003664, 40.233567736533963 ], [ -8.266991797661667, 40.233615121546435 ], [ -8.267077089402179, 40.233667076553999 ], [ -8.267111525036837, 40.233787173565979 ], [ -8.267126093374245, 40.233963580909432 ], [ -8.267126543071575, 40.234188722530675 ], [ -8.267138576896867, 40.234269759260492 ], [ -8.267186035110011, 40.234557886325987 ], [ -8.267245214331822, 40.234711006905201 ], [ -8.267259961690925, 40.234740257855755 ], [ -8.258448018132615, 40.235245404436121 ], [ -8.25838638493693, 40.235279244822564 ], [ -8.258386401368739, 40.235288161475495 ], [ -8.258376772838334, 40.235290784487894 ], [ -8.258280694838927, 40.23531538789112 ], [ -8.257470514420303, 40.235649485007926 ], [ -8.257137675034736, 40.235808527551448 ], [ -8.256784782774821, 40.235801885137789 ], [ -8.256745999521984, 40.235801026891828 ], [ -8.256347635131645, 40.235793351012042 ], [ -8.255749600328731, 40.235774273395386 ], [ -8.255017399257769, 40.235836387434617 ], [ -8.254271182997158, 40.236013425874447 ], [ -8.253442332660482, 40.236241966915479 ], [ -8.25286776457372, 40.236400713294707 ], [ -8.251972567334967, 40.236727297625713 ], [ -8.251808904003324, 40.236877593619063 ], [ -8.25177896181394, 40.236888882506946 ], [ -8.251466623975084, 40.237223320281281 ], [ -8.251317863188376, 40.237361894555448 ], [ -8.250363349923873, 40.237849190878414 ], [ -8.249497438680372, 40.238072699690512 ], [ -8.248272244177523, 40.23820677741076 ], [ -8.247893959046859, 40.238267949719578 ], [ -8.247676769164519, 40.238320489657809 ], [ -8.244647003359947, 40.24054566020753 ], [ -8.245716909829895, 40.253896586542922 ], [ -8.244452785595149, 40.253906565128851 ], [ -8.24144566017824, 40.253845525832475 ], [ -8.238598049412158, 40.253787952778524 ], [ -8.23819593607065, 40.2537806708931 ], [ -8.236338048777718, 40.25374806156637 ], [ -8.236451702775915, 40.251389992452715 ], [ -8.236183117860078, 40.249551624663958 ], [ -8.236359329337807, 40.248809572737329 ], [ -8.236904362436352, 40.241730663120137 ], [ -8.236821870158161, 40.241658785978018 ], [ -8.23669358213721, 40.241533900091113 ], [ -8.236680656891945, 40.241532834562598 ], [ -8.236645447520059, 40.241487746008168 ], [ -8.236598282325922, 40.241460770732679 ], [ -8.236563073321598, 40.241415863169237 ], [ -8.236386396197849, 40.241235820806381 ], [ -8.236186362924144, 40.240992849186298 ], [ -8.235974543926186, 40.240731962499211 ], [ -8.235786059028898, 40.240434852211237 ], [ -8.235750665576633, 40.240344915447601 ], [ -8.235621038701924, 40.240110887972541 ], [ -8.235575165202096, 40.240081570515905 ], [ -8.235561561446728, 40.239642641474056 ], [ -8.23559652758788, 40.239453488234055 ], [ -8.235760391144087, 40.239102118603697 ], [ -8.235797690761162, 40.239055616365704 ], [ -8.235924605617324, 40.238903841113711 ], [ -8.235959966167668, 40.238894716515169 ], [ -8.235936200832468, 40.238723627874982 ], [ -8.235789018137291, 40.238079308032866 ], [ -8.235789002902299, 40.238069222422695 ], [ -8.235782377132976, 40.238039422621441 ], [ -8.235770311798541, 40.237832302040445 ], [ -8.235769952156769, 40.237598061730942 ], [ -8.235828036411446, 40.237165729631052 ], [ -8.235898096950843, 40.236949623048375 ], [ -8.236038917091092, 40.236670316354278 ], [ -8.236073998458421, 40.236562214319406 ], [ -8.236073734719534, 40.236391194786229 ], [ -8.236061604669054, 40.236220095745686 ], [ -8.236108260562307, 40.235994912129676 ], [ -8.236213655875094, 40.235760580286779 ], [ -8.236354304596842, 40.235526392509897 ], [ -8.236647431972195, 40.235111857994518 ], [ -8.236706122712917, 40.234994641430056 ], [ -8.236834966240881, 40.234805493657447 ], [ -8.237116584272648, 40.23447202429842 ], [ -8.237304172226315, 40.234201681544647 ], [ -8.237304074292853, 40.234138549855096 ], [ -8.237350961885516, 40.234066549241334 ], [ -8.237397780231404, 40.234021477006905 ], [ -8.237444668549815, 40.233949300739404 ], [ -8.237538532646813, 40.233787112015968 ], [ -8.237608302592516, 40.233390796031024 ], [ -8.237748716321475, 40.233012515153398 ], [ -8.237795505321138, 40.23287729348597 ], [ -8.237794601395525, 40.232300928151197 ], [ -8.237735384274124, 40.232003882822475 ], [ -8.237711728940059, 40.231904842723729 ], [ -8.237617580825271, 40.23166168017017 ], [ -8.237535104389581, 40.231517664850365 ], [ -8.237382032897814, 40.231310673140186 ], [ -8.237346527998533, 40.231148603678506 ], [ -8.237311163600854, 40.231148635522281 ], [ -8.237205239970988, 40.231040753563647 ], [ -8.237028789064285, 40.230833783293605 ], [ -8.23689927456914, 40.23066279131217 ], [ -8.236498719882315, 40.230059681264535 ], [ -8.236392791430964, 40.229942790005609 ], [ -8.236180989966565, 40.229744857580975 ], [ -8.235945846013632, 40.229573960317246 ], [ -8.235780987931948, 40.229412006982855 ], [ -8.235757586138012, 40.229402929140505 ], [ -8.235710507737361, 40.229349030411448 ], [ -8.235663336590703, 40.229313051563167 ], [ -8.235663323003603, 40.229304043034546 ], [ -8.235439891007754, 40.229106115932652 ], [ -8.235204542634596, 40.228872266504631 ], [ -8.235027965276165, 40.228656200017291 ], [ -8.234945538444579, 40.228539201151399 ], [ -8.234851119233095, 40.228337553363772 ], [ -8.234804075997699, 40.228233128757104 ], [ -8.234803870576204, 40.228098130484199 ], [ -8.234862400678491, 40.22795398738964 ], [ -8.234921039444044, 40.227881799937308 ], [ -8.23494567290556, 40.22785620437913 ], [ -8.235009027476233, 40.227794008315101 ], [ -8.235003019758555, 40.227785277037398 ], [ -8.232488370652071, 40.224213836394554 ], [ -8.232272061407164, 40.224050031741214 ], [ -8.232037775420787, 40.223881646360709 ], [ -8.231947915630201, 40.223813279587468 ], [ -8.232497753855249, 40.223099095292874 ], [ -8.233617010960828, 40.222759851112052 ], [ -8.23473650280793, 40.22243185770121 ], [ -8.235512436276787, 40.222163239886001 ], [ -8.236077895604353, 40.221632559318223 ], [ -8.23622673609936, 40.221471222983055 ], [ -8.236805291198049, 40.220527883487719 ], [ -8.237385332243333, 40.219870744746459 ], [ -8.237771845116578, 40.219421271264743 ], [ -8.237979858270343, 40.219168018479721 ], [ -8.238143473598774, 40.218995136932051 ], [ -8.238663139348331, 40.218212233683609 ], [ -8.239316603102081, 40.217279796336008 ], [ -8.239702669365659, 40.216715764809408 ], [ -8.239999729565691, 40.216324365528713 ], [ -8.240297397929679, 40.216024373470525 ], [ -8.240520119165655, 40.215724995057286 ], [ -8.243555301913037, 40.212810160869154 ], [ -8.24365353303701, 40.212754049724353 ], [ -8.241664996150577, 40.210928869338936 ], [ -8.241531435684735, 40.210783822633964 ], [ -8.239695441562953, 40.208785191819324 ], [ -8.238571534305116, 40.206680052963499 ], [ -8.237608722471249, 40.205777302770173 ], [ -8.23758897279283, 40.205764080158936 ], [ -8.237416946441861, 40.205645991750565 ], [ -8.237125582215096, 40.205446780077558 ], [ -8.236261044107351, 40.204649114268669 ], [ -8.235246456835132, 40.204021878238549 ], [ -8.234694406153469, 40.203704376337086 ], [ -8.233963624095734, 40.203398560567543 ], [ -8.233537191945645, 40.203191442141787 ], [ -8.232677855322217, 40.202758567549651 ], [ -8.232331415140107, 40.202550836373689 ], [ -8.23135253461761, 40.201720090677092 ], [ -8.230590627797358, 40.201072872288016 ], [ -8.229357873371224, 40.197231687427092 ], [ -8.228615540747313, 40.194532819609435 ], [ -8.227624226623421, 40.193102804564859 ], [ -8.226390403983523, 40.191806720209584 ], [ -8.223394426061047, 40.190217905283852 ], [ -8.222466389947074, 40.189439725640256 ], [ -8.222343983258648, 40.189315723231331 ], [ -8.221735595597826, 40.188791336492223 ], [ -8.221334510419256, 40.188381613981633 ], [ -8.220924344340522, 40.188033500024652 ], [ -8.219687655734285, 40.186710054603473 ], [ -8.219569705141133, 40.186665924652885 ], [ -8.219487772098576, 40.186595649685508 ], [ -8.2193317661131, 40.186454468710515 ], [ -8.219200364171293, 40.186357482826324 ], [ -8.219036068638154, 40.186157233364227 ], [ -8.218857929539848, 40.18588214582001 ] ] ] } },
{ "type": "Feature", "properties": { "dtmnfr": "061704", "freguesia": "São Miguel de Poiares", "municipio": "Vila Nova de Poiares", "distrito_i": "Coimbra", "nuts3_cod": "192", "nuts3": "Região de Coimbra", "nuts2": "Centro", "nuts1": "Continente", "area_ha": 2053.92, "perimetro_": 22, "designacao": "São Miguel de Poiares" }, "geometry": { "type": "Polygon", "coordinates": [ [ [ -8.224234940727753, 40.253541011059873 ], [ -8.223987518562472, 40.253537611404958 ], [ -8.222591174721209, 40.253121394053579 ], [ -8.218101361150019, 40.252324148237342 ], [ -8.216703726527934, 40.252231706709694 ], [ -8.216685898802243, 40.252072502373153 ], [ -8.216597513484137, 40.251888489329779 ], [ -8.216538678794288, 40.251741920862365 ], [ -8.216602155673154, 40.251656591013052 ], [ -8.21665596996182, 40.251639350187951 ], [ -8.216753910617189, 40.251666563427399 ], [ -8.216841891409194, 40.25171774283352 ], [ -8.21705248318341, 40.251785669653323 ], [ -8.217170039735425, 40.251799361404018 ], [ -8.21724820031837, 40.251802725009149 ], [ -8.217316719078891, 40.251799252066625 ], [ -8.217351016827203, 40.251778694771446 ], [ -8.217380227328256, 40.251734273086349 ], [ -8.217365357388427, 40.251594697540988 ], [ -8.217345435246683, 40.25127077503226 ], [ -8.217379470855461, 40.251137644447589 ], [ -8.217462546374403, 40.251028612774682 ], [ -8.21754559390911, 40.250990908844628 ], [ -8.217658197884665, 40.250990824832094 ], [ -8.217922522599096, 40.25098378250469 ], [ -8.218220920100165, 40.250966715373792 ], [ -8.218377555178872, 40.250935619198948 ], [ -8.218529069547689, 40.250850670070662 ], [ -8.218739335124445, 40.2506661667298 ], [ -8.218758462666328, 40.250458120246634 ], [ -8.218684616555505, 40.250249963323576 ], [ -8.218613727157834, 40.249965437616552 ], [ -8.21865550741405, 40.249641827170009 ], [ -8.218767947663656, 40.249337441345055 ], [ -8.219217922053204, 40.249023338739889 ], [ -8.219611866504888, 40.248826893932545 ], [ -8.220125318085618, 40.248615409240905 ], [ -8.220420822516505, 40.248458213615464 ], [ -8.220920346436369, 40.248207916347226 ], [ -8.22118057391395, 40.248040746381811 ], [ -8.221187300056286, 40.247883771788018 ], [ -8.221095797977435, 40.247834853383026 ], [ -8.220616209189927, 40.247516330247123 ], [ -8.220503901015171, 40.247282272121531 ], [ -8.22036928232863, 40.247157463093409 ], [ -8.220257138141257, 40.247048312500553 ], [ -8.220033243141957, 40.247048484483585 ], [ -8.219652656564095, 40.247205024147917 ], [ -8.219003362701949, 40.24742390690178 ], [ -8.218555162373999, 40.247377504825373 ], [ -8.21826392676863, 40.247190314846591 ], [ -8.218196416030182, 40.246971976263232 ], [ -8.218172523504014, 40.246483701375077 ], [ -8.218105467792357, 40.245879467770692 ], [ -8.21835086049091, 40.245239341328151 ], [ -8.218452268768843, 40.244310862472638 ], [ -8.217795150658738, 40.244275334517226 ], [ -8.217263527526736, 40.244129384089675 ], [ -8.216719685389986, 40.243983440944511 ], [ -8.216410608985152, 40.24380265500502 ], [ -8.216187866273243, 40.243587851658496 ], [ -8.215161682030125, 40.243218194276039 ], [ -8.214593114559179, 40.243029212627931 ], [ -8.21422209577992, 40.242736525680591 ], [ -8.214024023528536, 40.242409665739942 ], [ -8.213899521263041, 40.241496757084334 ], [ -8.213873804591541, 40.240739300797607 ], [ -8.213749091953952, 40.239843857755261 ], [ -8.213396858460623, 40.238743699883926 ], [ -8.213072474074922, 40.238023200834164 ], [ -8.212873540755288, 40.237645099694802 ], [ -8.212350697171331, 40.23712115129112 ], [ -8.211671024298738, 40.236437457179328 ], [ -8.211054195129444, 40.235819372787873 ], [ -8.210541696619151, 40.235375649220437 ], [ -8.210197056387322, 40.235084818036185 ], [ -8.209820631057656, 40.234735833713209 ], [ -8.209569689844496, 40.234473752645272 ], [ -8.209339262677663, 40.233964452811399 ], [ -8.209323441388864, 40.233800740791466 ], [ -8.200509419897172, 40.228877947627403 ], [ -8.200268132414942, 40.228579189417488 ], [ -8.199679915479068, 40.227851512270014 ], [ -8.199517191603233, 40.227625025947468 ], [ -8.19956295358357, 40.226978024391073 ], [ -8.199490460840881, 40.226629093127471 ], [ -8.194591737861613, 40.218949954245417 ], [ -8.194327913822203, 40.218103648861074 ], [ -8.193704830081066, 40.217097950252864 ], [ -8.1931566719063, 40.216178755592132 ], [ -8.192508679928663, 40.215138118572924 ], [ -8.191835797087805, 40.214080294568099 ], [ -8.190988333029031, 40.212311095825697 ], [ -8.19066415873089, 40.21154775621131 ], [ -8.190464573254308, 40.211131610332245 ], [ -8.190513727881157, 40.210246767378585 ], [ -8.190438639769036, 40.209674398648922 ], [ -8.190264329360284, 40.20941412690491 ], [ -8.189695302028134, 40.20896241796131 ], [ -8.189577065835069, 40.208743005287396 ], [ -8.189508314442122, 40.208564002953381 ], [ -8.189333044595072, 40.208401450252815 ], [ -8.189123055663352, 40.208303931090505 ], [ -8.189029641286137, 40.208124941290478 ], [ -8.188866052892722, 40.207889250927039 ], [ -8.188714158721231, 40.207726679703903 ], [ -8.188533890450833, 40.207626357862296 ], [ -8.187444272900926, 40.206137241369916 ], [ -8.184841910227593, 40.202581456085639 ], [ -8.184543849145232, 40.202174080814061 ], [ -8.18429514208418, 40.201786944370497 ], [ -8.18483592942439, 40.201701949615391 ], [ -8.1848685844776, 40.201708421957271 ], [ -8.190462255850814, 40.200631843931021 ], [ -8.191852474459516, 40.200355097509025 ], [ -8.192726243793429, 40.200180914671911 ], [ -8.193694404046694, 40.199971372799375 ], [ -8.193627743471115, 40.199768416788288 ], [ -8.193652258051308, 40.199605762158491 ], [ -8.193670517322541, 40.199536859373879 ], [ -8.193766308998971, 40.199359753480351 ], [ -8.193976705423591, 40.199287590544181 ], [ -8.194286989432126, 40.199155125993038 ], [ -8.194723220336092, 40.198820325001833 ], [ -8.194914022017876, 40.198767807221969 ], [ -8.195595735088956, 40.198338842918218 ], [ -8.196018267232589, 40.198056003873617 ], [ -8.196454296377347, 40.197773517925803 ], [ -8.196549635753383, 40.197626850733045 ], [ -8.196522206358141, 40.197438554402623 ], [ -8.196475512939392, 40.197115269405714 ], [ -8.196679730152837, 40.196736100392862 ], [ -8.196679339710364, 40.196330570713684 ], [ -8.196596070532246, 40.196079083644925 ], [ -8.196678950704094, 40.195925312983157 ], [ -8.196866399880706, 40.195820825298703 ], [ -8.197053840751773, 40.19570310675639 ], [ -8.197144143038468, 40.195693145856247 ], [ -8.197326522340903, 40.195689710848868 ], [ -8.197633385531397, 40.195807152675407 ], [ -8.198008463154574, 40.195780728657809 ], [ -8.19865619780238, 40.195597445929835 ], [ -8.199150572286852, 40.195558071275656 ], [ -8.199338086875413, 40.195518517439083 ], [ -8.199951455032409, 40.195152341018627 ], [ -8.200360538431545, 40.194968828752636 ], [ -8.200803632229253, 40.194733328441728 ], [ -8.201144378461573, 40.194563094700555 ], [ -8.201280697053845, 40.194536894710616 ], [ -8.201741050491897, 40.194536615500944 ], [ -8.202064832461421, 40.194431951114545 ], [ -8.202530235946174, 40.194204537991403 ], [ -8.203278914379771, 40.193111403072272 ], [ -8.204970299774709, 40.191025761241207 ], [ -8.206748419194694, 40.189513620270596 ], [ -8.209645067628539, 40.187604264122164 ], [ -8.210630415903708, 40.187230662269968 ], [ -8.215447189089716, 40.187327768776036 ], [ -8.216470230719688, 40.187169417100229 ], [ -8.216851734961935, 40.187069172615629 ], [ -8.21814734929181, 40.186111162418925 ], [ -8.218857929539848, 40.18588214582001 ], [ -8.219036068638154, 40.186157233364227 ], [ -8.219200364171293, 40.186357482826324 ], [ -8.2193317661131, 40.186454468710515 ], [ -8.219487772098576, 40.186595649685508 ], [ -8.219569705141133, 40.186665924652885 ], [ -8.219687655734285, 40.186710054603473 ], [ -8.220924344340522, 40.188033500024652 ], [ -8.221334510419256, 40.188381613981633 ], [ -8.221735595597826, 40.188791336492223 ], [ -8.222343983258648, 40.189315723231331 ], [ -8.222466389947074, 40.189439725640256 ], [ -8.223394426061047, 40.190217905283852 ], [ -8.226390403983523, 40.191806720209584 ], [ -8.227624226623421, 40.193102804564859 ], [ -8.228615540747313, 40.194532819609435 ], [ -8.229357873371224, 40.197231687427092 ], [ -8.230590627797358, 40.201072872288016 ], [ -8.23135253461761, 40.201720090677092 ], [ -8.232331415140107, 40.202550836373689 ], [ -8.232677855322217, 40.202758567549651 ], [ -8.233537191945645, 40.203191442141787 ], [ -8.233963624095734, 40.203398560567543 ], [ -8.234694406153469, 40.203704376337086 ], [ -8.235246456835132, 40.204021878238549 ], [ -8.236261044107351, 40.204649114268669 ], [ -8.237125582215096, 40.205446780077558 ], [ -8.237416946441861, 40.205645991750565 ], [ -8.23758897279283, 40.205764080158936 ], [ -8.237608722471249, 40.205777302770173 ], [ -8.238571534305116, 40.206680052963499 ], [ -8.239695441562953, 40.208785191819324 ], [ -8.241531435684735, 40.210783822633964 ], [ -8.241664996150577, 40.210928869338936 ], [ -8.24365353303701, 40.212754049724353 ], [ -8.243555301913037, 40.212810160869154 ], [ -8.240520119165655, 40.215724995057286 ], [ -8.240297397929679, 40.216024373470525 ], [ -8.239999729565691, 40.216324365528713 ], [ -8.239702669365659, 40.216715764809408 ], [ -8.239316603102081, 40.217279796336008 ], [ -8.238663139348331, 40.218212233683609 ], [ -8.238143473598774, 40.218995136932051 ], [ -8.237979858270343, 40.219168018479721 ], [ -8.237771845116578, 40.219421271264743 ], [ -8.237385332243333, 40.219870744746459 ], [ -8.236805291198049, 40.220527883487719 ], [ -8.23622673609936, 40.221471222983055 ], [ -8.236077895604353, 40.221632559318223 ], [ -8.235512436276787, 40.222163239886001 ], [ -8.23473650280793, 40.22243185770121 ], [ -8.233617010960828, 40.222759851112052 ], [ -8.232497753855249, 40.223099095292874 ], [ -8.231947915630201, 40.223813279587468 ], [ -8.232037775420787, 40.223881646360709 ], [ -8.232272061407164, 40.224050031741214 ], [ -8.232488370652071, 40.224213836394554 ], [ -8.235003019758555, 40.227785277037398 ], [ -8.235009027476233, 40.227794008315101 ], [ -8.23494567290556, 40.22785620437913 ], [ -8.234921039444044, 40.227881799937308 ], [ -8.234862400678491, 40.22795398738964 ], [ -8.234803870576204, 40.228098130484199 ], [ -8.234804075997699, 40.228233128757104 ], [ -8.234851119233095, 40.228337553363772 ], [ -8.234945538444579, 40.228539201151399 ], [ -8.235027965276165, 40.228656200017291 ], [ -8.235204542634596, 40.228872266504631 ], [ -8.235439891007754, 40.229106115932652 ], [ -8.235663323003603, 40.229304043034546 ], [ -8.235663336590703, 40.229313051563167 ], [ -8.235710507737361, 40.229349030411448 ], [ -8.235757586138012, 40.229402929140505 ], [ -8.235780987931948, 40.229412006982855 ], [ -8.235945846013632, 40.229573960317246 ], [ -8.236180989966565, 40.229744857580975 ], [ -8.236392791430964, 40.229942790005609 ], [ -8.236498719882315, 40.230059681264535 ], [ -8.23689927456914, 40.23066279131217 ], [ -8.237028789064285, 40.230833783293605 ], [ -8.237205239970988, 40.231040753563647 ], [ -8.237311163600854, 40.231148635522281 ], [ -8.237346527998533, 40.231148603678506 ], [ -8.237382032897814, 40.231310673140186 ], [ -8.237535104389581, 40.231517664850365 ], [ -8.237617580825271, 40.23166168017017 ], [ -8.237711728940059, 40.231904842723729 ], [ -8.237735384274124, 40.232003882822475 ], [ -8.237794601395525, 40.232300928151197 ], [ -8.237795505321138, 40.23287729348597 ], [ -8.237748716321475, 40.233012515153398 ], [ -8.237608302592516, 40.233390796031024 ], [ -8.237538532646813, 40.233787112015968 ], [ -8.237444668549815, 40.233949300739404 ], [ -8.237397780231404, 40.234021477006905 ], [ -8.237350961885516, 40.234066549241334 ], [ -8.237304074292853, 40.234138549855096 ], [ -8.237304172226315, 40.234201681544647 ], [ -8.237116584272648, 40.23447202429842 ], [ -8.236834966240881, 40.234805493657447 ], [ -8.236706122712917, 40.234994641430056 ], [ -8.236647431972195, 40.235111857994518 ], [ -8.236354304596842, 40.235526392509897 ], [ -8.236213655875094, 40.235760580286779 ], [ -8.236108260562307, 40.235994912129676 ], [ -8.236061604669054, 40.236220095745686 ], [ -8.236073734719534, 40.236391194786229 ], [ -8.236073998458421, 40.236562214319406 ], [ -8.236038917091092, 40.236670316354278 ], [ -8.235898096950843, 40.236949623048375 ], [ -8.235828036411446, 40.237165729631052 ], [ -8.235769952156769, 40.237598061730942 ], [ -8.235770311798541, 40.237832302040445 ], [ -8.235782377132976, 40.238039422621441 ], [ -8.235789002902299, 40.238069222422695 ], [ -8.235789018137291, 40.238079308032866 ], [ -8.235936200832468, 40.238723627874982 ], [ -8.235959966167668, 40.238894716515169 ], [ -8.235924605617324, 40.238903841113711 ], [ -8.235797690761162, 40.239055616365704 ], [ -8.235760391144087, 40.239102118603697 ], [ -8.23559652758788, 40.239453488234055 ], [ -8.235561561446728, 40.239642641474056 ], [ -8.235575165202096, 40.240081570515905 ], [ -8.235621038701924, 40.240110887972541 ], [ -8.235750665576633, 40.240344915447601 ], [ -8.235786059028898, 40.240434852211237 ], [ -8.235974543926186, 40.240731962499211 ], [ -8.236186362924144, 40.240992849186298 ], [ -8.236386396197849, 40.241235820806381 ], [ -8.236563073321598, 40.241415863169237 ], [ -8.236598282325922, 40.241460770732679 ], [ -8.236645447520059, 40.241487746008168 ], [ -8.236680656891945, 40.241532834562598 ], [ -8.23669358213721, 40.241533900091113 ], [ -8.236821870158161, 40.241658785978018 ], [ -8.236904362436352, 40.241730663120137 ], [ -8.236359329337807, 40.248809572737329 ], [ -8.236183117860078, 40.249551624663958 ], [ -8.236451702775915, 40.251389992452715 ], [ -8.236338048777718, 40.25374806156637 ], [ -8.234709847060005, 40.25371944471226 ], [ -8.230930474686881, 40.253635226790777 ], [ -8.224234940727753, 40.253541011059873 ] ] ] } }
]
}
