{
"type": "FeatureCollection",
"name": "CAOP_Castanheira de Pêra_freg",
"crs": { "type": "name", "properties": { "name": "urn:ogc:def:crs:OGC:1.3:CRS84" } },
"features": [
{ "type": "Feature", "properties": { "dtmnfr": "100703", "freguesia": "União das freguesias de Castanheira de Pêra e Coentral", "municipio": "Castanheira de Pêra", "distrito_i": "Leiria", "nuts3_cod": "193", "nuts3": "Região de Leiria", "nuts2": "Centro", "nuts1": "Continente", "area_ha": 6677.45, "perimetro_": 45, "designacao": "Castanheira de Pêra e Coentral" }, "geometry": { "type": "Polygon", "coordinates": [ [ [ -8.209749042712133, 40.052080711458807 ], [ -8.209668680510367, 40.052110845016749 ], [ -8.209406322693996, 40.052244223042045 ], [ -8.209037181519101, 40.052462237926051 ], [ -8.208936704281502, 40.052531290574883 ], [ -8.208842929501088, 40.052614390096586 ], [ -8.208776956819763, 40.052724218649971 ], [ -8.208718595611034, 40.052828637627137 ], [ -8.208672075148529, 40.052940072720617 ], [ -8.208190058928977, 40.055338516809599 ], [ -8.208172096589088, 40.055520811239688 ], [ -8.208164820511243, 40.055718141646054 ], [ -8.208228392764138, 40.056081763586803 ], [ -8.20837504829638, 40.056636072820645 ], [ -8.208541000473247, 40.05735977775435 ], [ -8.208605253633511, 40.057689354952998 ], [ -8.208598494739393, 40.057828684742503 ], [ -8.208703118853263, 40.058003871773401 ], [ -8.208736112160215, 40.05806049505356 ], [ -8.208725810272744, 40.058066088265896 ], [ -8.208412205812383, 40.058303515177151 ], [ -8.208240763951236, 40.05842917520927 ], [ -8.207935367433398, 40.058669744928224 ], [ -8.207703715524957, 40.058830837925854 ], [ -8.207378974680596, 40.059071962584312 ], [ -8.207261510407008, 40.059152192163424 ], [ -8.207179565219745, 40.059241225803703 ], [ -8.207000140007288, 40.05946622462249 ], [ -8.206927919779956, 40.059555161816384 ], [ -8.206836741643686, 40.059669504642457 ], [ -8.206753990759557, 40.059771149735013 ], [ -8.206655539930242, 40.05987730328323 ], [ -8.206538670832991, 40.059971402042258 ], [ -8.206423205032356, 40.060060637398344 ], [ -8.206288989654777, 40.060157898113772 ], [ -8.20620668476448, 40.060237292945999 ], [ -8.206134472616366, 40.060334427885032 ], [ -8.206133594407097, 40.060387922893035 ], [ -8.206005726760573, 40.060608021623288 ], [ -8.205933427045125, 40.060732532337646 ], [ -8.205768159650004, 40.061264262739861 ], [ -8.205430577466309, 40.062547210262395 ], [ -8.205270940364962, 40.062980680630531 ], [ -8.205084704174897, 40.06299061312825 ], [ -8.205050952482825, 40.062995767568374 ], [ -8.205011579527872, 40.063005610460479 ], [ -8.204794921691848, 40.06317632564722 ], [ -8.204601606271295, 40.063364402389652 ], [ -8.204417331154868, 40.063567780905807 ], [ -8.204263175155479, 40.063769887879523 ], [ -8.204119719867283, 40.064001342559109 ], [ -8.204094227965616, 40.064056474600122 ], [ -8.204085703555515, 40.064084128543442 ], [ -8.204073306341936, 40.064110612264308 ], [ -8.204055398519476, 40.064134487590046 ], [ -8.204037250794466, 40.064154226559033 ], [ -8.204007271996083, 40.06417901077694 ], [ -8.20370944421577, 40.064189910808608 ], [ -8.203525414996022, 40.064190569477297 ], [ -8.203406923921294, 40.064198207457935 ], [ -8.203103142761867, 40.064234417578454 ], [ -8.202770421986553, 40.064281908233085 ], [ -8.202461056915119, 40.064352524220389 ], [ -8.202408550366041, 40.064362641568131 ], [ -8.202258764396579, 40.064369758524798 ], [ -8.202161480226028, 40.064378283181725 ], [ -8.202112263554559, 40.064388130953148 ], [ -8.201977756940844, 40.064439997848922 ], [ -8.201719235027737, 40.064605684205297 ], [ -8.201486159812223, 40.064778923688451 ], [ -8.201431566315518, 40.064810117892385 ], [ -8.201394247933552, 40.064883539583079 ], [ -8.201379277733317, 40.064912279655431 ], [ -8.201288306535414, 40.065129556673135 ], [ -8.201222796132861, 40.0653747402446 ], [ -8.201207102735099, 40.065612057393004 ], [ -8.201137956324519, 40.065856884590779 ], [ -8.201059648862094, 40.066079288331821 ], [ -8.200977003575531, 40.066300254478186 ], [ -8.200847220704581, 40.066505759446798 ], [ -8.200710407312579, 40.066715862373989 ], [ -8.200532794411169, 40.066920585227543 ], [ -8.200337578972547, 40.067106406122406 ], [ -8.20012817226603, 40.067286648413386 ], [ -8.199917926826402, 40.067450596080491 ], [ -8.199703580575802, 40.067613911690039 ], [ -8.199476466443448, 40.067784078843715 ], [ -8.199268563008644, 40.0679463074162 ], [ -8.198864721854795, 40.068288231157432 ], [ -8.198648035048103, 40.068462175108976 ], [ -8.198411509892118, 40.068604423890811 ], [ -8.198116239947563, 40.068734015582429 ], [ -8.197808948217133, 40.068800923637049 ], [ -8.197504953217567, 40.068877651986647 ], [ -8.19721421650109, 40.068969318709968 ], [ -8.196941754303529, 40.069052509810476 ], [ -8.196643499020267, 40.069126972205446 ], [ -8.196341481928794, 40.069199464451884 ], [ -8.196041128792302, 40.069286000003856 ], [ -8.195779699838239, 40.069390253021545 ], [ -8.195528846088648, 40.069512606493682 ], [ -8.195285733713897, 40.069647471929002 ], [ -8.19503934488038, 40.069789810054431 ], [ -8.194773144195697, 40.069930900949508 ], [ -8.194521599450155, 40.070075134692033 ], [ -8.194284367421146, 40.070226651657414 ], [ -8.194258358952469, 40.070243866117032 ], [ -8.193972414475127, 40.070336513726311 ], [ -8.193621387278382, 40.070655879682072 ], [ -8.19290797931431, 40.071461128654136 ], [ -8.192104379095005, 40.072495891442166 ], [ -8.191546690380394, 40.073117324661361 ], [ -8.191053866972601, 40.073659921277212 ], [ -8.190807051876638, 40.074009569651182 ], [ -8.19050249486876, 40.074698055806856 ], [ -8.190070373424973, 40.075921111137596 ], [ -8.189830379349743, 40.076716553051916 ], [ -8.189524771126482, 40.077297054863031 ], [ -8.189295638887065, 40.077789075466164 ], [ -8.188880555182164, 40.078685105951038 ], [ -8.188441721509133, 40.079372304299426 ], [ -8.187990065514624, 40.079879654789735 ], [ -8.186766819625015, 40.081230242651607 ], [ -8.186085344387386, 40.082030656558487 ], [ -8.185124026512819, 40.083028521618644 ], [ -8.18421221978841, 40.084104077262943 ], [ -8.183063741013893, 40.085598956576405 ], [ -8.179098658316283, 40.089736028208037 ], [ -8.178803352982939, 40.089667254128635 ], [ -8.162952222604448, 40.083154850020847 ], [ -8.162766610102894, 40.083116356217062 ], [ -8.162608577061988, 40.082899715042259 ], [ -8.162508981475515, 40.08277275748155 ], [ -8.162403716536888, 40.082569880996509 ], [ -8.162302663245812, 40.082333048660551 ], [ -8.16221779037296, 40.082107021248149 ], [ -8.162102094149677, 40.081896854870372 ], [ -8.161940206527305, 40.081691738771831 ], [ -8.161927184435186, 40.081670036479238 ], [ -8.161918383068487, 40.081648158417693 ], [ -8.161907549114668, 40.081549362704799 ], [ -8.161907770549984, 40.081518382663667 ], [ -8.161914321076441, 40.081488029672585 ], [ -8.16194395893527, 40.081426333408807 ], [ -8.161960828172729, 40.081396245325948 ], [ -8.161973944387832, 40.08136607171744 ], [ -8.161983547782826, 40.081335452281763 ], [ -8.161989333993882, 40.081177842775659 ], [ -8.161928166542609, 40.080979457836108 ], [ -8.161918070930176, 40.08095208368777 ], [ -8.161904516443022, 40.080790609974834 ], [ -8.161975731639297, 40.080648116176064 ], [ -8.161986507469638, 40.080617763023952 ], [ -8.161994962926714, 40.080392878364627 ], [ -8.161930022039412, 40.080149735053531 ], [ -8.161862904498168, 40.080034926991424 ], [ -8.161689191103866, 40.079846384587 ], [ -8.161493079596866, 40.079657315147024 ], [ -8.161224063563234, 40.079509051598841 ], [ -8.161076767655926, 40.079409753849532 ], [ -8.161056594982133, 40.079388953784061 ], [ -8.161041930380797, 40.079368426171662 ], [ -8.161026561821567, 40.079340871286561 ], [ -8.161023959375861, 40.079289898428797 ], [ -8.1610207678986, 40.079229110891561 ], [ -8.161057125696649, 40.0789836874687 ], [ -8.161062495087407, 40.078931630154798 ], [ -8.161052963623215, 40.078857332328738 ], [ -8.161047914552416, 40.078832569539628 ], [ -8.161026675396158, 40.078786462650527 ], [ -8.16101435523867, 40.078764760075138 ], [ -8.160901296329893, 40.078677253598421 ], [ -8.160764336146896, 40.078615685715107 ], [ -8.160598533059197, 40.078539444612666 ], [ -8.160544589797219, 40.078509022266111 ], [ -8.160454412277035, 40.078459781250267 ], [ -8.16039366426568, 40.078416749230051 ], [ -8.160152115881347, 40.078320895656645 ], [ -8.159782425214617, 40.078221287701112 ], [ -8.159297717005922, 40.078106940960879 ], [ -8.158730709227759, 40.077992160118143 ], [ -8.158348722685657, 40.077920289919255 ], [ -8.158014574848504, 40.077865160389493 ], [ -8.157689565640128, 40.077792108564068 ], [ -8.157468072996584, 40.07770885003243 ], [ -8.157301557829333, 40.077608112319687 ], [ -8.157157897414139, 40.077480887250928 ], [ -8.157058311989301, 40.077334837398787 ], [ -8.156922149307771, 40.077199235728827 ], [ -8.156732757100761, 40.077056621822564 ], [ -8.156534467312872, 40.076923826929345 ], [ -8.156300286893106, 40.076757533567765 ], [ -8.15605203892318, 40.07658647739823 ], [ -8.155760408937812, 40.076403714073706 ], [ -8.155511588234463, 40.076254899163203 ], [ -8.155257250420325, 40.076095361229513 ], [ -8.155110324517846, 40.076014071526423 ], [ -8.154713075506196, 40.075821870974472 ], [ -8.154474211759139, 40.075656117829197 ], [ -8.154336434081104, 40.075562758202658 ], [ -8.153978904264006, 40.075302732939988 ], [ -8.153380524468602, 40.074864438440031 ], [ -8.152949721468277, 40.074572633998002 ], [ -8.152379634803102, 40.074223212259916 ], [ -8.151842857599657, 40.0738934182775 ], [ -8.151696061816422, 40.07380563620876 ], [ -8.151245964066996, 40.073634600060444 ], [ -8.150904903027271, 40.073503531573635 ], [ -8.150716380455851, 40.073435477984901 ], [ -8.150614744012177, 40.073429823157277 ], [ -8.14980468930627, 40.073442114458025 ], [ -8.148720327155488, 40.073468395915462 ], [ -8.147754013959496, 40.0734952836861 ], [ -8.14712496265598, 40.073496272017714 ], [ -8.146891091946474, 40.073502427817374 ], [ -8.146826726321063, 40.073483076878716 ], [ -8.146689909056526, 40.073422840492903 ], [ -8.146390717736418, 40.073331378766269 ], [ -8.146256138121341, 40.073321039822339 ], [ -8.146118975791302, 40.073303589807637 ], [ -8.14601323040047, 40.073276039413521 ], [ -8.1459427665026, 40.073254348881278 ], [ -8.145908771268221, 40.07324309503646 ], [ -8.145877699133447, 40.073228510409308 ], [ -8.145850614579453, 40.073210769603158 ], [ -8.145829511299931, 40.073194108864165 ], [ -8.145620114920428, 40.07307507662852 ], [ -8.145543206999601, 40.073032667148858 ], [ -8.145518586969009, 40.07301601213377 ], [ -8.145483295072765, 40.073003138107815 ], [ -8.145266878217477, 40.072925708689993 ], [ -8.145199699207808, 40.072907978235961 ], [ -8.145169451262575, 40.072898706021732 ], [ -8.144909779225497, 40.072837672406727 ], [ -8.144605448321128, 40.072798892183869 ], [ -8.144299594500126, 40.072771640899134 ], [ -8.144172870263894, 40.072758957192704 ], [ -8.143926336822478, 40.072760423251005 ], [ -8.143743820598011, 40.072782329441331 ], [ -8.14375188612336, 40.07264786604091 ], [ -8.143765857193236, 40.072134796134762 ], [ -8.143754475456008, 40.072081568507734 ], [ -8.143756582673287, 40.072070582689598 ], [ -8.143759264653323, 40.071971517290429 ], [ -8.143756999699775, 40.071767530529812 ], [ -8.143763168282879, 40.071542380482342 ], [ -8.14378903354773, 40.071311824058249 ], [ -8.143825101358365, 40.071099634592684 ], [ -8.143896572756111, 40.070882942374858 ], [ -8.144011407078212, 40.070662285154107 ], [ -8.144090377975164, 40.070448652363432 ], [ -8.144146014302695, 40.070224578275173 ], [ -8.144201777258411, 40.070010137053089 ], [ -8.144226116202988, 40.06979182979974 ], [ -8.144232290009796, 40.069566136582601 ], [ -8.14424176080613, 40.069460045726501 ], [ -8.144373949476545, 40.06923623068883 ], [ -8.144514105858425, 40.069032232611626 ], [ -8.144530740980072, 40.068983506216959 ], [ -8.144533899324164, 40.068957658422995 ], [ -8.14453983655968, 40.068732775728506 ], [ -8.144538755554819, 40.068598225722134 ], [ -8.144528789157471, 40.068575984359455 ], [ -8.14451366065127, 40.068555724844387 ], [ -8.144493612822783, 40.068538254096957 ], [ -8.144237811281958, 40.068385178986965 ], [ -8.1439611579189, 40.068317663142579 ], [ -8.143691420764315, 40.068247625199831 ], [ -8.14342612860089, 40.068119319514111 ], [ -8.143396227996577, 40.068096806040508 ], [ -8.143378879902862, 40.068077448082562 ], [ -8.143290007786737, 40.067967940035565 ], [ -8.143186130176794, 40.067863843184767 ], [ -8.143090211995055, 40.067646267875325 ], [ -8.14308762883538, 40.067632760758748 ], [ -8.143129114394108, 40.067577907366022 ], [ -8.143147980436348, 40.067550347986646 ], [ -8.143174931725621, 40.067502974495589 ], [ -8.143202703954776, 40.067458569334882 ], [ -8.143222515125858, 40.067441637951816 ], [ -8.143259666333577, 40.067399124138149 ], [ -8.14336466113606, 40.067226378006701 ], [ -8.143432727409584, 40.066996359913112 ], [ -8.143449228630736, 40.066858744414439 ], [ -8.143549296522901, 40.066647092208548 ], [ -8.143619233899843, 40.06641157919487 ], [ -8.143710624464749, 40.066217037400961 ], [ -8.14371190771667, 40.066184974681903 ], [ -8.143706950283772, 40.066009089684002 ], [ -8.14369604845537, 40.065989997757079 ], [ -8.143679401533584, 40.065969104233552 ], [ -8.143658883116162, 40.065949384554528 ], [ -8.14363473689224, 40.065930026345931 ], [ -8.143562755666139, 40.065881037898848 ], [ -8.143328416243966, 40.065763176211142 ], [ -8.143104276136331, 40.065601629996081 ], [ -8.142960075785991, 40.065468806922667 ], [ -8.142935340446712, 40.065450254662458 ], [ -8.142908024377752, 40.065434228825424 ], [ -8.14287837194013, 40.065424594806004 ], [ -8.142849412836442, 40.065419010762511 ], [ -8.142819052389015, 40.06540911020695 ], [ -8.142786236917445, 40.065403799355565 ], [ -8.142754587140676, 40.065402453782355 ], [ -8.142726336309362, 40.065398762730702 ], [ -8.1426992583113, 40.065391468235646 ], [ -8.142676632057398, 40.065374813329989 ], [ -8.142657875326643, 40.065351217101934 ], [ -8.142644273175556, 40.065323298420552 ], [ -8.142638058480342, 40.065290426677173 ], [ -8.142631357035942, 40.065213248577003 ], [ -8.142634275242877, 40.065108869469249 ], [ -8.142643874995656, 40.065056811634548 ], [ -8.142663330045272, 40.06502862274737 ], [ -8.142679388193445, 40.065008984526607 ], [ -8.142853537344449, 40.064824345004112 ], [ -8.143039524833107, 40.064659697737788 ], [ -8.143103868815084, 40.06460313120558 ], [ -8.143134576538735, 40.064585389240364 ], [ -8.143166333868715, 40.064563408005363 ], [ -8.143292088084433, 40.064470273962151 ], [ -8.143342949555898, 40.064413079853949 ], [ -8.143401068602746, 40.06431518111463 ], [ -8.143404116664945, 40.064287260136439 ], [ -8.143410286079289, 40.064064359539621 ], [ -8.143407932746971, 40.064012037014542 ], [ -8.143398783187939, 40.063981958356756 ], [ -8.143361384328268, 40.063907662253811 ], [ -8.143341219474353, 40.063888209060714 ], [ -8.14331565880137, 40.063865519547413 ], [ -8.143123633940958, 40.063684877551232 ], [ -8.143002885803927, 40.063550069313948 ], [ -8.142995028016857, 40.063527016170113 ], [ -8.14296312752375, 40.063431014762159 ], [ -8.142965341833831, 40.06335077022122 ], [ -8.142968854972898, 40.063328254671639 ], [ -8.142978112875936, 40.063306911226874 ], [ -8.142992407155706, 40.063283850788991 ], [ -8.143009634282976, 40.063262143715541 ], [ -8.143054745311524, 40.063193425106455 ], [ -8.143061656920716, 40.063166404410168 ], [ -8.143106521731919, 40.063017800787144 ], [ -8.14312550596356, 40.062989430830449 ], [ -8.143289101244203, 40.062791550731077 ], [ -8.143481180239606, 40.062624019309581 ], [ -8.143563213616098, 40.062542956122499 ], [ -8.143804522728649, 40.062400817812339 ], [ -8.144032003864085, 40.062261202009253 ], [ -8.144275655702963, 40.062114824218391 ], [ -8.144515204929888, 40.061966197491678 ], [ -8.144704226130775, 40.061796771237013 ], [ -8.144748986645222, 40.061736516821952 ], [ -8.144760232177779, 40.061704453965682 ], [ -8.144761988243649, 40.06167158061313 ], [ -8.144757629238729, 40.061554776399447 ], [ -8.144733818795798, 40.061476248273955 ], [ -8.144716936590539, 40.061452561213557 ], [ -8.144693133075602, 40.061407533080022 ], [ -8.144686566659489, 40.061384751897577 ], [ -8.144687262405462, 40.061361154036135 ], [ -8.144686989511101, 40.061140776511891 ], [ -8.144689090234323, 40.061094305707378 ], [ -8.144697757248725, 40.061070077521002 ], [ -8.144711932009093, 40.061046478309024 ], [ -8.144731503238708, 40.061023961087649 ], [ -8.144760094845056, 40.061001442956055 ], [ -8.145010429048881, 40.060864614790063 ], [ -8.145300850597796, 40.060791181239864 ], [ -8.145340584478747, 40.060779288994034 ], [ -8.145366721111966, 40.060768028601295 ], [ -8.145416059978517, 40.060741902966278 ], [ -8.145547076786084, 40.060652369197477 ], [ -8.145562312245302, 40.060630661948444 ], [ -8.14557531448567, 40.060606791671354 ], [ -8.145696470047014, 40.060440436719112 ], [ -8.145835331687998, 40.060318839132933 ], [ -8.145865573440039, 40.060299113337713 ], [ -8.146035963502573, 40.060178678322856 ], [ -8.146055417317827, 40.060158681696436 ], [ -8.146072291764305, 40.060140668499713 ], [ -8.146090920675665, 40.060122025577115 ], [ -8.146102869575557, 40.060101492118761 ], [ -8.146121850266935, 40.060077620206876 ], [ -8.146146812857106, 40.0600519509007 ], [ -8.146304766671548, 40.059855240573441 ], [ -8.146412549013407, 40.059638807921111 ], [ -8.146421213833879, 40.05961341240863 ], [ -8.146424842201649, 40.059587565367849 ], [ -8.14645095264132, 40.059487324402227 ], [ -8.146513257455734, 40.0592557702142 ], [ -8.146528922833305, 40.059074748356913 ], [ -8.14659921768231, 40.058960179810441 ], [ -8.146694021250708, 40.058881996623377 ], [ -8.146833597039761, 40.058816052765899 ], [ -8.146983257321473, 40.058769653487147 ], [ -8.14705697415433, 40.05875613097156 ], [ -8.147091307518769, 40.058741451381003 ], [ -8.147178733817537, 40.058682629113832 ], [ -8.147190680229091, 40.058652814744697 ], [ -8.147198524933009, 40.058619583955853 ], [ -8.147204958285647, 40.058574009566868 ], [ -8.14719787811123, 40.058347149273445 ], [ -8.147137224824828, 40.058118133103299 ], [ -8.147135934731327, 40.058091119437371 ], [ -8.147149514606632, 40.058014295687116 ], [ -8.147186296938095, 40.057941701988362 ], [ -8.147210431782966, 40.057920350973291 ], [ -8.14723515847289, 40.057904590873264 ], [ -8.147266447428731, 40.057889095646374 ], [ -8.147514769812613, 40.057760455099491 ], [ -8.147717958938928, 40.057577964085262 ], [ -8.147732133049118, 40.057554097908842 ], [ -8.147742678298156, 40.057529059593591 ], [ -8.147789172859305, 40.057404316394745 ], [ -8.147795376193473, 40.057354242540221 ], [ -8.147794146987261, 40.057120628712354 ], [ -8.147780650009391, 40.057038761280126 ], [ -8.147683786991056, 40.056817591544423 ], [ -8.147681199554048, 40.056786339766113 ], [ -8.147654542334633, 40.056556146027731 ], [ -8.147638830580282, 40.056529671834632 ], [ -8.147623586559567, 40.05650914161388 ], [ -8.147623115551834, 40.056487708029564 ], [ -8.147623458746692, 40.056464648740132 ], [ -8.147607166578899, 40.056447812054401 ], [ -8.147554409267634, 40.056373520029602 ], [ -8.147473978134769, 40.056252217712455 ], [ -8.147366599444229, 40.056142447379571 ], [ -8.147271422713885, 40.056083113281446 ], [ -8.147202136158596, 40.056014674381629 ], [ -8.147200248567358, 40.055948845338321 ], [ -8.147210781951975, 40.055877874995019 ], [ -8.147243699660921, 40.055825548175321 ], [ -8.147328425854916, 40.055780505446478 ], [ -8.147408112656498, 40.055748160094211 ], [ -8.14747034713197, 40.055737976390446 ], [ -8.147615786205737, 40.055737955569029 ], [ -8.147806235036443, 40.05572865346916 ], [ -8.147904675431613, 40.055710628715289 ], [ -8.147999948888287, 40.055675759252615 ], [ -8.148055369579394, 40.05560820447328 ], [ -8.148092506479028, 40.055548760235659 ], [ -8.14809635501042, 40.055483196140031 ], [ -8.14802906952278, 40.055423314176295 ], [ -8.148000109175365, 40.055367572766933 ], [ -8.148000316176942, 40.055252473718845 ], [ -8.148003218170496, 40.055145482525546 ], [ -8.147996050871225, 40.055051189442814 ], [ -8.147999186044975, 40.054938616226877 ], [ -8.148029155187825, 40.054811174065144 ], [ -8.148078350894147, 40.054701382293764 ], [ -8.148111835582641, 40.054573315527442 ], [ -8.148189857667084, 40.05442974703994 ], [ -8.148204836975161, 40.054335450172985 ], [ -8.148227894879613, 40.054226296662868 ], [ -8.148235960640795, 40.054137315198737 ], [ -8.148218469985974, 40.054035726706566 ], [ -8.148167588016291, 40.053940901644005 ], [ -8.148143776311432, 40.053862372314796 ], [ -8.148130507585865, 40.053751508759156 ], [ -8.148116179878096, 40.053647941191066 ], [ -8.148119318748309, 40.053548065666327 ], [ -8.148130324158814, 40.053481871091932 ], [ -8.148234008104266, 40.053363154296093 ], [ -8.148358802149808, 40.053291900461737 ], [ -8.148415640612553, 40.053269914441231 ], [ -8.148704852568867, 40.053188818125449 ], [ -8.148773990480082, 40.053151430714571 ], [ -8.148839017719247, 40.053086130263843 ], [ -8.148880607147493, 40.053031727667708 ], [ -8.148901218154309, 40.052990653367267 ], [ -8.14893413349535, 40.052919413197067 ], [ -8.148977361664787, 40.052842046544747 ], [ -8.149018955042413, 40.052800699162837 ], [ -8.149134839456552, 40.052745207313862 ], [ -8.149338976375798, 40.052672043825496 ], [ -8.149486153033848, 40.052599613034516 ], [ -8.149563817031225, 40.052464960580274 ], [ -8.149587357920712, 40.052406956939024 ], [ -8.149584403884434, 40.052335722573602 ], [ -8.149552626475469, 40.052246837609495 ], [ -8.149478878878428, 40.052139586092842 ], [ -8.149412751276575, 40.052016934794892 ], [ -8.149374882705006, 40.051948492720705 ], [ -8.149346956722088, 40.05183988465533 ], [ -8.149317639026901, 40.051743074790856 ], [ -8.149305423805826, 40.051658062344188 ], [ -8.149308797877195, 40.051564396438806 ], [ -8.149308770224636, 40.051462448080095 ], [ -8.149315777668955, 40.051365631322867 ], [ -8.149307083202654, 40.051271700519202 ], [ -8.149288085916856, 40.051225232499817 ], [ -8.149263933567902, 40.051189480676413 ], [ -8.149204860569485, 40.051149506231994 ], [ -8.149035389325453, 40.051094144720089 ], [ -8.148891590794703, 40.05107615486083 ], [ -8.148765247117673, 40.051038706545974 ], [ -8.148693871305008, 40.051001883842375 ], [ -8.148665271756162, 40.050991169503128 ], [ -8.148584161259055, 40.050940207529976 ], [ -8.148502113931894, 40.050881409399373 ], [ -8.148488272056568, 40.050811887595906 ], [ -8.148517788214811, 40.050766580189801 ], [ -8.148561023366875, 40.050724069148409 ], [ -8.148657797620793, 40.050621381030112 ], [ -8.1487167168022, 40.050529871828203 ], [ -8.148754780196755, 40.050436743410813 ], [ -8.148780655527224, 40.050342988902088 ], [ -8.148810405283937, 40.050265353015739 ], [ -8.14884260731375, 40.050175557624137 ], [ -8.148929425320178, 40.050094218729825 ], [ -8.149019522010763, 40.050002433119403 ], [ -8.149107738953669, 40.049916594438855 ], [ -8.149182019453974, 40.049845614121693 ], [ -8.14927210886095, 40.049730773541739 ], [ -8.149336189885766, 40.049649438406732 ], [ -8.149365463980144, 40.049586119466838 ], [ -8.14942789856444, 40.049466784079677 ], [ -8.149472752921406, 40.049364913110701 ], [ -8.14950905287294, 40.049245582264071 ], [ -8.149540199544505, 40.049158846191929 ], [ -8.149581766928035, 40.049029961776981 ], [ -8.149600728925721, 40.048951160009935 ], [ -8.14962671987295, 40.048853166990384 ], [ -8.149659495120494, 40.048708255596715 ], [ -8.149676817718436, 40.048644939175105 ], [ -8.149707948002241, 40.048492644777816 ], [ -8.149723509349773, 40.048381776267107 ], [ -8.149732386638579, 40.048277123837345 ], [ -8.14977522115554, 40.048090782782623 ], [ -8.149794185923806, 40.047996485934164 ], [ -8.149841016421433, 40.047844817849509 ], [ -8.149906718897636, 40.047714490622127 ], [ -8.149934007457693, 40.04765027119285 ], [ -8.14995999710229, 40.047550929859824 ], [ -8.14997203771574, 40.047450151371528 ], [ -8.149970262952221, 40.047376480626362 ], [ -8.149961572062249, 40.047322447841751 ], [ -8.149947595757791, 40.047195464407892 ], [ -8.14995108409695, 40.047089640125407 ], [ -8.149954564271903, 40.046955452850305 ], [ -8.150029054399711, 40.046834126779082 ], [ -8.150082699489364, 40.046745772438875 ], [ -8.150104947317457, 40.046667054734371 ], [ -8.150101625374381, 40.046512239910065 ], [ -8.150092793943546, 40.046378230041839 ], [ -8.15003065648402, 40.046251888578816 ], [ -8.150003680998399, 40.046162369812507 ], [ -8.149994519203149, 40.046089515182665 ], [ -8.149991677879322, 40.045991260550352 ], [ -8.150004556695214, 40.045940641535793 ], [ -8.150054677978844, 40.045830848622252 ], [ -8.150183311028124, 40.045700511071168 ], [ -8.150270468240484, 40.045612961334321 ], [ -8.150353642133796, 40.045525134734795 ], [ -8.150419358958475, 40.045459561223751 ], [ -8.150502424502829, 40.045375699929565 ], [ -8.150588053736938, 40.045287067641702 ], [ -8.150652135473743, 40.045226264788852 ], [ -8.150738477022262, 40.045156725272278 ], [ -8.15081346127838, 40.045101234285376 ], [ -8.150873679457582, 40.045064119818136 ], [ -8.150979126785952, 40.045016191898505 ], [ -8.151076141181454, 40.044971144449903 ], [ -8.151119249393497, 40.044933761421689 ], [ -8.151168557626606, 40.044847565993059 ], [ -8.151202388435468, 40.044730210852521 ], [ -8.151207488305504, 40.044522527811921 ], [ -8.151202293402548, 40.044401759126679 ], [ -8.151207417765514, 40.044277927643712 ], [ -8.151238434231935, 40.044163094637092 ], [ -8.15132062618386, 40.043928112708954 ], [ -8.151363004394574, 40.043792740295302 ], [ -8.151600718509897, 40.043265849336201 ], [ -8.151684346974397, 40.043134073552217 ], [ -8.151763752440816, 40.043003832129131 ], [ -8.151851953447874, 40.042879623334777 ], [ -8.1520172046874, 40.042617067728898 ], [ -8.152074365703145, 40.042526728678276 ], [ -8.152147193936255, 40.042346591377161 ], [ -8.152160520230732, 40.042244730723084 ], [ -8.152186615018348, 40.042121163182884 ], [ -8.152226537416935, 40.042021818051282 ], [ -8.152264587352271, 40.041914553219897 ], [ -8.152316348737978, 40.041818539266039 ], [ -8.152354401683722, 40.041722883307536 ], [ -8.152477148161699, 40.041549495675127 ], [ -8.152537811865171, 40.041440781478492 ], [ -8.152593178367187, 40.041272000823959 ], [ -8.15259314477356, 40.04116221604783 ], [ -8.152589583923895, 40.040997854684711 ], [ -8.152594692527762, 40.040857179796141 ], [ -8.152646685333847, 40.04074711876892 ], [ -8.152717422991538, 40.040635428938145 ], [ -8.152846278534076, 40.04052760361634 ], [ -8.152951953429836, 40.040481113906644 ], [ -8.153045327324792, 40.040434711775653 ], [ -8.153143621266848, 40.040404522464996 ], [ -8.153267707058397, 40.04039324147201 ], [ -8.153375966853503, 40.04038421735121 ], [ -8.15344673196757, 40.040362318240206 ], [ -8.153467788595371, 40.040238120826089 ], [ -8.1534567441233, 40.040160219687486 ], [ -8.153410667026151, 40.040073497775857 ], [ -8.1533416283041, 40.039984893070717 ], [ -8.15326707932806, 40.039908896072035 ], [ -8.153186448379227, 40.039845868915414 ], [ -8.153118117106908, 40.039778607594933 ], [ -8.153116097494161, 40.039711961629465 ], [ -8.153145601859169, 40.039633157334784 ], [ -8.153192195838198, 40.039494904160733 ], [ -8.153221678746212, 40.0393716023232 ], [ -8.153222931156037, 40.039255425632021 ], [ -8.153219610034119, 40.039130151731861 ], [ -8.153202465322039, 40.039013707142878 ], [ -8.153179942591651, 40.038933468156543 ], [ -8.153032725048444, 40.03876715018832 ], [ -8.152968727973116, 40.038699887121133 ], [ -8.152921847503851, 40.038649556235448 ], [ -8.152718027327465, 40.038462443342922 ], [ -8.152549730150884, 40.038318921950506 ], [ -8.152463110334761, 40.038220948755267 ], [ -8.152381881687253, 40.03810613671854 ], [ -8.152326540954878, 40.037987988060173 ], [ -8.152290408830771, 40.037847858511441 ], [ -8.152268458074715, 40.037729612425132 ], [ -8.152266549121654, 40.03760722289767 ], [ -8.152319346847579, 40.037462215295434 ], [ -8.152340378745297, 40.037275067805652 ], [ -8.152350553560163, 40.03721228971208 ], [ -8.15242829865667, 40.037031617188241 ], [ -8.152478420898907, 40.036957846722288 ], [ -8.152598025407146, 40.036874788242223 ], [ -8.152739771677181, 40.036790915335708 ], [ -8.152816030365887, 40.03673911617603 ], [ -8.152916302478841, 40.036683710406585 ], [ -8.153007432206604, 40.036601199434486 ], [ -8.153108407441612, 40.036531384450221 ], [ -8.15316920047778, 40.036478777171389 ], [ -8.153179252274503, 40.036403031073647 ], [ -8.153163642530284, 40.036316309129575 ], [ -8.153124250049656, 40.036236429656633 ], [ -8.15307537198164, 40.036164932019737 ], [ -8.152999176365231, 40.036039761542618 ], [ -8.152955793014877, 40.035953944943564 ], [ -8.152917689000404, 40.035867221406598 ], [ -8.152865868097718, 40.035762850856628 ], [ -8.152846750316673, 40.035702333732829 ], [ -8.152803481727053, 40.035578239141287 ], [ -8.152767013817918, 40.035491787256539 ], [ -8.152758446917426, 40.035439460313185 ], [ -8.152744468107649, 40.035329683193936 ], [ -8.152732559429955, 40.035084269587173 ], [ -8.152742932165653, 40.03492143493861 ], [ -8.152740897626737, 40.034776438156335 ], [ -8.152738625280183, 40.034631531472151 ], [ -8.152712224291456, 40.034494737101312 ], [ -8.152661682689089, 40.034372893396139 ], [ -8.152564403290608, 40.03424934815672 ], [ -8.152462556828231, 40.034136788391834 ], [ -8.152360583344482, 40.034012976277616 ], [ -8.152278659616044, 40.033924640468243 ], [ -8.1522422027475, 40.033847015315516 ], [ -8.152178186600874, 40.033696175619703 ], [ -8.152127882655069, 40.033572349372768 ], [ -8.152105362587792, 40.033469594734441 ], [ -8.152105329485101, 40.033358728171521 ], [ -8.152132007887126, 40.033251730768164 ], [ -8.15222301944797, 40.03317858767732 ], [ -8.15236838580692, 40.033094623612634 ], [ -8.152446166504278, 40.033044268996548 ], [ -8.152570795108694, 40.032948869426896 ], [ -8.152665896139455, 40.032852035526567 ], [ -8.152726428918514, 40.032727293749367 ], [ -8.152769647927528, 40.032673245934149 ], [ -8.152828442294288, 40.032603439196635 ], [ -8.152937498662132, 40.032563521548674 ], [ -8.15312261167087, 40.03255159980732 ], [ -8.153193604824862, 40.03255158572253 ], [ -8.153321548750096, 40.03255300085651 ], [ -8.153432489744864, 40.032532448334138 ], [ -8.153588052814671, 40.03246289348052 ], [ -8.153715848630986, 40.032397033177645 ], [ -8.153825843391425, 40.032321000770459 ], [ -8.153898097066421, 40.032232635710869 ], [ -8.153950073455364, 40.03210086821872 ], [ -8.153991497077547, 40.031949738481316 ], [ -8.154019929636128, 40.031832112144556 ], [ -8.154045077862136, 40.031721241003986 ], [ -8.154077837969128, 40.031584163284947 ], [ -8.154110602695923, 40.031462575229767 ], [ -8.154578975401455, 40.031394936064544 ], [ -8.155468978086631, 40.031288934672141 ], [ -8.156278625476636, 40.031204016028532 ], [ -8.156903522313215, 40.031168757302517 ], [ -8.157331880546007, 40.031249081763256 ], [ -8.157429364402745, 40.031276352680869 ], [ -8.157459364794066, 40.031305343481932 ], [ -8.157492886116977, 40.031325329185378 ], [ -8.15753131379681, 40.031341354741564 ], [ -8.157558970796286, 40.031349812888976 ], [ -8.157856681089967, 40.031385495999174 ], [ -8.158172549471585, 40.031432438409816 ], [ -8.158489818197017, 40.03144109991306 ], [ -8.158552851809263, 40.031444688549342 ], [ -8.158583549565169, 40.031450892445648 ], [ -8.158876788761248, 40.031448845354369 ], [ -8.159192077731976, 40.031485330775517 ], [ -8.159509112002212, 40.031495702510377 ], [ -8.159819475849256, 40.031537325354499 ], [ -8.160120590382645, 40.031584804421357 ], [ -8.160288499159265, 40.031631141425507 ], [ -8.16056608945715, 40.031732392461926 ], [ -8.160849416670475, 40.031833635153951 ], [ -8.160993308278561, 40.031884035052698 ], [ -8.161054124127382, 40.031906534874231 ], [ -8.161139769033765, 40.031910654314842 ], [ -8.162927465309963, 40.032370663639433 ], [ -8.163078621102317, 40.032420967211557 ], [ -8.163293075541617, 40.032536002015682 ], [ -8.163586079099042, 40.032765666751118 ], [ -8.163714413392706, 40.03285533055432 ], [ -8.16374393766589, 40.032852263364163 ], [ -8.163770876493119, 40.032836764764518 ], [ -8.163831912418411, 40.032820986938738 ], [ -8.163869516022302, 40.032820437494273 ], [ -8.163931502980541, 40.032837887545242 ], [ -8.164018217567243, 40.032870197417438 ], [ -8.164047979758728, 40.032882885440891 ], [ -8.16407973886905, 40.03289665636251 ], [ -8.164103996408448, 40.032913493173574 ], [ -8.164228207656882, 40.032951736008997 ], [ -8.164515404671354, 40.033035229267412 ], [ -8.164809636346648, 40.033125472697577 ], [ -8.165105747811685, 40.033215177193107 ], [ -8.165367177030246, 40.03330543546263 ], [ -8.165659068999716, 40.033398290065954 ], [ -8.165938184894133, 40.033470796363339 ], [ -8.165965019231804, 40.033479792202414 ], [ -8.165991379514912, 40.033484831769577 ], [ -8.166059127479411, 40.033541638607403 ], [ -8.16690132756241, 40.033848216548904 ], [ -8.167985904510514, 40.034321239280899 ], [ -8.169592173669418, 40.035106771260253 ], [ -8.170635229008901, 40.035636700977768 ], [ -8.171418870694362, 40.036111769844283 ], [ -8.17187000130134, 40.036388729802503 ], [ -8.172009458910789, 40.036438215948287 ], [ -8.172086572267439, 40.036460971070326 ], [ -8.17206043067111, 40.036441529296361 ], [ -8.17204026212581, 40.036415690248397 ], [ -8.17202852964798, 40.036392005334619 ], [ -8.172007986586358, 40.036319423628967 ], [ -8.172004994362236, 40.036218738666307 ], [ -8.171992918296866, 40.036202713587393 ], [ -8.171863667911774, 40.035975893061419 ], [ -8.171738645844576, 40.03576798747531 ], [ -8.171611871991951, 40.03556260404892 ], [ -8.171594514043058, 40.035539821571085 ], [ -8.171573986337631, 40.035489126502185 ], [ -8.17156694159419, 40.035466885467628 ], [ -8.17150992764063, 40.035351539280732 ], [ -8.17140095945132, 40.035139662580946 ], [ -8.171390285021763, 40.035113189846044 ], [ -8.171384763338981, 40.035086443422564 ], [ -8.171339472457731, 40.034975592740757 ], [ -8.171280436361092, 40.034806480416258 ], [ -8.171209312304789, 40.034583874631615 ], [ -8.1711291613756, 40.034367756181339 ], [ -8.171124932742048, 40.034344159667278 ], [ -8.171127472867189, 40.03428723999631 ], [ -8.17114549314482, 40.034045782926249 ], [ -8.171217052979623, 40.033802325094719 ], [ -8.171275496511248, 40.033563914071081 ], [ -8.171356091748967, 40.033347200512253 ], [ -8.171457538720105, 40.033117782223684 ], [ -8.171564373077228, 40.032888090063892 ], [ -8.171576655346882, 40.032857373223202 ], [ -8.171599737418076, 40.032664005370506 ], [ -8.171701882264641, 40.032432965502672 ], [ -8.171714523800317, 40.032412157089517 ], [ -8.171811739191316, 40.032173188843338 ], [ -8.17180393673962, 40.032051519281993 ], [ -8.171790083242957, 40.031807823822511 ], [ -8.171781743773572, 40.031564931660725 ], [ -8.171778315270069, 40.031323482435837 ], [ -8.171773382522012, 40.031096617361683 ], [ -8.171748401481294, 40.030856614488549 ], [ -8.171688742937873, 40.030613744784709 ], [ -8.171621002902155, 40.030374204598388 ], [ -8.171576925334058, 40.030132587796594 ], [ -8.171592022841494, 40.029898423735375 ], [ -8.171593166217168, 40.029660660936266 ], [ -8.171585744457808, 40.029587717168148 ], [ -8.171577292174131, 40.02956349342395 ], [ -8.171487886221405, 40.029328827231545 ], [ -8.171481649725141, 40.029085661360789 ], [ -8.171466115088991, 40.028964358120362 ], [ -8.171454737226449, 40.028941574516288 ], [ -8.171405275726903, 40.028700140394285 ], [ -8.171397990762465, 40.028456437171585 ], [ -8.171384022393376, 40.02821291716959 ], [ -8.171327307048337, 40.027991479944276 ], [ -8.171320958717537, 40.027750298101402 ], [ -8.171332419558098, 40.027712288345576 ], [ -8.171344468311441, 40.027684454449492 ], [ -8.171470514402666, 40.02747979293396 ], [ -8.171580081440615, 40.027325482059524 ], [ -8.171594830240073, 40.027301607245995 ], [ -8.171632515827639, 40.027246121304962 ], [ -8.171773214671942, 40.027045686565685 ], [ -8.171933594258368, 40.02685199877353 ], [ -8.172125844898655, 40.026666764012937 ], [ -8.172196332120723, 40.026607933654837 ], [ -8.172223610654076, 40.02658567563963 ], [ -8.17236425417174, 40.026494395707751 ], [ -8.172421042663007, 40.026243645030156 ], [ -8.172552417016792, 40.026145342305021 ], [ -8.172683760449885, 40.025986071352037 ], [ -8.172782198648491, 40.025839056289009 ], [ -8.172913468810139, 40.025753178980416 ], [ -8.172979088190303, 40.025593931139923 ], [ -8.172978976341385, 40.025409845290646 ], [ -8.172946239983899, 40.025324298938401 ], [ -8.172896775932911, 40.025085024980136 ], [ -8.172962319777218, 40.0247909549431 ], [ -8.172995165573935, 40.024680614578799 ], [ -8.172995032552244, 40.024460239284664 ], [ -8.172978412668238, 40.024288585780731 ], [ -8.172978278425429, 40.024068029448195 ], [ -8.172994659255332, 40.023847371958745 ], [ -8.17301095792493, 40.023479829389508 ], [ -8.173207585219302, 40.02281772211078 ], [ -8.173264937580541, 40.022548148684777 ], [ -8.17338957541574, 40.021968560579808 ], [ -8.174131664692869, 40.020663039408312 ], [ -8.174894420648664, 40.019465482497552 ], [ -8.175118881760556, 40.01859937264333 ], [ -8.175040049519996, 40.017492015981631 ], [ -8.174901238352279, 40.014901734859087 ], [ -8.174136746670003, 40.013041449876638 ], [ -8.173979993149766, 40.012604712806066 ], [ -8.172648132237939, 40.010805684176994 ], [ -8.172288651687223, 40.010357215536224 ], [ -8.172189832050211, 40.010013938618201 ], [ -8.172156817182762, 40.009842205435831 ], [ -8.172156642601458, 40.009548152701193 ], [ -8.172189436926686, 40.009351896899311 ], [ -8.172222013836503, 40.008984348028385 ], [ -8.17217268604867, 40.008763718541132 ], [ -8.172024533287432, 40.008371462554344 ], [ -8.1719752159475, 40.008150832955963 ], [ -8.17184366357977, 40.007905726810698 ], [ -8.171744898872369, 40.007645488192111 ], [ -8.171662801554247, 40.007449272520731 ], [ -8.171465541248201, 40.007192126669985 ], [ -8.171317664803208, 40.007057355591158 ], [ -8.171268241651632, 40.007057372775364 ], [ -8.171005285223004, 40.006799977550266 ], [ -8.170594450500687, 40.006395654947944 ], [ -8.170134266334117, 40.005917944391683 ], [ -8.169854849111852, 40.00552573360104 ], [ -8.169575352947433, 40.005194849789817 ], [ -8.169361955432619, 40.004950046516385 ], [ -8.169312472008418, 40.004839733441997 ], [ -8.169279564526473, 40.004631164828844 ], [ -8.169262924294371, 40.004398540090037 ], [ -8.169065495457847, 40.003589767070721 ], [ -8.1689338369289, 40.003111585272357 ], [ -8.168785674538169, 40.00264619716252 ], [ -8.168703572561604, 40.002413145688571 ], [ -8.168604994215862, 40.002241521446201 ], [ -8.168522716306056, 40.002119151521264 ], [ -8.168276220830029, 40.001935414630118 ], [ -8.168210480617693, 40.001849610917219 ], [ -8.168210316650743, 40.001543132815918 ], [ -8.168193824014374, 40.001151010710309 ], [ -8.168212888149704, 40.000886493828155 ], [ -8.168629816913374, 40.000730466816492 ], [ -8.171995790382262, 39.999403179457985 ], [ -8.172410071849654, 39.999160142509076 ], [ -8.172758093788442, 39.998955666088094 ], [ -8.172988036933452, 39.998881827316751 ], [ -8.173349350764459, 39.998783797828011 ], [ -8.173529867329878, 39.998697997783779 ], [ -8.173923971441386, 39.99859986499839 ], [ -8.174186699490729, 39.998526005089751 ], [ -8.174416662065974, 39.998489359082278 ], [ -8.174613638180135, 39.998317629617553 ], [ -8.174794097510727, 39.998146173238943 ], [ -8.175122537839467, 39.997925401804302 ], [ -8.175188132465401, 39.997766056494029 ], [ -8.175220743126008, 39.997496132369527 ], [ -8.175269795960908, 39.997287892031167 ], [ -8.175417557398964, 39.997079522910148 ], [ -8.175565214896132, 39.996895742368118 ], [ -8.175729450358233, 39.996809759306231 ], [ -8.176254906267753, 39.996686897693465 ], [ -8.176583188708259, 39.996601211581684 ], [ -8.176665367352596, 39.996564341751274 ], [ -8.176780177261206, 39.99646604086265 ], [ -8.177042791023768, 39.996233221295647 ], [ -8.177239812581742, 39.996159653114624 ], [ -8.177436856578552, 39.996110577863377 ], [ -8.177788499474733, 39.996118634884262 ], [ -8.179967518610072, 39.995069967252576 ], [ -8.180151201188949, 39.99501693725373 ], [ -8.18034810584267, 39.994943363822138 ], [ -8.18051221516065, 39.994869894435475 ], [ -8.180577881420966, 39.994832942113291 ], [ -8.180758464437616, 39.994538812660835 ], [ -8.180856679502758, 39.994342616149396 ], [ -8.180955056083178, 39.994036367226045 ], [ -8.181020520262583, 39.993730132713566 ], [ -8.181151720465527, 39.993484749286857 ], [ -8.181348554777873, 39.99316917823306 ], [ -8.181512496532751, 39.992703313233378 ], [ -8.181545049000173, 39.992384661722909 ], [ -8.181462715174897, 39.992200610059079 ], [ -8.181314915364696, 39.992151767900801 ], [ -8.18133112516745, 39.991906613898671 ], [ -8.181380412060159, 39.991735208785528 ], [ -8.181470516390371, 39.99149587618404 ], [ -8.181577126450543, 39.991256898651407 ], [ -8.181765936999534, 39.991189542237528 ], [ -8.18196285061555, 39.991146402506878 ], [ -8.182324143883852, 39.991091127137416 ], [ -8.182619667030528, 39.991078838387622 ], [ -8.182919256870553, 39.991026653218398 ], [ -8.183157345349501, 39.990934501760456 ], [ -8.183576039036279, 39.990762658195266 ], [ -8.183846864049915, 39.990615645022665 ], [ -8.184092968580202, 39.990443876804989 ], [ -8.184495016710185, 39.990100558018078 ], [ -8.184683730112798, 39.989916746534732 ], [ -8.18489708733715, 39.989800110088915 ], [ -8.185053135133296, 39.989763113881068 ], [ -8.18514328857697, 39.989756946515655 ], [ -8.185291118184891, 39.989695817922296 ], [ -8.185422406564181, 39.989591552335852 ], [ -8.185627520917587, 39.989419800224795 ], [ -8.185816285145403, 39.989150067560722 ], [ -8.185906277442983, 39.988941807405325 ], [ -8.185881446993312, 39.988497361956767 ], [ -8.185881204743474, 39.988044083686859 ], [ -8.185856285613212, 39.987774455191072 ], [ -8.185839547041521, 39.987483202629434 ], [ -8.185757346028904, 39.987323920000037 ], [ -8.185683420770916, 39.987115736993438 ], [ -8.185683338548248, 39.987011532380563 ], [ -8.185670794009175, 39.986843032617955 ], [ -8.185703504961335, 39.98661021061983 ], [ -8.185703407383286, 39.986487546857511 ], [ -8.185621096659736, 39.986328269557255 ], [ -8.185506151182169, 39.986217993582528 ], [ -8.185473066760972, 39.985985293211982 ], [ -8.185456337270772, 39.985703224143521 ], [ -8.18555482956908, 39.985592855217597 ], [ -8.185702533478771, 39.985384562661345 ], [ -8.185882947380989, 39.98522516150544 ], [ -8.186079869759268, 39.985077906417381 ], [ -8.186260274954053, 39.984918505570633 ], [ -8.186342338162275, 39.984759145142405 ], [ -8.18655564209373, 39.984599817875178 ], [ -8.186785394041085, 39.984366629768687 ], [ -8.186900117629596, 39.9842072538016 ], [ -8.186916486415797, 39.984035861381443 ], [ -8.18703121031796, 39.983876485275502 ], [ -8.187080379199235, 39.983729303400239 ], [ -8.18714587597672, 39.983508618598925 ], [ -8.18714568072164, 39.983269686263483 ], [ -8.187178441375863, 39.983098015949089 ], [ -8.187309589776886, 39.982840646853475 ], [ -8.187391469249224, 39.982607703950215 ], [ -8.187489765575005, 39.982411773369883 ], [ -8.187571725310701, 39.982276910787718 ], [ -8.187571523646699, 39.982031764109202 ], [ -8.187587797724484, 39.981749776011817 ], [ -8.18771890169975, 39.981443233314913 ], [ -8.187767958953074, 39.981308386968976 ], [ -8.187767344609821, 39.980560877537947 ], [ -8.187832799098409, 39.980144038379976 ], [ -8.187876779110406, 39.979952099362862 ], [ -8.188222374163868, 39.979401652205162 ], [ -8.188642637144852, 39.97910028056787 ], [ -8.189108407660326, 39.978917674003021 ], [ -8.188332036135533, 39.978231970659657 ], [ -8.188061066514951, 39.978140058443564 ], [ -8.188093978219023, 39.977880844363639 ], [ -8.188797977083521, 39.977556006499618 ], [ -8.18986356079505, 39.977073377874689 ], [ -8.190420734248436, 39.976734281995867 ], [ -8.190596635984285, 39.976410510815533 ], [ -8.190420248574664, 39.976169685871064 ], [ -8.189508109476465, 39.975915453130071 ], [ -8.189503859591648, 39.975872135203431 ], [ -8.189421676820576, 39.975590104346203 ], [ -8.189421448561149, 39.975320549599445 ], [ -8.189486971460523, 39.97514912726124 ], [ -8.189503122046215, 39.975001871030862 ], [ -8.189470177785338, 39.974805732104329 ], [ -8.189272919286301, 39.974511782290101 ], [ -8.189075742318327, 39.974180811041634 ], [ -8.188829090406342, 39.973886879773822 ], [ -8.188648414878855, 39.973690819599142 ], [ -8.18859891890366, 39.973433537743134 ], [ -8.188631441587122, 39.973127042527182 ], [ -8.188598520751897, 39.972955669537988 ], [ -8.188565478613508, 39.972771597792963 ], [ -8.188516238257508, 39.972686154816301 ], [ -8.188450607837797, 39.972587930781295 ], [ -8.188368342221136, 39.972477646275557 ], [ -8.188269904450481, 39.972342871528852 ], [ -8.187974102815172, 39.972061302977302 ], [ -8.187760399917716, 39.97182832688636 ], [ -8.187579781334422, 39.971681523690314 ], [ -8.187562856572882, 39.971599395611008 ], [ -8.187562665977561, 39.97136658792779 ], [ -8.187644650271237, 39.971133559678208 ], [ -8.187767369568867, 39.970765959780024 ], [ -8.18780830424422, 39.970434961900438 ], [ -8.187840841781892, 39.97015323211189 ], [ -8.187931022363312, 39.969926414050335 ], [ -8.187971901772146, 39.969822189750708 ], [ -8.187969801774477, 39.96954390316084 ], [ -8.188477362265832, 39.968307826468127 ], [ -8.189043713354517, 39.967276071640093 ], [ -8.18983497196461, 39.966326870601009 ], [ -8.191066145799565, 39.965083751014248 ], [ -8.192228914476392, 39.964088595181885 ], [ -8.193518935032889, 39.963289696749825 ], [ -8.194946999431668, 39.962709192177869 ], [ -8.197517823488061, 39.961661146383882 ], [ -8.199296865310238, 39.961132987295152 ], [ -8.200958601660361, 39.960710422036556 ], [ -8.203051848490986, 39.960310081836035 ], [ -8.204957732550415, 39.959720784088951 ], [ -8.207645664600713, 39.958770336853398 ], [ -8.209463706877324, 39.958294678571754 ], [ -8.209316513088774, 39.957812945758683 ], [ -8.209257868972614, 39.957694468171461 ], [ -8.209131704085234, 39.957692842486573 ], [ -8.208955202594689, 39.957677555583928 ], [ -8.208870991333349, 39.957619616614586 ], [ -8.208764286160076, 39.957539980864944 ], [ -8.208690287978149, 39.957404935173471 ], [ -8.208665477385535, 39.957300842535695 ], [ -8.208595626669256, 39.957107792831295 ], [ -8.208451744355557, 39.956957937527449 ], [ -8.208094629287002, 39.956697807853104 ], [ -8.20789752360923, 39.956566265379941 ], [ -8.207589584055913, 39.95643137775113 ], [ -8.207425340081871, 39.956385553001397 ], [ -8.207226401681247, 39.956391807321133 ], [ -8.206967953102742, 39.956456459829674 ], [ -8.206504479082298, 39.956530161549551 ], [ -8.205950585656248, 39.956533669393345 ], [ -8.205650790494742, 39.95645731132138 ], [ -8.205453710522693, 39.956343956426551 ], [ -8.205359278818552, 39.956245850621265 ], [ -8.205272985607497, 39.956102078802907 ], [ -8.205235847272114, 39.95595484856014 ], [ -8.205239738195889, 39.955761846350114 ], [ -8.20531757068791, 39.955554922146419 ], [ -8.205378837111196, 39.955395565805965 ], [ -8.205526590103226, 39.955233627377126 ], [ -8.205533717033161, 39.955225787472259 ], [ -8.2057839629986, 39.955156373571221 ], [ -8.20700597016368, 39.954952491729614 ], [ -8.207572678363, 39.954485151403198 ], [ -8.207923964648568, 39.953935269036435 ], [ -8.208625477047951, 39.951916608841891 ], [ -8.209074873259762, 39.951532462491684 ], [ -8.211576597233762, 39.949670169275002 ], [ -8.214223627555407, 39.947612729500854 ], [ -8.216274491500956, 39.945969689171115 ], [ -8.21655786287811, 39.945946966248357 ], [ -8.218662016406887, 39.946909065055642 ], [ -8.219649992791187, 39.947390415423548 ], [ -8.220405990824428, 39.947551682473133 ], [ -8.220774221567718, 39.947630470743569 ], [ -8.222153665047834, 39.948133746744922 ], [ -8.22366970489729, 39.948652115769512 ], [ -8.22427624602568, 39.948945416140887 ], [ -8.226908920931228, 39.950404081642446 ], [ -8.227486278939482, 39.950727557944212 ], [ -8.226918693284844, 39.951120248110698 ], [ -8.225111902382606, 39.952492104786899 ], [ -8.224271837961195, 39.953125465215585 ], [ -8.223842607066244, 39.95374327268695 ], [ -8.223724417032317, 39.954093440598491 ], [ -8.223647755820853, 39.954345675107398 ], [ -8.223638402266568, 39.954616678313293 ], [ -8.223863828363381, 39.954986294000825 ], [ -8.224382764915317, 39.955535524648404 ], [ -8.226498001311993, 39.957280739266572 ], [ -8.227232068986895, 39.957822216365024 ], [ -8.228572181216856, 39.958303293346034 ], [ -8.230234797719643, 39.958505064766349 ], [ -8.231731134600487, 39.958714614632278 ], [ -8.232796768560098, 39.958668655671843 ], [ -8.234566854369676, 39.958252810423438 ], [ -8.237459820746553, 39.957452069721263 ], [ -8.239376076443563, 39.957367624515328 ], [ -8.241456358818207, 39.957335860315048 ], [ -8.241291047065195, 39.957514155867315 ], [ -8.241160072333635, 39.957722595562146 ], [ -8.241111390936302, 39.958016781834424 ], [ -8.241078738269778, 39.958237466555921 ], [ -8.241029997233294, 39.958494909080621 ], [ -8.240964617765327, 39.958666356365534 ], [ -8.240915444770449, 39.958801225823514 ], [ -8.240899682456796, 39.959120152152735 ], [ -8.240899956041133, 39.959365208622913 ], [ -8.240850822033808, 39.959524572324625 ], [ -8.240785461817595, 39.959708454402445 ], [ -8.240588918756854, 39.959904790404806 ], [ -8.240425126588553, 39.960088765286045 ], [ -8.240261251304347, 39.9602912847933 ], [ -8.239949915122713, 39.960573290592897 ], [ -8.239736807465023, 39.960806479583354 ], [ -8.239572991586252, 39.960978022819482 ], [ -8.239491118359267, 39.961161914783972 ], [ -8.239245608236219, 39.961627940701291 ], [ -8.239114852613932, 39.961910048013294 ], [ -8.239098557082407, 39.962044886558793 ], [ -8.238934781851947, 39.962241188817686 ], [ -8.238869505828047, 39.962412549159545 ], [ -8.238836670447911, 39.96252290393096 ], [ -8.238787707197673, 39.962645704727485 ], [ -8.238640232482776, 39.962866495005834 ], [ -8.238493104053907, 39.963234171368555 ], [ -8.238362184927402, 39.963491508006044 ], [ -8.238280269521846, 39.963651172255673 ], [ -8.238083717119901, 39.96385345252245 ], [ -8.237969033950471, 39.964012788662167 ], [ -8.23793637213673, 39.964160066824832 ], [ -8.237838343441114, 39.964343973032385 ], [ -8.237723766213206, 39.964576799834113 ], [ -8.237658430412687, 39.964785349894854 ], [ -8.237658696295293, 39.964956830477696 ], [ -8.237625881686254, 39.965006033297321 ], [ -8.237527445515431, 39.965079614813192 ], [ -8.237314475094241, 39.965263624926315 ], [ -8.237068376070383, 39.965447574294295 ], [ -8.236888064922509, 39.965558063319939 ], [ -8.23664228277525, 39.965791366640559 ], [ -8.236429320967448, 39.966061115493829 ], [ -8.236281768809524, 39.966244973492742 ], [ -8.236216353183579, 39.966404354039355 ], [ -8.236150855500973, 39.966514737923475 ], [ -8.236101828030401, 39.966600612842683 ], [ -8.236036390667998, 39.966747563774319 ], [ -8.235921481339382, 39.966845923912317 ], [ -8.235823295599081, 39.966931837793979 ], [ -8.235696125951829, 39.967051284989537 ], [ -8.235450259779666, 39.967235321626632 ], [ -8.235187826891636, 39.967382719601652 ], [ -8.235072988070147, 39.967530071009797 ], [ -8.234991140358204, 39.967664876428145 ], [ -8.234876523340569, 39.967799802421936 ], [ -8.234745452529879, 39.967971308987913 ], [ -8.234630785258894, 39.968155226954075 ], [ -8.234548972674478, 39.968314888353653 ], [ -8.234500034466025, 39.968461822136014 ], [ -8.234369128139722, 39.96874391940284 ], [ -8.234270749992509, 39.968939890226736 ], [ -8.234205726296839, 39.969292360406619 ], [ -8.234123966084285, 39.96956235062185 ], [ -8.234075208761775, 39.969831859012537 ], [ -8.234075594351062, 39.970089164347975 ], [ -8.234042929971595, 39.970321910510272 ], [ -8.234027078881372, 39.97060390526341 ], [ -8.234027300115791, 39.97075115893297 ], [ -8.23396207863672, 39.971047519253005 ], [ -8.233880280088007, 39.971219339416983 ], [ -8.233881470067617, 39.972016112400475 ], [ -8.233964003047848, 39.972334586825795 ], [ -8.234095671624491, 39.97255512416077 ], [ -8.234143603601025, 39.972751775054519 ], [ -8.234401200483561, 39.973812289670562 ], [ -8.234500359279739, 39.974204330038752 ], [ -8.234599320588991, 39.974547559369888 ], [ -8.23473103057489, 39.974792590119698 ], [ -8.234994314227, 39.975110901452737 ], [ -8.235257141795191, 39.975282413644074 ], [ -8.235388818625793, 39.975502677398495 ], [ -8.235553269566427, 39.975796850515856 ], [ -8.235684903516601, 39.975992615194109 ], [ -8.235849891520409, 39.976482761224375 ], [ -8.23585026447728, 39.976727907852371 ], [ -8.235890330556897, 39.976976084102255 ], [ -8.235910284546595, 39.977166096105847 ], [ -8.235959380009868, 39.977348422446518 ], [ -8.235969423803366, 39.977487110402592 ], [ -8.235974886630434, 39.977692806979277 ], [ -8.236293262578299, 39.978351319878037 ], [ -8.236701749971706, 39.978839260705612 ], [ -8.237246038764082, 39.979320322554436 ], [ -8.237944412702637, 39.979738201655543 ], [ -8.238075495348852, 39.979788422437643 ], [ -8.238076336229177, 39.980328794421943 ], [ -8.238037892614946, 39.980752114678175 ], [ -8.238019198955534, 39.981380041163575 ], [ -8.238000303716719, 39.981803621027993 ], [ -8.237961747461569, 39.982154085403366 ], [ -8.237923280889122, 39.982562730768741 ], [ -8.237904500206978, 39.983132384156036 ], [ -8.237905816276815, 39.983979229915214 ], [ -8.237867528027865, 39.984431914490806 ], [ -8.237809420951399, 39.984782306262893 ], [ -8.237731565840607, 39.985089127509859 ], [ -8.237595064689209, 39.985322779205781 ], [ -8.237536594064963, 39.985439644362621 ], [ -8.237497531425262, 39.985541810973089 ], [ -8.237400019125168, 39.985702660657786 ], [ -8.237380955758104, 39.986096693558153 ], [ -8.237361751087997, 39.98631934273812 ], [ -8.237264422093286, 39.986523964140765 ], [ -8.237264669332113, 39.986684453809957 ], [ -8.237226191366439, 39.987166317375156 ], [ -8.237206952707689, 39.987370954086956 ], [ -8.237128895654333, 39.987546013138626 ], [ -8.236972860117385, 39.987721504984563 ], [ -8.236855603756227, 39.98791137005491 ], [ -8.236719053304956, 39.988042894677662 ], [ -8.23668011589821, 39.988232869649195 ], [ -8.236680452531038, 39.988451896885053 ], [ -8.236817952287389, 39.98893360008595 ], [ -8.236975215513244, 39.989327748586476 ], [ -8.23703425994634, 39.989575901483576 ], [ -8.237152071325609, 39.989896951922013 ], [ -8.23717198742669, 39.990130465119293 ], [ -8.237270279984338, 39.990393261840886 ], [ -8.237388270310388, 39.990904251014996 ], [ -8.237526058346129, 39.991341913442767 ], [ -8.23764369739825, 39.991619376985518 ], [ -8.237663699845701, 39.991911157420617 ], [ -8.237703219679327, 39.992101150069097 ], [ -8.237619424027121, 39.992354209152928 ], [ -8.237711840073652, 39.993428377205824 ], [ -8.23776792061542, 39.994558322606096 ], [ -8.23783055328345, 39.994698401678427 ], [ -8.237844523471646, 39.994875177247145 ], [ -8.237805800790831, 39.995123425020438 ], [ -8.237747384540878, 39.995357094197239 ], [ -8.237708430643051, 39.995532480140405 ], [ -8.237630292151881, 39.995663952037944 ], [ -8.237591481596517, 39.995780798385034 ], [ -8.237532950474396, 39.995868388724354 ], [ -8.237494131362256, 39.996131314747132 ], [ -8.237495803216884, 39.997211689978506 ], [ -8.237535482260675, 39.997503717211963 ], [ -8.237555494354392, 39.997795588322141 ], [ -8.23755578840961, 39.997985527007202 ], [ -8.237595146878414, 39.998145888340858 ], [ -8.237595418811793, 39.998321237892455 ], [ -8.237517328271656, 39.998481803233012 ], [ -8.2373415301179, 39.998613359202338 ], [ -8.237302797676946, 39.998861605756716 ], [ -8.237303338479732, 39.999212032828652 ], [ -8.237205830236235, 39.999460332149553 ], [ -8.237167412106031, 39.99991319192462 ], [ -8.237089768794037, 40.000365821166824 ], [ -8.237051292496753, 40.000701603048931 ], [ -8.237051652592406, 40.000935224328671 ], [ -8.236993235154907, 40.00109963525744 ], [ -8.23695443198514, 40.001377150883869 ], [ -8.237033360145245, 40.001756775871947 ], [ -8.236975522579913, 40.002370055812492 ], [ -8.236975971765265, 40.002661854245837 ], [ -8.237035183427556, 40.002939280141767 ], [ -8.236996542803309, 40.003245792782934 ], [ -8.236977120162344, 40.00340656980427 ], [ -8.23695773858042, 40.003523393867646 ], [ -8.236859856480969, 40.003538072462383 ], [ -8.236625258972497, 40.003596557694003 ], [ -8.236449396337335, 40.003772066970214 ], [ -8.23637166063617, 40.004093204240775 ], [ -8.236313069950894, 40.004224748604265 ], [ -8.236293673105131, 40.00432689156434 ], [ -8.236118029814168, 40.004575351156021 ], [ -8.23596171686871, 40.004823698753199 ], [ -8.235903605686664, 40.005115820109509 ], [ -8.2357866561797, 40.005451762737678 ], [ -8.235611393300093, 40.005948337138165 ], [ -8.235592076610311, 40.00610902369813 ], [ -8.23539695232256, 40.006565450391427 ], [ -8.235299588568255, 40.006769884844381 ], [ -8.235221682616194, 40.007062024115044 ], [ -8.235046072466561, 40.007412517512989 ], [ -8.234889749191417, 40.007660868058508 ], [ -8.234831424838058, 40.007894536086447 ], [ -8.234714422734536, 40.008128260937475 ], [ -8.234597374688638, 40.008405841311927 ], [ -8.234500079128948, 40.00881489724857 ], [ -8.23444191364344, 40.009077563902473 ], [ -8.234344527651917, 40.009428257881353 ], [ -8.234227518691775, 40.009734839492445 ], [ -8.234071788400534, 40.010231484222608 ], [ -8.233974428300897, 40.010596591289783 ], [ -8.233877120264063, 40.010844882654304 ], [ -8.233798979764948, 40.010991031704059 ], [ -8.233662218107812, 40.011173526476888 ], [ -8.233506008626241, 40.01134892305069 ], [ -8.233369356271906, 40.011684789890673 ], [ -8.233233100238099, 40.01204992628616 ], [ -8.233155310979773, 40.012429695712001 ], [ -8.233057803483463, 40.012707255658171 ], [ -8.232999588097623, 40.012940926973172 ], [ -8.23290212265937, 40.01324749021726 ], [ -8.23290309736187, 40.013904663697545 ], [ -8.232962569206622, 40.01435716463871 ], [ -8.233061228537508, 40.01501425288177 ], [ -8.233139976423313, 40.015276711277465 ], [ -8.233277768402463, 40.015780393941149 ], [ -8.233376085074271, 40.016203861067936 ], [ -8.233474487228476, 40.016524932347259 ], [ -8.233592687175403, 40.01700665373518 ], [ -8.233671341184616, 40.017357010173292 ], [ -8.233789390100684, 40.017736425846053 ], [ -8.233848557711676, 40.018057801886201 ], [ -8.233907943958901, 40.018451762897925 ], [ -8.233908337796793, 40.018714652588095 ], [ -8.233850021599633, 40.019035770454813 ], [ -8.233850502479406, 40.019357198323775 ], [ -8.233694225677757, 40.019583659929957 ], [ -8.233538272994949, 40.01994881238403 ], [ -8.233265026232482, 40.020445468685182 ], [ -8.233108884786041, 40.020839890705162 ], [ -8.232972458027023, 40.021102899176206 ], [ -8.232855481233267, 40.021453427940486 ], [ -8.232816522128683, 40.02164312946001 ], [ -8.232797524879443, 40.022022754656916 ], [ -8.232778544226111, 40.02241714721491 ], [ -8.232818468674322, 40.022957027735181 ], [ -8.232818858385047, 40.023219911825478 ], [ -8.232643116341887, 40.023439097226934 ], [ -8.232467417837269, 40.023687455969934 ], [ -8.232037352863852, 40.024147949493212 ], [ -8.231665959755549, 40.024513292772511 ], [ -8.231216265028394, 40.024776293935602 ], [ -8.230942516584362, 40.024951877967418 ], [ -8.230707787230632, 40.025054210231268 ], [ -8.23047304996823, 40.025229759383215 ], [ -8.230336148168998, 40.025258874153664 ], [ -8.22998407399416, 40.025390574253215 ], [ -8.229808074224668, 40.025522212946406 ], [ -8.229553857184829, 40.025595466535606 ], [ -8.229377760210042, 40.025741422639861 ], [ -8.22922133226977, 40.02580009880888 ], [ -8.228967175516505, 40.026004659917625 ], [ -8.228771557136351, 40.026180172330157 ], [ -8.228497879007884, 40.026413926653973 ], [ -8.228224261227371, 40.026691634813943 ], [ -8.22810732952995, 40.02701288931906 ], [ -8.228087954788656, 40.027144395959205 ], [ -8.228049013302879, 40.027275827663431 ], [ -8.227931651173158, 40.027378050845051 ], [ -8.227560268280671, 40.027699515395256 ], [ -8.227188681193526, 40.027962713595748 ], [ -8.22686125504034, 40.028222179649418 ], [ -8.226724410900651, 40.028382960948157 ], [ -8.226699495727251, 40.028490783819521 ], [ -8.226660935940638, 40.028565387699444 ], [ -8.226557960351121, 40.028650215078635 ], [ -8.225945103425572, 40.029136325699106 ], [ -8.225344213377271, 40.029724192118515 ], [ -8.224658145618946, 40.030320316486005 ], [ -8.22370790014141, 40.03127716421195 ], [ -8.2235018837001, 40.031496262761998 ], [ -8.223319229931722, 40.031665723381977 ], [ -8.223153800480384, 40.031840930658099 ], [ -8.222903532004395, 40.032089609869914 ], [ -8.222640402749583, 40.032357477958513 ], [ -8.222401030396121, 40.032611003758831 ], [ -8.222193481396625, 40.032831817687175 ], [ -8.222031721874028, 40.033033407612628 ], [ -8.22193985878668, 40.03320261258299 ], [ -8.221855129348212, 40.033366501989342 ], [ -8.221769863579684, 40.033475719936916 ], [ -8.221571011230228, 40.033626458258816 ], [ -8.22127304892318, 40.033790508016153 ], [ -8.221039974457252, 40.033936316271337 ], [ -8.220742641509597, 40.034133689613917 ], [ -8.220484191493716, 40.034321395400227 ], [ -8.220213084171146, 40.034510102596663 ], [ -8.219966557348096, 40.034676540153569 ], [ -8.21975451670675, 40.034784776219354 ], [ -8.219548355342429, 40.034909306827025 ], [ -8.219506099038508, 40.034943741806572 ], [ -8.21944102448772, 40.034996386181547 ], [ -8.219338736487535, 40.035080039348699 ], [ -8.219177355216118, 40.035229935080956 ], [ -8.218967780691882, 40.035436603197759 ], [ -8.218684233548377, 40.035703123660667 ], [ -8.218491519188587, 40.035902752756598 ], [ -8.218189574640682, 40.036172350333196 ], [ -8.217868086310155, 40.036464387598969 ], [ -8.217604337267311, 40.036736209917443 ], [ -8.217304395327407, 40.037015616780202 ], [ -8.217073519541282, 40.037249408968115 ], [ -8.216721468242961, 40.037564250674954 ], [ -8.216424826878038, 40.037865897102563 ], [ -8.216187815341049, 40.038072042160444 ], [ -8.215918532429194, 40.038238312603831 ], [ -8.215805672219828, 40.03831404386132 ], [ -8.215717763931965, 40.03837976221039 ], [ -8.215640035810557, 40.038439168044818 ], [ -8.215541486473331, 40.038525879938732 ], [ -8.215490971451642, 40.038610120545975 ], [ -8.215400954414777, 40.038777070031635 ], [ -8.215259946415195, 40.039019165884234 ], [ -8.215113250941247, 40.039308092985628 ], [ -8.214995340218977, 40.039565934684866 ], [ -8.214797685725834, 40.039963243869899 ], [ -8.214654765736181, 40.040274326376824 ], [ -8.214524068968041, 40.040617729423083 ], [ -8.214439019815069, 40.040826101929241 ], [ -8.214297182175921, 40.041167443797853 ], [ -8.21414450732995, 40.041554810788391 ], [ -8.214108815675592, 40.041694428997765 ], [ -8.214123208948154, 40.041772140957193 ], [ -8.214186154148953, 40.041887466384928 ], [ -8.214279957654556, 40.042132005453496 ], [ -8.214397555936101, 40.0424842320691 ], [ -8.214556149576817, 40.042909925163762 ], [ -8.214723553392959, 40.04335812712884 ], [ -8.214841659912114, 40.043640654424706 ], [ -8.214941516490427, 40.044039641020809 ], [ -8.215015263930885, 40.044456115148868 ], [ -8.215115763457256, 40.044901842884855 ], [ -8.215149879417545, 40.045201811929921 ], [ -8.215133565333831, 40.045375818247614 ], [ -8.215067788969222, 40.045534550941554 ], [ -8.214994766506521, 40.045616558320624 ], [ -8.214901493022015, 40.045714794579283 ], [ -8.214705211664018, 40.045906041163001 ], [ -8.214515394318699, 40.046114127023557 ], [ -8.214368466280542, 40.046322276158833 ], [ -8.214065934812963, 40.04673667871765 ], [ -8.213879688708703, 40.04699456217805 ], [ -8.213546042998754, 40.047460594609376 ], [ -8.213444369500833, 40.047596563948005 ], [ -8.213331552531628, 40.047719669359154 ], [ -8.212942921786009, 40.048175018967541 ], [ -8.212706468388561, 40.048492647452974 ], [ -8.212660956640617, 40.048552389297605 ], [ -8.212568868157641, 40.048669264588362 ], [ -8.212417804394143, 40.048861828003893 ], [ -8.212370799768891, 40.048949402369182 ], [ -8.212326494126183, 40.049039222796665 ], [ -8.212294368741347, 40.049127863185866 ], [ -8.212287664791427, 40.049207210791629 ], [ -8.212269937818327, 40.049377528646446 ], [ -8.212262308365094, 40.049565578950961 ], [ -8.212227808547244, 40.049724288549925 ], [ -8.212098236639241, 40.050252042801766 ], [ -8.211993860168288, 40.050679271427889 ], [ -8.211974068004972, 40.050794383095152 ], [ -8.211936485825561, 40.050922476572183 ], [ -8.211895819793352, 40.051022743226703 ], [ -8.211815133817238, 40.051171937575432 ], [ -8.211729161463076, 40.051309339238635 ], [ -8.211551745015429, 40.051518584237499 ], [ -8.211344027607041, 40.051673809117347 ], [ -8.211160147121975, 40.05176705818382 ], [ -8.210885078236984, 40.051851093706169 ], [ -8.210748458567991, 40.0518773967367 ], [ -8.210599993357722, 40.051892716464252 ], [ -8.210431151243439, 40.051916968359279 ], [ -8.210202323932512, 40.051963327624208 ], [ -8.209808199283303, 40.052058428106513 ], [ -8.209749042712133, 40.052080711458807 ] ] ] } }
]
}
