{
"type": "FeatureCollection",
"name": "CAOP_Ílhavo_freg",
"crs": { "type": "name", "properties": { "name": "urn:ogc:def:crs:OGC:1.3:CRS84" } },
"features": [
{ "type": "Feature", "properties": { "dtmnfr": "011005", "freguesia": "Gafanha da Encarnação", "municipio": "Ílhavo", "distrito_i": "Aveiro", "nuts3_cod": "191", "nuts3": "Região de Aveiro", "nuts2": "Centro", "nuts1": "Continente", "area_ha": 1098.28, "perimetro_": 14, "designacao": "Gafanha da Encarnação" }, "geometry": { "type": "Polygon", "coordinates": [ [ [ -8.759687446420511, 40.60074614176812 ], [ -8.759621665604852, 40.600978224320905 ], [ -8.759429389326906, 40.601527045708238 ], [ -8.759333991237328, 40.601799159984914 ], [ -8.759050570489018, 40.603088333639754 ], [ -8.758889802971009, 40.603584488432695 ], [ -8.758647043233076, 40.604144120559994 ], [ -8.758066799078104, 40.605281909674751 ], [ -8.757908914423286, 40.606075121592099 ], [ -8.757619397463831, 40.606715957146541 ], [ -8.757217086320845, 40.607906902185007 ], [ -8.756926497058197, 40.608421762050533 ], [ -8.756520868372709, 40.609297266852579 ], [ -8.756395720558066, 40.609802318858293 ], [ -8.75607148007005, 40.610524480390687 ], [ -8.755588131941701, 40.611913692336209 ], [ -8.755393664146093, 40.612590124637194 ], [ -8.755139749824425, 40.61323994499125 ], [ -8.754908161713796, 40.613763403011184 ], [ -8.754302928713132, 40.61475713179248 ], [ -8.754152611221981, 40.615100226204909 ], [ -8.754131988543724, 40.615424431777207 ], [ -8.754407997317585, 40.615891201908333 ], [ -8.754421203191532, 40.616053220959749 ], [ -8.75330794777307, 40.618337502981618 ], [ -8.753274170716677, 40.618517693743655 ], [ -8.753371494067171, 40.618805328738631 ], [ -8.753360730190042, 40.618931276757912 ], [ -8.75330310151598, 40.619075848757618 ], [ -8.75308124884924, 40.619365208324041 ], [ -8.75303491947227, 40.619453793939456 ], [ -8.752686478402413, 40.620123666666409 ], [ -8.752168088215042, 40.621585179697156 ], [ -8.751985178650743, 40.622252626405853 ], [ -8.752048519345063, 40.622711542197003 ], [ -8.752109190531497, 40.6228822220355 ], [ -8.752110691574613, 40.623044303900009 ], [ -8.751808109547779, 40.624828928424904 ], [ -8.751732966632844, 40.625648791646988 ], [ -8.751750168743202, 40.626242942422216 ], [ -8.751636185941331, 40.626684887645453 ], [ -8.751665236598477, 40.627269973332794 ], [ -8.751561869329882, 40.627594615555033 ], [ -8.751144149094319, 40.62843441781591 ], [ -8.751017932296417, 40.628858240975568 ], [ -8.750929932989644, 40.629193119311651 ], [ -8.745952373630017, 40.62903031596106 ], [ -8.734069789068755, 40.628501596560234 ], [ -8.731424081513886, 40.627560926529021 ], [ -8.731045253805798, 40.628207543310367 ], [ -8.7308726551788, 40.628568438989866 ], [ -8.730709475568895, 40.62875347197167 ], [ -8.730578513152352, 40.628854615445526 ], [ -8.73041458372632, 40.628955929283613 ], [ -8.7302391437116, 40.628998698746642 ], [ -8.730030439795962, 40.62900814976129 ], [ -8.729870666692754, 40.629003445426548 ], [ -8.729638588253412, 40.628915913174254 ], [ -8.729153162155161, 40.628478621036464 ], [ -8.728909884370571, 40.628225687316053 ], [ -8.728533410253211, 40.627698058985217 ], [ -8.72838478953407, 40.627741543747717 ], [ -8.728353461100495, 40.627684944003327 ], [ -8.728208278271733, 40.627389006937733 ], [ -8.727904077739579, 40.626790765682912 ], [ -8.727908215556537, 40.626789826747469 ], [ -8.728146608076029, 40.626735727687247 ], [ -8.72871430547138, 40.626606895841036 ], [ -8.727012547566243, 40.626081537579054 ], [ -8.726679660972103, 40.626009332046486 ], [ -8.726276087093957, 40.625924043952587 ], [ -8.726017633318719, 40.625878188662796 ], [ -8.72590797164951, 40.625858734967174 ], [ -8.725289733063491, 40.62577006323302 ], [ -8.724680894225381, 40.625711229022258 ], [ -8.724277045012276, 40.625671699502334 ], [ -8.7233362455144, 40.625630601458063 ], [ -8.723114160002359, 40.625633177086641 ], [ -8.722819550628502, 40.625630309812756 ], [ -8.722506882789798, 40.625521057974183 ], [ -8.722057280512065, 40.625363957825606 ], [ -8.720914173456725, 40.624934453762314 ], [ -8.720837964229435, 40.624905818923821 ], [ -8.719675007202566, 40.624467724382903 ], [ -8.719643667064354, 40.624455918410746 ], [ -8.719608217328403, 40.624436788699107 ], [ -8.719172787778106, 40.624400688554054 ], [ -8.71936083019123, 40.624003814562286 ], [ -8.719422337882827, 40.623870281900636 ], [ -8.719654078364563, 40.62336717148689 ], [ -8.719737970269493, 40.623148261468046 ], [ -8.719969280277956, 40.622544664043097 ], [ -8.720205861769351, 40.622079273830025 ], [ -8.720143461133242, 40.622060368625256 ], [ -8.719473233645436, 40.621857318551513 ], [ -8.719549171786472, 40.621726102478554 ], [ -8.719669956708101, 40.621514560434001 ], [ -8.719631920539729, 40.62150274883551 ], [ -8.718265406222908, 40.621078388592004 ], [ -8.718261752232179, 40.621078001873542 ], [ -8.716973385370531, 40.620629469297022 ], [ -8.715693854638223, 40.620209542028235 ], [ -8.71247158674041, 40.620224922119277 ], [ -8.712564852166537, 40.612053503673629 ], [ -8.712615681959409, 40.608133789440245 ], [ -8.712621275441279, 40.601922025857512 ], [ -8.712657406944782, 40.599242143242463 ], [ -8.722129049146208, 40.599284460581366 ], [ -8.72345950601115, 40.599279013542755 ], [ -8.723804948581302, 40.597814434452303 ], [ -8.724265147860898, 40.597831024280623 ], [ -8.724888030369705, 40.59785542838172 ], [ -8.725132546637692, 40.597874875596965 ], [ -8.725729725280974, 40.597926215352686 ], [ -8.725799159494253, 40.597932187933367 ], [ -8.726103574472125, 40.597969262255766 ], [ -8.726171704283095, 40.597982697606653 ], [ -8.726405965804648, 40.59802889426544 ], [ -8.726960538099076, 40.598152853624235 ], [ -8.72793540764088, 40.598374965337754 ], [ -8.728294606668284, 40.598442808832004 ], [ -8.728422661000707, 40.598463301195302 ], [ -8.728701632701355, 40.598492448252486 ], [ -8.729095873509968, 40.598533644105338 ], [ -8.730484458576409, 40.598668418729702 ], [ -8.731341474298372, 40.598737301596955 ], [ -8.732346690159822, 40.598818626244302 ], [ -8.732578232500083, 40.598837358648943 ], [ -8.733581772461863, 40.598930559079157 ], [ -8.733831520206994, 40.598929248734663 ], [ -8.733849807759304, 40.598929154522409 ], [ -8.73397899214214, 40.598943618475559 ], [ -8.734247716359318, 40.599017929524564 ], [ -8.734865240675701, 40.59924185449605 ], [ -8.735682077585674, 40.59954801197803 ], [ -8.736091133106092, 40.599712117467817 ], [ -8.736201303593408, 40.599745303613695 ], [ -8.737475450136992, 40.600318627131848 ], [ -8.750187745411061, 40.598730359097061 ], [ -8.759687446420511, 40.60074614176812 ] ] ] } },
{ "type": "Feature", "properties": { "dtmnfr": "011006", "freguesia": "Gafanha da Nazaré", "municipio": "Ílhavo", "distrito_i": "Aveiro", "nuts3_cod": "191", "nuts3": "Região de Aveiro", "nuts2": "Centro", "nuts1": "Continente", "area_ha": 1643.59, "perimetro_": 19, "designacao": "Gafanha da Nazaré" }, "geometry": { "type": "Polygon", "coordinates": [ [ [ -8.746028546746647, 40.645781634804813 ], [ -8.74268344938087, 40.646199418745994 ], [ -8.739112647535256, 40.647115614917269 ], [ -8.733393763211312, 40.650830153163376 ], [ -8.728415477360716, 40.654862778441021 ], [ -8.726370887346853, 40.655887836670139 ], [ -8.723887688402948, 40.657142578653009 ], [ -8.723331544574137, 40.657458443591452 ], [ -8.721753913810231, 40.658354596880415 ], [ -8.718853370035738, 40.659422164641022 ], [ -8.716400931389778, 40.659762131652791 ], [ -8.713319603198631, 40.659855055807597 ], [ -8.705158592295378, 40.659181180325895 ], [ -8.703619316374494, 40.658053922537697 ], [ -8.70226770901302, 40.656853674591687 ], [ -8.701108223333456, 40.655826074159059 ], [ -8.699852102327267, 40.654441897105272 ], [ -8.698814685565388, 40.652727043115739 ], [ -8.697593889650506, 40.650600289398227 ], [ -8.696851684995627, 40.64878671675222 ], [ -8.696109942693585, 40.646686235054752 ], [ -8.694996009197947, 40.644197649102729 ], [ -8.694161019543687, 40.642861146225982 ], [ -8.693110374858161, 40.641728477589169 ], [ -8.690698812139679, 40.639370242735282 ], [ -8.689428553576491, 40.637517208234698 ], [ -8.688451765248928, 40.636091747660046 ], [ -8.686527643096248, 40.633029574193714 ], [ -8.685329423386651, 40.63102549348492 ], [ -8.685181417782614, 40.630994850588522 ], [ -8.685104860785875, 40.630256108063712 ], [ -8.68493445404776, 40.629572903785302 ], [ -8.684448495840504, 40.628346860768097 ], [ -8.683816351941102, 40.627149700539455 ], [ -8.683461635561388, 40.626298532938897 ], [ -8.683273513410693, 40.625699430042509 ], [ -8.683177563878736, 40.625155356870813 ], [ -8.683143048217325, 40.624568157051762 ], [ -8.683135078348059, 40.624429935189177 ], [ -8.683330367174733, 40.623703200725004 ], [ -8.683582493172713, 40.622431496988987 ], [ -8.684032326413888, 40.62226294652281 ], [ -8.685676952114679, 40.62167699852008 ], [ -8.690201987156337, 40.621735293137519 ], [ -8.708438578623465, 40.621962667883857 ], [ -8.708424219289446, 40.62022417189759 ], [ -8.712468532287465, 40.620223884738763 ], [ -8.71247158674041, 40.620224922119277 ], [ -8.715693854638223, 40.620209542028235 ], [ -8.716973385370531, 40.620629469297022 ], [ -8.718261752232179, 40.621078001873542 ], [ -8.718265406222908, 40.621078388592004 ], [ -8.719631920539729, 40.62150274883551 ], [ -8.719669956708101, 40.621514560434001 ], [ -8.719549171786472, 40.621726102478554 ], [ -8.719473233645436, 40.621857318551513 ], [ -8.720143461133242, 40.622060368625256 ], [ -8.720205861769351, 40.622079273830025 ], [ -8.719969280277956, 40.622544664043097 ], [ -8.719737970269493, 40.623148261468046 ], [ -8.719654078364563, 40.62336717148689 ], [ -8.719422337882827, 40.623870281900636 ], [ -8.71936083019123, 40.624003814562286 ], [ -8.719172787778106, 40.624400688554054 ], [ -8.719608217328403, 40.624436788699107 ], [ -8.719643667064354, 40.624455918410746 ], [ -8.719675007202566, 40.624467724382903 ], [ -8.720837964229435, 40.624905818923821 ], [ -8.720914173456725, 40.624934453762314 ], [ -8.722057280512065, 40.625363957825606 ], [ -8.722506882789798, 40.625521057974183 ], [ -8.722819550628502, 40.625630309812756 ], [ -8.723114160002359, 40.625633177086641 ], [ -8.7233362455144, 40.625630601458063 ], [ -8.724277045012276, 40.625671699502334 ], [ -8.724680894225381, 40.625711229022258 ], [ -8.725289733063491, 40.62577006323302 ], [ -8.72590797164951, 40.625858734967174 ], [ -8.726017633318719, 40.625878188662796 ], [ -8.726276087093957, 40.625924043952587 ], [ -8.726679660972103, 40.626009332046486 ], [ -8.727012547566243, 40.626081537579054 ], [ -8.72871430547138, 40.626606895841036 ], [ -8.728146608076029, 40.626735727687247 ], [ -8.727908215556537, 40.626789826747469 ], [ -8.727904077739579, 40.626790765682912 ], [ -8.728208278271733, 40.627389006937733 ], [ -8.728353461100495, 40.627684944003327 ], [ -8.72838478953407, 40.627741543747717 ], [ -8.728533410253211, 40.627698058985217 ], [ -8.728909884370571, 40.628225687316053 ], [ -8.729153162155161, 40.628478621036464 ], [ -8.729638588253412, 40.628915913174254 ], [ -8.729870666692754, 40.629003445426548 ], [ -8.730030439795962, 40.62900814976129 ], [ -8.7302391437116, 40.628998698746642 ], [ -8.73041458372632, 40.628955929283613 ], [ -8.730578513152352, 40.628854615445526 ], [ -8.730709475568895, 40.62875347197167 ], [ -8.7308726551788, 40.628568438989866 ], [ -8.731045253805798, 40.628207543310367 ], [ -8.731424081513886, 40.627560926529021 ], [ -8.734069789068755, 40.628501596560234 ], [ -8.745952373630017, 40.62903031596106 ], [ -8.750929932989644, 40.629193119311651 ], [ -8.75089233912939, 40.629336180597782 ], [ -8.750784382281081, 40.630444287869125 ], [ -8.750498973621228, 40.631535427037882 ], [ -8.750397592533174, 40.632076271495784 ], [ -8.750006091436052, 40.633213003661211 ], [ -8.749432966103221, 40.635152155615927 ], [ -8.749279028178725, 40.636404495080114 ], [ -8.749275137476937, 40.63725108037827 ], [ -8.749394022766044, 40.638619112961244 ], [ -8.74969081052504, 40.64004932303245 ], [ -8.749810259035332, 40.640183664725313 ], [ -8.750130505392614, 40.640299107936492 ], [ -8.757684935463283, 40.641877516990682 ], [ -8.758112010111029, 40.641963211490889 ], [ -8.758220899315488, 40.642105252294215 ], [ -8.758143376817172, 40.642336307289739 ], [ -8.757961174313289, 40.642449576297402 ], [ -8.757693671260721, 40.642387295169705 ], [ -8.749992478636559, 40.640713987151543 ], [ -8.74988617503406, 40.640723563694699 ], [ -8.749780286886336, 40.640778159009727 ], [ -8.749651666411607, 40.640932024649175 ], [ -8.749441965437821, 40.641266332515137 ], [ -8.74919920583287, 40.641861959346706 ], [ -8.748872530403693, 40.642331787691752 ], [ -8.748721845194101, 40.64265677706458 ], [ -8.748691489824813, 40.643224341281368 ], [ -8.748741048797156, 40.643458116404922 ], [ -8.748813602995298, 40.643646833373786 ], [ -8.748933267559456, 40.643790273496812 ], [ -8.749171850902275, 40.643980576595659 ], [ -8.749213613876837, 40.644112747859317 ], [ -8.749200587235222, 40.64423876557246 ], [ -8.749078659647527, 40.644275219447294 ], [ -8.748193253103908, 40.644285302403944 ], [ -8.745927105869953, 40.644311079092887 ], [ -8.746028546746647, 40.645781634804813 ] ] ] } },
{ "type": "Feature", "properties": { "dtmnfr": "011007", "freguesia": "Gafanha do Carmo", "municipio": "Ílhavo", "distrito_i": "Aveiro", "nuts3_cod": "191", "nuts3": "Região de Aveiro", "nuts2": "Centro", "nuts1": "Continente", "area_ha": 705.49, "perimetro_": 11, "designacao": "Gafanha do Carmo" }, "geometry": { "type": "Polygon", "coordinates": [ [ [ -8.72705729323053, 40.578085751600959 ], [ -8.727415813738043, 40.578093719743705 ], [ -8.727549761176395, 40.57809617876368 ], [ -8.729162250257687, 40.578124135591146 ], [ -8.729796192912646, 40.578132199454267 ], [ -8.729793236895782, 40.578171564833646 ], [ -8.731442258734878, 40.578204166636347 ], [ -8.733116377264748, 40.578242460729491 ], [ -8.734314527588285, 40.578240086316583 ], [ -8.734336607436459, 40.578239161830943 ], [ -8.734602612647445, 40.578256229646179 ], [ -8.734873922288523, 40.578245900555459 ], [ -8.737212863807509, 40.578258781087591 ], [ -8.738363873711366, 40.578255258601772 ], [ -8.739321887617081, 40.578275883730576 ], [ -8.741142890082402, 40.578296360751814 ], [ -8.742505159231708, 40.578315185732563 ], [ -8.743162360904847, 40.578335301522053 ], [ -8.743572869869087, 40.578307010525542 ], [ -8.743983561901867, 40.57827304561728 ], [ -8.744246234625665, 40.57824796713097 ], [ -8.744379959040669, 40.578251131831145 ], [ -8.744383923358315, 40.578245887827954 ], [ -8.744371299165874, 40.57820840107739 ], [ -8.744447115151283, 40.577935863126307 ], [ -8.748312486550279, 40.578804088404688 ], [ -8.754610576868458, 40.580382909419448 ], [ -8.754628049503689, 40.580407487885715 ], [ -8.755371477004013, 40.580552868469404 ], [ -8.757502424105988, 40.580987089727643 ], [ -8.760794698899375, 40.581741651549606 ], [ -8.761078359997828, 40.581813049301864 ], [ -8.761263958002187, 40.581842652484539 ], [ -8.761859431496349, 40.58198952239902 ], [ -8.762303519974123, 40.582076335123809 ], [ -8.766088884173485, 40.582928458718619 ], [ -8.766087192124996, 40.583761711280914 ], [ -8.766009452830101, 40.584284432631023 ], [ -8.765870843052697, 40.584627299582671 ], [ -8.765452909716302, 40.585386114179229 ], [ -8.765372068568439, 40.585593583531796 ], [ -8.764370578669958, 40.587111934258026 ], [ -8.763923003296942, 40.588501166088619 ], [ -8.763763578195046, 40.589132305696701 ], [ -8.763263813183677, 40.589999530909594 ], [ -8.76294112908173, 40.590856687778739 ], [ -8.762681021448827, 40.59210072396381 ], [ -8.762391467462489, 40.592714652896817 ], [ -8.762097009934138, 40.594075937469178 ], [ -8.761809134812315, 40.594870046691234 ], [ -8.760985806686108, 40.596513283274426 ], [ -8.760454868790578, 40.597858018759602 ], [ -8.760019626000341, 40.599319033860013 ], [ -8.759838960962297, 40.600211607158982 ], [ -8.759687446420511, 40.60074614176812 ], [ -8.750187745411061, 40.598730359097061 ], [ -8.737475450136992, 40.600318627131848 ], [ -8.736201303593408, 40.599745303613695 ], [ -8.736091133106092, 40.599712117467817 ], [ -8.735682077585674, 40.59954801197803 ], [ -8.734865240675701, 40.59924185449605 ], [ -8.734247716359318, 40.599017929524564 ], [ -8.73397899214214, 40.598943618475559 ], [ -8.733849807759304, 40.598929154522409 ], [ -8.733831520206994, 40.598929248734663 ], [ -8.733581772461863, 40.598930559079157 ], [ -8.732578232500083, 40.598837358648943 ], [ -8.732346690159822, 40.598818626244302 ], [ -8.731341474298372, 40.598737301596955 ], [ -8.730484458576409, 40.598668418729702 ], [ -8.729095873509968, 40.598533644105338 ], [ -8.728701632701355, 40.598492448252486 ], [ -8.728422661000707, 40.598463301195302 ], [ -8.728294606668284, 40.598442808832004 ], [ -8.72793540764088, 40.598374965337754 ], [ -8.726960538099076, 40.598152853624235 ], [ -8.726405965804648, 40.59802889426544 ], [ -8.726171704283095, 40.597982697606653 ], [ -8.726103574472125, 40.597969262255766 ], [ -8.725799159494253, 40.597932187933367 ], [ -8.725729725280974, 40.597926215352686 ], [ -8.725132546637692, 40.597874875596965 ], [ -8.724888030369705, 40.59785542838172 ], [ -8.724265147860898, 40.597831024280623 ], [ -8.723804948581302, 40.597814434452303 ], [ -8.726988735034954, 40.584891422134312 ], [ -8.727052432242166, 40.578085644217644 ], [ -8.72705729323053, 40.578085751600959 ] ] ] } },
{ "type": "Feature", "properties": { "dtmnfr": "011008", "freguesia": "Ílhavo (São Salvador)", "municipio": "Ílhavo", "distrito_i": "Aveiro", "nuts3_cod": "191", "nuts3": "Região de Aveiro", "nuts2": "Centro", "nuts1": "Continente", "area_ha": 3900.2, "perimetro_": 31, "designacao": "Ílhavo (São Salvador)" }, "geometry": { "type": "Polygon", "coordinates": [ [ [ -8.618443990891686, 40.587132086966911 ], [ -8.618430796743638, 40.587088464325497 ], [ -8.618095418650874, 40.586007915788315 ], [ -8.618262838413559, 40.585574960613023 ], [ -8.618341531556862, 40.58530168321689 ], [ -8.618596350731162, 40.58441252341234 ], [ -8.618921136848501, 40.584456450670004 ], [ -8.618932840844097, 40.584458379896958 ], [ -8.619031433302769, 40.584112077676885 ], [ -8.619149805522481, 40.583708326968399 ], [ -8.619176918278622, 40.583554857296967 ], [ -8.61918641072112, 40.583544999844122 ], [ -8.619275225682898, 40.583348492010394 ], [ -8.61944609651415, 40.583034210359379 ], [ -8.619708616303086, 40.582573571996946 ], [ -8.620091224643339, 40.58191403777937 ], [ -8.620255033280602, 40.581604645666147 ], [ -8.620404899170705, 40.581293873986716 ], [ -8.620747067337694, 40.580306360648429 ], [ -8.621098421436436, 40.579444970800445 ], [ -8.621267562273292, 40.578993998480186 ], [ -8.62146036355227, 40.578337246967024 ], [ -8.621568514983306, 40.578009450844085 ], [ -8.621654748679422, 40.577688319327166 ], [ -8.621735942929481, 40.577129656942923 ], [ -8.621851520292369, 40.575863044580792 ], [ -8.622021408577734, 40.574464992782211 ], [ -8.622037806516255, 40.574332907301603 ], [ -8.622323070533913, 40.574324670099614 ], [ -8.623395738504422, 40.573999884077523 ], [ -8.624003710677716, 40.573888328708669 ], [ -8.624405695937538, 40.57350029541751 ], [ -8.624751566629095, 40.573109883512522 ], [ -8.624901981637953, 40.57286303876257 ], [ -8.624902145077005, 40.57256388986535 ], [ -8.624788101998009, 40.572183277479766 ], [ -8.624819501864424, 40.571731805895112 ], [ -8.626161091343285, 40.571706346418296 ], [ -8.626494189255013, 40.571700143375708 ], [ -8.629764970883315, 40.572091400254102 ], [ -8.63380869538609, 40.571311594963426 ], [ -8.635085430345912, 40.570276834782817 ], [ -8.636172283210433, 40.568683037805812 ], [ -8.636280463504432, 40.568181969823819 ], [ -8.636805698322119, 40.567850175858695 ], [ -8.637713087479868, 40.566630232300533 ], [ -8.637900845626056, 40.566270284069653 ], [ -8.638283024839025, 40.56613722134167 ], [ -8.642758774979553, 40.56615747600744 ], [ -8.647177950806586, 40.565867400453826 ], [ -8.647395861626093, 40.565843104259585 ], [ -8.648545381944984, 40.565809778529839 ], [ -8.650057111530632, 40.567450132137644 ], [ -8.650205243408045, 40.567518716897368 ], [ -8.650603585253393, 40.567568979075176 ], [ -8.651171725433514, 40.567557687674707 ], [ -8.651637003120884, 40.567468961564323 ], [ -8.652529073441713, 40.567292673647771 ], [ -8.654369221141105, 40.567128208098538 ], [ -8.655652720985577, 40.567026931451927 ], [ -8.656027323029651, 40.566955713164582 ], [ -8.656195999818006, 40.566720811992916 ], [ -8.656678566650001, 40.56592940532434 ], [ -8.65692682668193, 40.565694141447239 ], [ -8.657642428100305, 40.565576339563755 ], [ -8.657940089080714, 40.565664221666921 ], [ -8.658219750502163, 40.56569897005452 ], [ -8.658493260725402, 40.565703302568579 ], [ -8.658820171959709, 40.565726034122015 ], [ -8.659420649083122, 40.565714016504437 ], [ -8.659457979877466, 40.565716095038923 ], [ -8.659769611239735, 40.565747539467409 ], [ -8.659798703075444, 40.565753349407544 ], [ -8.659828408652025, 40.565761681615939 ], [ -8.660123975738655, 40.565897386439055 ], [ -8.660353029448499, 40.566043479065293 ], [ -8.660595831218945, 40.566196895470185 ], [ -8.660831096049087, 40.566351427319212 ], [ -8.661081313007907, 40.566471582130241 ], [ -8.661346605195213, 40.566570502414926 ], [ -8.661629630665688, 40.5666578124331 ], [ -8.661957944751876, 40.566707274280482 ], [ -8.662300925704731, 40.56670038427017 ], [ -8.662650527662617, 40.56669454532404 ], [ -8.662680790577273, 40.56669918118687 ], [ -8.662712034313744, 40.566707501997911 ], [ -8.663010386839575, 40.566776188439384 ], [ -8.663043569404632, 40.566776846702012 ], [ -8.6633702600479, 40.566770028242118 ], [ -8.663501724592141, 40.566760415885831 ], [ -8.663822539976097, 40.566742638512679 ], [ -8.664089042548015, 40.56674050888045 ], [ -8.664146768755545, 40.566753210206862 ], [ -8.664395385447685, 40.566818793338562 ], [ -8.664427800300768, 40.566826744486832 ], [ -8.664456463158741, 40.566837330710264 ], [ -8.664529564067946, 40.566868514652626 ], [ -8.664792397489519, 40.567014170176897 ], [ -8.665042360470718, 40.567160252675194 ], [ -8.665316353373264, 40.567298206550163 ], [ -8.665561602855874, 40.567429625664118 ], [ -8.665773331321743, 40.567592992760673 ], [ -8.665973327497451, 40.567766315754326 ], [ -8.666238005070682, 40.567934745436808 ], [ -8.666485952140548, 40.568108389247854 ], [ -8.666568680889597, 40.568176621866243 ], [ -8.666777787534883, 40.568365662362538 ], [ -8.666818586157468, 40.56838798610935 ], [ -8.666862071649231, 40.568406337818899 ], [ -8.666905032109188, 40.568418205456069 ], [ -8.666953375596316, 40.56842419568968 ], [ -8.667002858571795, 40.568424232668981 ], [ -8.667153483584359, 40.568417325534242 ], [ -8.667472555655225, 40.568373696505198 ], [ -8.667519048487542, 40.568354570413845 ], [ -8.667808105415617, 40.568248320812934 ], [ -8.66808348901222, 40.568145460348006 ], [ -8.668329152620565, 40.56800303007018 ], [ -8.668541679542102, 40.567837157296992 ], [ -8.668747289200702, 40.567647902549439 ], [ -8.668828625446872, 40.567585569269063 ], [ -8.668877447153772, 40.56756229031518 ], [ -8.668905130577484, 40.567554327355289 ], [ -8.669227401612268, 40.567526891699316 ], [ -8.669527899690582, 40.567522699741751 ], [ -8.669857832787958, 40.567507655797357 ], [ -8.670161224515953, 40.567423479415929 ], [ -8.670204381973285, 40.567415534260178 ], [ -8.671596834535489, 40.566106889041613 ], [ -8.672990965510674, 40.565438841067511 ], [ -8.674142955772977, 40.564588119551786 ], [ -8.67654037270365, 40.562685836286121 ], [ -8.676858031094545, 40.56244200923345 ], [ -8.67693388803837, 40.56249234817129 ], [ -8.67824629133955, 40.563359912200809 ], [ -8.679670476610784, 40.564087620156144 ], [ -8.680509949590663, 40.564512279371826 ], [ -8.680995201571072, 40.565024888614268 ], [ -8.681317135542706, 40.565462893319143 ], [ -8.681370816816083, 40.56568812736603 ], [ -8.681444604302685, 40.566219620073724 ], [ -8.681442948948062, 40.566824863580003 ], [ -8.681307001639968, 40.567816349993315 ], [ -8.680585015579197, 40.56856666723219 ], [ -8.679885585732046, 40.569651331562952 ], [ -8.679505137887528, 40.570669005185621 ], [ -8.679492092171296, 40.570980287213821 ], [ -8.67953752254558, 40.572249256812498 ], [ -8.679678832338995, 40.573386293310648 ], [ -8.680057447741833, 40.574065195643186 ], [ -8.681167449524116, 40.575378626664651 ], [ -8.681996729611756, 40.576630354109021 ], [ -8.683481907203658, 40.578057869021265 ], [ -8.684976564171015, 40.577891683289927 ], [ -8.685128896739762, 40.577874926131798 ], [ -8.685390089294986, 40.577825587947252 ], [ -8.685687341897838, 40.577823261396539 ], [ -8.685984264782363, 40.577824355845856 ], [ -8.686316210280905, 40.577834018691355 ], [ -8.686636588328984, 40.577842925540445 ], [ -8.686975671382998, 40.577858493940589 ], [ -8.687052271918285, 40.577866498805584 ], [ -8.687356140553092, 40.577921948015941 ], [ -8.687606576114183, 40.577928578016895 ], [ -8.687935962540658, 40.577927891573992 ], [ -8.688236406596397, 40.577926982170226 ], [ -8.688534854614979, 40.577926352639722 ], [ -8.688651551306499, 40.577941821696307 ], [ -8.688724832756373, 40.577963170955762 ], [ -8.688765017988841, 40.577980715268517 ], [ -8.689082546319042, 40.578016912185525 ], [ -8.689333539948102, 40.578019846312394 ], [ -8.689673101793323, 40.578007215413237 ], [ -8.689704605886153, 40.578003731686728 ], [ -8.689995577394381, 40.577970537272797 ], [ -8.690309388602676, 40.577957224472414 ], [ -8.690626129626562, 40.577927236103363 ], [ -8.690954314195425, 40.577909976329899 ], [ -8.691256038553551, 40.577906531424986 ], [ -8.691553541567821, 40.577905899561614 ], [ -8.691627993219539, 40.577897435810605 ], [ -8.691701982566643, 40.577876275071816 ], [ -8.691820261363056, 40.577854270618509 ], [ -8.69198743623247, 40.577847244729888 ], [ -8.692343040346811, 40.577846417974712 ], [ -8.692388902069483, 40.577850427501041 ], [ -8.692418642062707, 40.577862616172851 ], [ -8.692448194565056, 40.577879944128924 ], [ -8.69247601242393, 40.577901421081592 ], [ -8.692675261577977, 40.578100545087956 ], [ -8.692702011894298, 40.57812130943951 ], [ -8.692730578178898, 40.578133508218428 ], [ -8.692762013909039, 40.578136147545429 ], [ -8.692804058998345, 40.578135943839669 ], [ -8.692842141219966, 40.578128462383233 ], [ -8.692870275770275, 40.578117341476592 ], [ -8.692903271179487, 40.578108444712839 ], [ -8.692975127129792, 40.578099722515532 ], [ -8.693668261096917, 40.578097970328848 ], [ -8.693708221019405, 40.578088501026443 ], [ -8.693725307775743, 40.578069593572998 ], [ -8.694385119762574, 40.578037112660354 ], [ -8.701709860010713, 40.577985506593755 ], [ -8.70695561044451, 40.577880240638606 ], [ -8.710811579376552, 40.577906796633513 ], [ -8.712985511668826, 40.577933600195166 ], [ -8.715107980970936, 40.577963239049247 ], [ -8.71785018080176, 40.577996895090756 ], [ -8.720284760996218, 40.577994863005756 ], [ -8.721413238837775, 40.578008013471539 ], [ -8.722382199794092, 40.57803844990498 ], [ -8.724224025482702, 40.578064848997336 ], [ -8.725789660058686, 40.578070313054063 ], [ -8.726780519139675, 40.57807961626483 ], [ -8.727052432242166, 40.578085644217644 ], [ -8.726988735034954, 40.584891422134312 ], [ -8.723804948581302, 40.597814434452303 ], [ -8.72345950601115, 40.599279013542755 ], [ -8.722129049146208, 40.599284460581366 ], [ -8.712657406944782, 40.599242143242463 ], [ -8.712621275441279, 40.601922025857512 ], [ -8.712615681959409, 40.608133789440245 ], [ -8.712564852166537, 40.612053503673629 ], [ -8.71247158674041, 40.620224922119277 ], [ -8.712468532287465, 40.620223884738763 ], [ -8.708424219289446, 40.62022417189759 ], [ -8.708438578623465, 40.621962667883857 ], [ -8.690201987156337, 40.621735293137519 ], [ -8.685676952114679, 40.62167699852008 ], [ -8.684032326413888, 40.62226294652281 ], [ -8.683582493172713, 40.622431496988987 ], [ -8.683330367174733, 40.623703200725004 ], [ -8.683135078348059, 40.624429935189177 ], [ -8.683143048217325, 40.624568157051762 ], [ -8.683177563878736, 40.625155356870813 ], [ -8.683273513410693, 40.625699430042509 ], [ -8.683461635561388, 40.626298532938897 ], [ -8.683816351941102, 40.627149700539455 ], [ -8.684448495840504, 40.628346860768097 ], [ -8.68493445404776, 40.629572903785302 ], [ -8.685104860785875, 40.630256108063712 ], [ -8.685181417782614, 40.630994850588522 ], [ -8.684169696736873, 40.63078593551807 ], [ -8.682727749059175, 40.630490620319378 ], [ -8.681479799507555, 40.630098639502663 ], [ -8.68091647954685, 40.629911133188571 ], [ -8.680092591227581, 40.629990425895677 ], [ -8.679575927204796, 40.630246461430872 ], [ -8.67887964235263, 40.63043544931601 ], [ -8.678580263621448, 40.630466497007149 ], [ -8.678071897868232, 40.630335451500933 ], [ -8.677858793878046, 40.630205614758609 ], [ -8.677681929278755, 40.630026080200381 ], [ -8.677586979420784, 40.629846969656107 ], [ -8.676369852115466, 40.62935942180161 ], [ -8.674283596663514, 40.628556814193992 ], [ -8.673588843496663, 40.62837970887567 ], [ -8.672594080490271, 40.628299728732721 ], [ -8.671839380297159, 40.628207001052935 ], [ -8.669109493909268, 40.626027646816446 ], [ -8.666836047749515, 40.624212437702639 ], [ -8.665972809117804, 40.623632819870018 ], [ -8.665784911369794, 40.623412795366058 ], [ -8.665637453033591, 40.623105864338406 ], [ -8.665303544480158, 40.622744683523308 ], [ -8.665063703269636, 40.6225012135653 ], [ -8.664658234030224, 40.622250678230721 ], [ -8.663629791674259, 40.622009762313873 ], [ -8.663601025565949, 40.622003142375689 ], [ -8.662801571172196, 40.621636174365896 ], [ -8.662269291681817, 40.621070765531094 ], [ -8.661931423811886, 40.620205127762524 ], [ -8.661824027145199, 40.619700798547953 ], [ -8.661737498526689, 40.61921996812584 ], [ -8.661752704136475, 40.61890165660995 ], [ -8.661698947210976, 40.618649131939584 ], [ -8.661628501622209, 40.618422976011303 ], [ -8.661565022081447, 40.618196702607307 ], [ -8.661475622677582, 40.617965229285424 ], [ -8.661347596899589, 40.617750237328202 ], [ -8.661246021152058, 40.617517743380908 ], [ -8.66123781461274, 40.617481218994463 ], [ -8.661234907811545, 40.617217742642104 ], [ -8.661223186250353, 40.617185199305041 ], [ -8.661188643224991, 40.617165909674981 ], [ -8.661158008778662, 40.617162446771673 ], [ -8.661127522060363, 40.617162587056342 ], [ -8.66109681765569, 40.617165247976445 ], [ -8.661012890223672, 40.617222454287187 ], [ -8.660954040829521, 40.617266941379498 ], [ -8.660924008903645, 40.617295444035406 ], [ -8.660885935701785, 40.617322363399154 ], [ -8.660847119190811, 40.617344782658236 ], [ -8.660812610502241, 40.617359890730455 ], [ -8.660780953544466, 40.617361655401361 ], [ -8.660739588898814, 40.61736076376107 ], [ -8.660645192962098, 40.617259621084912 ], [ -8.660625799347109, 40.617227923195884 ], [ -8.660605534508175, 40.617205502813007 ], [ -8.660539718905961, 40.617176266416557 ], [ -8.660500960644367, 40.617161765872169 ], [ -8.660365455821498, 40.617046762599934 ], [ -8.660341482096902, 40.61701868854194 ], [ -8.660321399704451, 40.616990142854668 ], [ -8.660302202801107, 40.616968256051962 ], [ -8.660235464325757, 40.616897334227154 ], [ -8.660106407217526, 40.616760868894623 ], [ -8.659917126008924, 40.616554614250227 ], [ -8.659725619986332, 40.616381068131609 ], [ -8.659545638116628, 40.616200613518771 ], [ -8.659517121043285, 40.616150675609745 ], [ -8.65940168939483, 40.616018379797381 ], [ -8.659228586231457, 40.615825023129275 ], [ -8.659028225019558, 40.615622425833863 ], [ -8.658835070328715, 40.615434200963797 ], [ -8.658644516627453, 40.61524569197114 ], [ -8.65846302948424, 40.615052734280262 ], [ -8.658287534878077, 40.614870372458306 ], [ -8.658093533799438, 40.614678999252511 ], [ -8.657922240365036, 40.614490674344459 ], [ -8.657887196283573, 40.614451751094059 ], [ -8.657867668732756, 40.614433020792411 ], [ -8.657671541267757, 40.614241113508079 ], [ -8.657566434207526, 40.61411353895808 ], [ -8.657523569477217, 40.614057456612741 ], [ -8.657301408107077, 40.613875843645516 ], [ -8.657276517281273, 40.613850922206524 ], [ -8.657097550556612, 40.613722606280959 ], [ -8.656852594368488, 40.613587741796444 ], [ -8.656608121864274, 40.613392994631027 ], [ -8.65654421765519, 40.613320432334838 ], [ -8.656492979640294, 40.613236470576275 ], [ -8.656333225513356, 40.613086362989165 ], [ -8.656092877293078, 40.612920318060766 ], [ -8.655904651648591, 40.612740530729049 ], [ -8.655883608510948, 40.612723698934168 ], [ -8.655808720787004, 40.612681895414227 ], [ -8.655780504526751, 40.612670767528357 ], [ -8.655662978435874, 40.612661664677269 ], [ -8.65562479590508, 40.612659316873156 ], [ -8.655591587816099, 40.612659196948776 ], [ -8.655571026384854, 40.612659289962522 ], [ -8.655310352119839, 40.612659124383157 ], [ -8.655268032275769, 40.612656432258312 ], [ -8.655223541074143, 40.612648799783905 ], [ -8.65513111559348, 40.612616259490814 ], [ -8.655084637402199, 40.612595939533797 ], [ -8.654849883821029, 40.612449863625599 ], [ -8.6547409065262, 40.612370123268043 ], [ -8.654678340108168, 40.61230205737273 ], [ -8.654559945176315, 40.612075751349579 ], [ -8.654538624886079, 40.611947799268854 ], [ -8.654537062041106, 40.611687467299866 ], [ -8.654553254611031, 40.611430481632432 ], [ -8.654559337229758, 40.611406858780875 ], [ -8.654562666748555, 40.611349659913181 ], [ -8.654566535944094, 40.611300475025502 ], [ -8.654567907154075, 40.611066606832281 ], [ -8.654565291021587, 40.610594935930187 ], [ -8.654562165018179, 40.61010372243036 ], [ -8.654561286324919, 40.610066535869038 ], [ -8.654555918972779, 40.610029997234449 ], [ -8.654483927154468, 40.60988930278176 ], [ -8.654344762910844, 40.609681196022862 ], [ -8.654168082237543, 40.609495143657 ], [ -8.653945645181304, 40.60932054844308 ], [ -8.653920195840657, 40.609299862114732 ], [ -8.653739837942757, 40.609111842716402 ], [ -8.653531205034406, 40.608918903926508 ], [ -8.653358581880932, 40.608722385086054 ], [ -8.653188322999828, 40.608510633858337 ], [ -8.653014175585705, 40.608300429855966 ], [ -8.652988011304611, 40.608278578562299 ], [ -8.652886185533937, 40.608220772357896 ], [ -8.652630072128286, 40.60809081535799 ], [ -8.652390209281043, 40.607953130311365 ], [ -8.652134755768571, 40.60778633619784 ], [ -8.651909116834133, 40.60762409569908 ], [ -8.651721283403214, 40.607445647658054 ], [ -8.651491219632355, 40.607277030709362 ], [ -8.65124319667175, 40.607138026395546 ], [ -8.650992320405757, 40.606996156277773 ], [ -8.650763245091294, 40.606847248500557 ], [ -8.650499421460239, 40.606696701190465 ], [ -8.65046975245858, 40.606679997077933 ], [ -8.650451387620157, 40.606658104861665 ], [ -8.650449544916752, 40.60663335063056 ], [ -8.650418132196874, 40.606574688305379 ], [ -8.650243475003958, 40.606388076828011 ], [ -8.650026881664509, 40.606233169153391 ], [ -8.64976697078197, 40.606098899339131 ], [ -8.649484051932461, 40.605969600009253 ], [ -8.649223579077599, 40.605853698473496 ], [ -8.648960006421586, 40.605735295039501 ], [ -8.648669821324841, 40.605612235237423 ], [ -8.648385623892755, 40.605484372533688 ], [ -8.648135276581064, 40.605348708276296 ], [ -8.648079385007637, 40.605317437494371 ], [ -8.648045428395497, 40.605311375301063 ], [ -8.648043351221363, 40.605286893126099 ], [ -8.648019813783716, 40.605268717508714 ], [ -8.647858017898519, 40.60517092542996 ], [ -8.647625502920619, 40.60501779965017 ], [ -8.647354906281551, 40.604891226383153 ], [ -8.647187162975236, 40.604803724860339 ], [ -8.646934707733537, 40.604654285802482 ], [ -8.646688730535429, 40.604517788471242 ], [ -8.646317270060749, 40.604257123525329 ], [ -8.646117602372462, 40.604073142790128 ], [ -8.646011922691157, 40.603942495512541 ], [ -8.645872204945306, 40.603718264118875 ], [ -8.64585025092607, 40.603690533709589 ], [ -8.645703709324607, 40.603578354388688 ], [ -8.645675900794211, 40.603556775264835 ], [ -8.645655079048547, 40.603538049496073 ], [ -8.645636918530839, 40.603511651190367 ], [ -8.645580618054407, 40.603442113398309 ], [ -8.645409348209521, 40.603247553967577 ], [ -8.645190234938582, 40.603054113222349 ], [ -8.644961982664222, 40.602885112147533 ], [ -8.644724081952855, 40.602722727150201 ], [ -8.644709971096718, 40.602715402685405 ], [ -8.644561946299383, 40.602640147088216 ], [ -8.64430651338407, 40.602501075877939 ], [ -8.644071686406821, 40.602337773596041 ], [ -8.644046599554981, 40.602317083454238 ], [ -8.644012117513098, 40.602273110488483 ], [ -8.643998111091628, 40.602249220402868 ], [ -8.643983323674883, 40.602123214765477 ], [ -8.643960247414503, 40.602025343819619 ], [ -8.643932738902013, 40.601950362985043 ], [ -8.64386952605202, 40.601779275306576 ], [ -8.643815682223895, 40.601551323324301 ], [ -8.643738366450586, 40.601313572053151 ], [ -8.643625828918845, 40.601104162693559 ], [ -8.64359297023479, 40.601009755970139 ], [ -8.643569866559764, 40.600784370438816 ], [ -8.64356603354814, 40.600761335853477 ], [ -8.64355173497016, 40.600714662026832 ], [ -8.643510442087695, 40.60064478400367 ], [ -8.643328693739177, 40.600438201599822 ], [ -8.643308082155187, 40.600415513977254 ], [ -8.64322928407176, 40.60035426640281 ], [ -8.642899571815045, 40.600155901065385 ], [ -8.642655470310528, 40.599999124103903 ], [ -8.642391111434947, 40.599849460002432 ], [ -8.642156191857705, 40.599672105112909 ], [ -8.641963024925239, 40.599501232360709 ], [ -8.641757821768664, 40.59931591479878 ], [ -8.641632172552269, 40.599105212167956 ], [ -8.641621958243851, 40.598927044959026 ], [ -8.641601124000534, 40.598689133510284 ], [ -8.641484516231539, 40.598470731958997 ], [ -8.641465331715398, 40.598449118342081 ], [ -8.641414455129203, 40.598408548646645 ], [ -8.641384898377504, 40.598390126180441 ], [ -8.641352880755964, 40.598374511552976 ], [ -8.64132029594407, 40.598361688325582 ], [ -8.641015396318558, 40.598317464886001 ], [ -8.640980855808225, 40.598312218140634 ], [ -8.640947486520627, 40.598304531226688 ], [ -8.640823615392652, 40.598249875643148 ], [ -8.640571953455241, 40.598091144492621 ], [ -8.640378890980248, 40.597901535032086 ], [ -8.640247766942439, 40.597700038390457 ], [ -8.640148793324691, 40.597485436562579 ], [ -8.640023236084559, 40.597270765802314 ], [ -8.640002834382368, 40.597228350736749 ], [ -8.639970472219149, 40.596995712526237 ], [ -8.639981799649981, 40.596932083319615 ], [ -8.639995598908014, 40.596897442749054 ], [ -8.639601098055325, 40.596440191112507 ], [ -8.639265013815454, 40.596145310871385 ], [ -8.638985760694268, 40.595913848512019 ], [ -8.638597189071724, 40.595489255409909 ], [ -8.637981318581891, 40.594561274342908 ], [ -8.63746758792781, 40.59406455490516 ], [ -8.637279429205032, 40.593864205180189 ], [ -8.637250964253258, 40.593833443325117 ], [ -8.637228057493978, 40.593803466774141 ], [ -8.637213069151983, 40.593774266130588 ], [ -8.637090331491571, 40.593774803520439 ], [ -8.636828695902866, 40.593778289739795 ], [ -8.636782271708601, 40.593778583134004 ], [ -8.636734658603288, 40.593777709213988 ], [ -8.636687450982786, 40.593767740938098 ], [ -8.636592875207105, 40.593727184880144 ], [ -8.636369160193645, 40.593558414143899 ], [ -8.636161758771408, 40.593375078922612 ], [ -8.635938383647785, 40.593218734860962 ], [ -8.635908830678167, 40.593200310053852 ], [ -8.635829238139141, 40.59317274571039 ], [ -8.635536207074162, 40.593085411121002 ], [ -8.63525649126446, 40.592993791752086 ], [ -8.63497783207554, 40.592885234597944 ], [ -8.634715072439276, 40.592769315297247 ], [ -8.6344536207981, 40.592655368164763 ], [ -8.634199123595225, 40.592538777853619 ], [ -8.633902082966019, 40.592436511430954 ], [ -8.633601874352244, 40.592399277462057 ], [ -8.633299923314564, 40.592381498832516 ], [ -8.632994938344781, 40.592306549390841 ], [ -8.632689732114741, 40.592217017043758 ], [ -8.632384175319718, 40.592112166620815 ], [ -8.632079572515103, 40.592055590058699 ], [ -8.631812241428221, 40.591960209473683 ], [ -8.631546591390359, 40.591836098858025 ], [ -8.631511405637616, 40.591822473594199 ], [ -8.631477908623955, 40.591813072587321 ], [ -8.631355715442121, 40.591807392428095 ], [ -8.63132490112662, 40.591808965275384 ], [ -8.631294453352911, 40.591812971545615 ], [ -8.631009968562884, 40.591872735704044 ], [ -8.630996642829324, 40.591875671212392 ], [ -8.630667313578167, 40.591893126768269 ], [ -8.630631756015118, 40.591893547382249 ], [ -8.630594764211864, 40.591890920491565 ], [ -8.630289255343078, 40.591791740298369 ], [ -8.630251002964176, 40.591778399807161 ], [ -8.630212886939793, 40.591768475297776 ], [ -8.630174801260329, 40.591761530473271 ], [ -8.630061123512521, 40.591756707418959 ], [ -8.629757588002011, 40.591764231913238 ], [ -8.62945481232258, 40.591777871393603 ], [ -8.629416993822138, 40.59177605724733 ], [ -8.629150168377834, 40.591716149793776 ], [ -8.629036268414819, 40.591712408212047 ], [ -8.628732440422107, 40.591680309188447 ], [ -8.628617611647593, 40.591631545965392 ], [ -8.628349411863843, 40.591497263914107 ], [ -8.628311036713137, 40.591483379389764 ], [ -8.628272933126937, 40.591475079628445 ], [ -8.628028279600755, 40.591489728730068 ], [ -8.627997390397805, 40.591497158007627 ], [ -8.62777359910748, 40.591617705961205 ], [ -8.627744047898583, 40.591631343044995 ], [ -8.627728614897562, 40.591636718610516 ], [ -8.627708486113498, 40.59164608468366 ], [ -8.627676465619725, 40.591661437912542 ], [ -8.62743629560234, 40.591643379405696 ], [ -8.627269208506059, 40.591588356509469 ], [ -8.627051032020194, 40.591540574122853 ], [ -8.62692457670282, 40.591484833955029 ], [ -8.626799872191684, 40.59133030246376 ], [ -8.62639278740861, 40.590815694681972 ], [ -8.626243407670719, 40.590630019809979 ], [ -8.6257040551708, 40.589958116113202 ], [ -8.624400605645448, 40.588375632345311 ], [ -8.624068694222892, 40.587990730919316 ], [ -8.623579651074859, 40.587473307547015 ], [ -8.623363015221983, 40.587294940252448 ], [ -8.623167136866993, 40.587193925867439 ], [ -8.622917109072564, 40.587101878545703 ], [ -8.622636402027062, 40.586981770722701 ], [ -8.622435035596196, 40.586888885755087 ], [ -8.622307447793052, 40.58682107915547 ], [ -8.622203511465539, 40.58672552531096 ], [ -8.622138973062036, 40.586622784105707 ], [ -8.622104862410943, 40.586513513138868 ], [ -8.622091632086631, 40.586431985343374 ], [ -8.622087306371967, 40.586406340543554 ], [ -8.622011108017142, 40.586388649907192 ], [ -8.621731171420436, 40.586308526137891 ], [ -8.621465428989969, 40.586295333407136 ], [ -8.621072621953335, 40.586335544815242 ], [ -8.620621859318938, 40.586397965062446 ], [ -8.619979137110665, 40.586571155686521 ], [ -8.619502586819896, 40.586758404525803 ], [ -8.619273391452323, 40.586898954980811 ], [ -8.619175694804943, 40.586962132588013 ], [ -8.61922529861519, 40.587091325430769 ], [ -8.619176712780449, 40.587102248813558 ], [ -8.619120342085083, 40.587114553914134 ], [ -8.619013967101747, 40.587138144876064 ], [ -8.61875731553501, 40.587142021222562 ], [ -8.618667796155659, 40.587143209824767 ], [ -8.618445693758003, 40.587138560877627 ], [ -8.618443990891686, 40.587132086966911 ] ] ] } }
]
}
