{
"type": "FeatureCollection",
"name": "CAOP_Murtosa_freg",
"crs": { "type": "name", "properties": { "name": "urn:ogc:def:crs:OGC:1.3:CRS84" } },
"features": [
{ "type": "Feature", "properties": { "dtmnfr": "011201", "freguesia": "Bunheiro", "municipio": "Murtosa", "distrito_i": "Aveiro", "nuts3_cod": "191", "nuts3": "Região de Aveiro", "nuts2": "Centro", "nuts1": "Continente", "area_ha": 2479.24, "perimetro_": 25, "designacao": "Bunheiro" }, "geometry": { "type": "Polygon", "coordinates": [ [ [ -8.599495452787695, 40.777215603366926 ], [ -8.599320124673355, 40.777028381416329 ], [ -8.599142671066582, 40.776841981822244 ], [ -8.598953154753254, 40.776657608128325 ], [ -8.598753314367437, 40.776453828702522 ], [ -8.598591319743655, 40.776258901213254 ], [ -8.5984120574045, 40.776066832846197 ], [ -8.598230093898175, 40.775878467106494 ], [ -8.598042735801195, 40.775697238512535 ], [ -8.598026135081112, 40.775678486863875 ], [ -8.597846239677331, 40.775496593929546 ], [ -8.597658036535094, 40.775296457717467 ], [ -8.597460249922898, 40.775097442146844 ], [ -8.597267385978991, 40.774907408671986 ], [ -8.59707475165475, 40.774699993500036 ], [ -8.596885184107325, 40.774489684090135 ], [ -8.596704199983693, 40.774304642874149 ], [ -8.596516407098964, 40.7741112559101 ], [ -8.596337434038489, 40.773924858888265 ], [ -8.596152925737485, 40.773709484262127 ], [ -8.595965584905274, 40.773496103581465 ], [ -8.595788179365872, 40.773313573324657 ], [ -8.595604316786876, 40.773122147464655 ], [ -8.595403521542725, 40.772914132684775 ], [ -8.595227120973906, 40.772722681717703 ], [ -8.59505723849994, 40.77253174197724 ], [ -8.594871937691304, 40.772320328788759 ], [ -8.594769573809737, 40.772214034193674 ], [ -8.594583763087504, 40.772031893156154 ], [ -8.594399061488206, 40.771837680746302 ], [ -8.594231341843043, 40.771650690585467 ], [ -8.594055020923317, 40.771452479242029 ], [ -8.593881464372593, 40.771259574907404 ], [ -8.59370092131129, 40.771066964735056 ], [ -8.594088729877907, 40.77110422040851 ], [ -8.594704356153917, 40.771062037890275 ], [ -8.59535814801475, 40.771024021597889 ], [ -8.595378962280188, 40.771036270503934 ], [ -8.595383096965707, 40.771069212961635 ], [ -8.595400412905869, 40.771089406537087 ], [ -8.595553364639974, 40.771298694619887 ], [ -8.595662909504858, 40.771517159630683 ], [ -8.595756617240747, 40.771740553394579 ], [ -8.595815797963231, 40.771836755531204 ], [ -8.595887658929469, 40.771899863125434 ], [ -8.595945097624167, 40.77193222798909 ], [ -8.595977039912812, 40.77194353706188 ], [ -8.59604597607445, 40.771960995791936 ], [ -8.596084140234801, 40.77196390617349 ], [ -8.596233743877759, 40.771981941633001 ], [ -8.596269827010941, 40.771993053007229 ], [ -8.596546564881786, 40.772118276933277 ], [ -8.596836163640372, 40.772236152703186 ], [ -8.597129322901976, 40.772354551021479 ], [ -8.597411162339588, 40.772481192240079 ], [ -8.597631559375792, 40.772577375032789 ], [ -8.597822597852037, 40.772575430749221 ], [ -8.598145945892155, 40.772572502807542 ], [ -8.598473164175546, 40.77258153403298 ], [ -8.598801282231825, 40.772601007339297 ], [ -8.599093794657174, 40.772644574850453 ], [ -8.599419102818795, 40.772684948322805 ], [ -8.59974370753557, 40.772709203065027 ], [ -8.600047917304073, 40.772731018932902 ], [ -8.600375041544224, 40.772743557073539 ], [ -8.600696583696813, 40.772753777419176 ], [ -8.600949863107699, 40.772809566709689 ], [ -8.601276299387667, 40.772858847067489 ], [ -8.601568444287595, 40.772899617356934 ], [ -8.601861859305377, 40.772952181828813 ], [ -8.602157735591035, 40.773017968318406 ], [ -8.602478306913898, 40.7730244947141 ], [ -8.602784421576999, 40.772997400558531 ], [ -8.603093262133253, 40.772986865391815 ], [ -8.603126196060961, 40.772987539904605 ], [ -8.60326205219101, 40.773020753245454 ], [ -8.60356954253643, 40.773103597291851 ], [ -8.603876402335919, 40.773131067174482 ], [ -8.60418469253745, 40.77315960739319 ], [ -8.604493581186558, 40.773189322190113 ], [ -8.60480082934815, 40.773221015848584 ], [ -8.605106037192842, 40.77324957160598 ], [ -8.605468288119903, 40.772771094736349 ], [ -8.605684414900439, 40.772448555907616 ], [ -8.60595351999241, 40.772031873498918 ], [ -8.606107510766737, 40.771749839635511 ], [ -8.606346644144017, 40.771199558327744 ], [ -8.606615809931808, 40.770443486516676 ], [ -8.60764317963946, 40.768865921612324 ], [ -8.607686997569587, 40.768782176374785 ], [ -8.611586328911228, 40.766051681519265 ], [ -8.618328605726063, 40.76475859928734 ], [ -8.621345612505104, 40.764051103918284 ], [ -8.623381198359214, 40.763531682507221 ], [ -8.624724728164757, 40.762687327313046 ], [ -8.624769715706327, 40.762653093321731 ], [ -8.626345901078739, 40.761726228401756 ], [ -8.627779200392135, 40.760956909061015 ], [ -8.633069187061094, 40.760367083864381 ], [ -8.633277936083033, 40.760314936632319 ], [ -8.634649463069495, 40.759973262412984 ], [ -8.636690466743444, 40.757823165891722 ], [ -8.63688079446953, 40.757810804401608 ], [ -8.637208834380603, 40.757812431007657 ], [ -8.637526301401078, 40.757824544146693 ], [ -8.63759839364675, 40.757837195280061 ], [ -8.637898732168461, 40.757917729933681 ], [ -8.638185950161843, 40.757985445028595 ], [ -8.638497113810272, 40.758057200434429 ], [ -8.638808898798841, 40.758132098610545 ], [ -8.639113423180845, 40.758202527095989 ], [ -8.639406027765695, 40.758309027815955 ], [ -8.639671590709561, 40.758425461894582 ], [ -8.639779235889977, 40.758471452261944 ], [ -8.639811282115321, 40.758481666373648 ], [ -8.640032653661661, 40.75848582256225 ], [ -8.640093389754064, 40.758484387826435 ], [ -8.640121446872524, 40.758483453223555 ], [ -8.64021671790413, 40.758459891893096 ], [ -8.640319791983904, 40.758403785578643 ], [ -8.640520491232099, 40.758245045480486 ], [ -8.640538175992257, 40.758219571032789 ], [ -8.640771082599345, 40.758060150386306 ], [ -8.641005205681466, 40.75792098237681 ], [ -8.641259551007053, 40.757762542483171 ], [ -8.641504306784354, 40.757635393290585 ], [ -8.641529905445891, 40.757622850972986 ], [ -8.641563673273689, 40.75760973506339 ], [ -8.64159723095044, 40.757599502558286 ], [ -8.641712546963383, 40.757596471236702 ], [ -8.641731964737085, 40.757595847165682 ], [ -8.641941533342768, 40.757637062108778 ], [ -8.64204592258573, 40.757645063782086 ], [ -8.642376089053904, 40.757646123324044 ], [ -8.642407703644318, 40.757645710964496 ], [ -8.642635898985743, 40.757598598318516 ], [ -8.642933977811483, 40.757522986497584 ], [ -8.643218402508253, 40.75744265982739 ], [ -8.643271762091114, 40.757421535156283 ], [ -8.643330245979422, 40.757403534140238 ], [ -8.643309952992798, 40.757305472463202 ], [ -8.643547439570117, 40.757173575739394 ], [ -8.643836505428455, 40.757065405284401 ], [ -8.64509870735867, 40.756460160548123 ], [ -8.645566233565686, 40.756077352978018 ], [ -8.64595396756053, 40.755927315319688 ], [ -8.645934537855243, 40.755864367807959 ], [ -8.646713970816064, 40.755665572410543 ], [ -8.647181154503087, 40.755378118768071 ], [ -8.648896473574327, 40.754803402200736 ], [ -8.652256383555933, 40.754266903190292 ], [ -8.652267614086727, 40.754264603232102 ], [ -8.656418479359088, 40.753456959636203 ], [ -8.656885057002679, 40.753219989099392 ], [ -8.656946846978414, 40.753216647873813 ], [ -8.657080618633143, 40.753212345891981 ], [ -8.657704405645227, 40.753075598471263 ], [ -8.657996457831915, 40.753020778410772 ], [ -8.658291463626856, 40.752966214320153 ], [ -8.658596003204266, 40.752918358891769 ], [ -8.658895590597227, 40.752873403207992 ], [ -8.659223788972522, 40.752838677439719 ], [ -8.659525840029529, 40.75283594127999 ], [ -8.659822410123274, 40.752828912362851 ], [ -8.660138115957482, 40.752830887616483 ], [ -8.660203935102341, 40.752828603242371 ], [ -8.660235275834085, 40.752823956720185 ], [ -8.660266128700414, 40.752817062076893 ], [ -8.660292917461684, 40.752805954556024 ], [ -8.660315266459834, 40.752787300437042 ], [ -8.660496361078742, 40.752568373676191 ], [ -8.6606593827384, 40.752355201465761 ], [ -8.660810138438338, 40.752148208480364 ], [ -8.660936758785011, 40.751944119015448 ], [ -8.661074867736861, 40.7517406053976 ], [ -8.661117730458677, 40.751635500540047 ], [ -8.661120387070701, 40.751374077774841 ], [ -8.661115510639032, 40.751296659160388 ], [ -8.661107743335354, 40.751272472231165 ], [ -8.661044438228007, 40.751039535847198 ], [ -8.660945801480564, 40.750815945178203 ], [ -8.660834633622015, 40.75063888095675 ], [ -8.660829807212171, 40.750612521167064 ], [ -8.660828892928787, 40.750586591036232 ], [ -8.660827978797032, 40.750352196762911 ], [ -8.660799441654056, 40.750113700946287 ], [ -8.660755209064479, 40.749865999948774 ], [ -8.660701159699993, 40.749620864290144 ], [ -8.660600004447776, 40.749392066397661 ], [ -8.660552048738744, 40.749257749492905 ], [ -8.660534602222562, 40.749237033140894 ], [ -8.660765089387541, 40.749126205421135 ], [ -8.66092412288036, 40.74902363111039 ], [ -8.661025322729381, 40.748929512951882 ], [ -8.661050426511688, 40.748914720018746 ], [ -8.661129780815235, 40.748872662181725 ], [ -8.661413378632147, 40.74877068699459 ], [ -8.661693519017142, 40.748679893110008 ], [ -8.661717564560785, 40.748666815822752 ], [ -8.661941347511545, 40.748487130218535 ], [ -8.6620007727652, 40.748426072553073 ], [ -8.662145376899678, 40.748206767280195 ], [ -8.662260391161434, 40.74798814318671 ], [ -8.662399063953721, 40.747767965179037 ], [ -8.662559126526542, 40.747557596149811 ], [ -8.662762452643676, 40.747382235106699 ], [ -8.662977601083696, 40.747220240440001 ], [ -8.663215989045327, 40.747047238111158 ], [ -8.663443085104387, 40.746868611337845 ], [ -8.663677258393413, 40.746702385649371 ], [ -8.663934339828607, 40.746557388711864 ], [ -8.664234862387609, 40.746456320179384 ], [ -8.66426523851012, 40.746449155608957 ], [ -8.664446676809915, 40.746410316776327 ], [ -8.664486091374011, 40.746409052920498 ], [ -8.664543404186759, 40.746410227132685 ], [ -8.664791146627028, 40.746415838968709 ], [ -8.665111907730697, 40.746461358755241 ], [ -8.665436271914349, 40.746484263047307 ], [ -8.665762963555675, 40.746486172294368 ], [ -8.66605917985193, 40.74648308940958 ], [ -8.666382521885716, 40.74648159047976 ], [ -8.666621345030343, 40.746483003656962 ], [ -8.666619759703259, 40.746506423918319 ], [ -8.666782007484649, 40.746540788712863 ], [ -8.667077288874378, 40.746598582963415 ], [ -8.667369066670952, 40.74666133910732 ], [ -8.667450381385104, 40.746673027538122 ], [ -8.667650127568892, 40.746702264762241 ], [ -8.667943941277482, 40.746754030256504 ], [ -8.668086848512409, 40.746797037559787 ], [ -8.668161061549769, 40.746809302307021 ], [ -8.674689968326048, 40.74635362319632 ], [ -8.677599319287495, 40.746150246716212 ], [ -8.677626536402018, 40.746148498318597 ], [ -8.688962032419225, 40.745355516385246 ], [ -8.690092881938005, 40.752019137668348 ], [ -8.689576476201445, 40.761372986376337 ], [ -8.688457461195341, 40.769825015502221 ], [ -8.685950254923247, 40.778283707803475 ], [ -8.684289610965662, 40.781157094207586 ], [ -8.681778784183114, 40.783280642139815 ], [ -8.678673909053721, 40.785520139471238 ], [ -8.675565557293611, 40.787344716538939 ], [ -8.673153803667986, 40.789505336533061 ], [ -8.671729887832877, 40.791208876172313 ], [ -8.669914898368468, 40.793630558622013 ], [ -8.668350507158388, 40.796390794407472 ], [ -8.668054980311624, 40.797007470326719 ], [ -8.667180323447221, 40.795731502055347 ], [ -8.666186772839586, 40.794282113189098 ], [ -8.664879023789029, 40.79278670970664 ], [ -8.663496857523, 40.79200832528025 ], [ -8.661077449762313, 40.79087639019307 ], [ -8.660157561548285, 40.790831354839234 ], [ -8.657984803171981, 40.790823284709624 ], [ -8.65748206337066, 40.79074480270544 ], [ -8.6566099846599, 40.790391466584019 ], [ -8.655922488794394, 40.79011094602933 ], [ -8.655436427429976, 40.789952690578168 ], [ -8.65495124436535, 40.789905722577373 ], [ -8.654432817123432, 40.789895650868722 ], [ -8.654066256682885, 40.790032924805054 ], [ -8.653120387447327, 40.790949482180963 ], [ -8.652708234721679, 40.791666417649438 ], [ -8.652114557997924, 40.792716986803789 ], [ -8.651882175422671, 40.792940003616323 ], [ -8.651695035586041, 40.793070336256243 ], [ -8.651320309045147, 40.793256895861191 ], [ -8.651161805153471, 40.793306866222679 ], [ -8.650919276600826, 40.793277249902431 ], [ -8.650626023296146, 40.793186004087069 ], [ -8.650239852664519, 40.792953615964713 ], [ -8.649584980370911, 40.79258682195497 ], [ -8.649157202384211, 40.792397393307454 ], [ -8.648436262122905, 40.792141739487121 ], [ -8.647665474012278, 40.791904941797007 ], [ -8.647277779589242, 40.791764849886057 ], [ -8.646843442875754, 40.791797767625283 ], [ -8.646209398934506, 40.791960705918612 ], [ -8.645492302985815, 40.792185782314355 ], [ -8.644658856627425, 40.792503852322113 ], [ -8.644216762254654, 40.792653854766137 ], [ -8.644016623400084, 40.792697786348 ], [ -8.643757364207234, 40.792680391066874 ], [ -8.643531119235961, 40.792595306059766 ], [ -8.643219445981448, 40.792294403061568 ], [ -8.643093199146684, 40.792177898191497 ], [ -8.643009882947009, 40.79219069586587 ], [ -8.642868321920556, 40.792271465913629 ], [ -8.642701950300401, 40.792376930560529 ], [ -8.642509875939945, 40.792421095864128 ], [ -8.642368031822667, 40.792433790341448 ], [ -8.642208963970825, 40.7924100907587 ], [ -8.641965676304732, 40.792312382744832 ], [ -8.641718366645925, 40.792214963891468 ], [ -8.64151766638417, 40.792184875969298 ], [ -8.640847065890878, 40.792233765432073 ], [ -8.640664584778092, 40.792231149076493 ], [ -8.640500943296576, 40.792229079035387 ], [ -8.639910103236755, 40.792155684935608 ], [ -8.639324370593009, 40.792084247381851 ], [ -8.638879634945672, 40.791717367282153 ], [ -8.638734592724653, 40.791170154083773 ], [ -8.638569347614061, 40.790785655149371 ], [ -8.638515023719998, 40.790762843226162 ], [ -8.63811910474125, 40.790815186957659 ], [ -8.637928929274434, 40.790828452189437 ], [ -8.637466053067488, 40.790785458931488 ], [ -8.63675753572741, 40.790612702063484 ], [ -8.635850541581441, 40.790405597431089 ], [ -8.634433537693221, 40.790015035645041 ], [ -8.634194645718299, 40.789900632086365 ], [ -8.634111806415039, 40.78981941266882 ], [ -8.634014937954591, 40.78971546985715 ], [ -8.63353402921634, 40.789054539883125 ], [ -8.632786783033962, 40.788108318635445 ], [ -8.632658928526151, 40.787822795895565 ], [ -8.632609339467139, 40.78749856878499 ], [ -8.632577156743965, 40.787488618979829 ], [ -8.632403174283514, 40.787480640749266 ], [ -8.632376400661279, 40.787496244151527 ], [ -8.632355071705836, 40.787511467396619 ], [ -8.632324973743843, 40.787527086970584 ], [ -8.632038551837562, 40.787644041638814 ], [ -8.631771213353829, 40.78774677450776 ], [ -8.631499608096727, 40.787880777652056 ], [ -8.631268013858126, 40.787978487807607 ], [ -8.631162616258155, 40.788000288926391 ], [ -8.63086993082303, 40.78804072502718 ], [ -8.63054188057346, 40.788073664965296 ], [ -8.63021685604145, 40.788099474350169 ], [ -8.629890408874473, 40.788109615885602 ], [ -8.629089278073614, 40.787744870809618 ], [ -8.628552663906067, 40.786992762843362 ], [ -8.628202319793155, 40.786417961552225 ], [ -8.627840506737861, 40.785973785064527 ], [ -8.627254313159767, 40.785528854835214 ], [ -8.626487268037462, 40.784882630802315 ], [ -8.625849369967167, 40.784603428480885 ], [ -8.62563947083679, 40.784511756654503 ], [ -8.624479860069027, 40.783994711852898 ], [ -8.623163840232881, 40.783792495217305 ], [ -8.62312958423993, 40.783532586539039 ], [ -8.623271773979836, 40.783360616205172 ], [ -8.623583260651781, 40.783237184087241 ], [ -8.623642322465082, 40.783037113719445 ], [ -8.623521349990567, 40.78282628766835 ], [ -8.62041013133731, 40.780703393334562 ], [ -8.620371735544728, 40.78049194228938 ], [ -8.620330848449631, 40.780246732348175 ], [ -8.620341328717354, 40.780157543777783 ], [ -8.620280048426618, 40.780152761539647 ], [ -8.620219496825062, 40.780134376044586 ], [ -8.619959177194351, 40.780013375830556 ], [ -8.619648838115662, 40.779952824422949 ], [ -8.61934482141778, 40.779897562051623 ], [ -8.619115709309929, 40.779848193236091 ], [ -8.618885939473058, 40.779724267692423 ], [ -8.61886361362154, 40.779700949748602 ], [ -8.618847436207703, 40.77967571308325 ], [ -8.618840845819829, 40.779648996173371 ], [ -8.61884099772621, 40.779621713288982 ], [ -8.618847594065967, 40.779389541951957 ], [ -8.618840409555656, 40.77931410995194 ], [ -8.618827703482969, 40.779293633086048 ], [ -8.618809552289877, 40.779273718532444 ], [ -8.618718842568731, 40.779164694847914 ], [ -8.618695241126108, 40.77911274474679 ], [ -8.618690057546148, 40.779083501424822 ], [ -8.618690419532154, 40.779052523830067 ], [ -8.618684653421363, 40.778992574333408 ], [ -8.618671655839472, 40.778965073926727 ], [ -8.618651803932311, 40.778938685652136 ], [ -8.618489200009455, 40.778766030123542 ], [ -8.618460163851914, 40.778748410728554 ], [ -8.618428554465821, 40.77873449597228 ], [ -8.618395191694576, 40.778724462503604 ], [ -8.618262684333406, 40.778681979679625 ], [ -8.618234446149659, 40.778660214602773 ], [ -8.618208553575286, 40.778634389239123 ], [ -8.61818608566926, 40.778606930386715 ], [ -8.618099343706181, 40.778440707284844 ], [ -8.618078309786746, 40.778415761964439 ], [ -8.618051637719187, 40.778396426995265 ], [ -8.618021432873046, 40.778380794385747 ], [ -8.617768082175058, 40.77823922503768 ], [ -8.617732692780033, 40.778227217901417 ], [ -8.617462492942286, 40.778113279140364 ], [ -8.617365521269482, 40.778070911767756 ], [ -8.617300767439476, 40.778045073671045 ], [ -8.616998140202686, 40.777968092855538 ], [ -8.616729612803411, 40.777920777380693 ], [ -8.616409272206916, 40.777932841620348 ], [ -8.616235066052852, 40.778150586432581 ], [ -8.616218173483791, 40.7781734423423 ], [ -8.616185347555584, 40.778253455341058 ], [ -8.616141507047669, 40.778496497459422 ], [ -8.616134847800412, 40.778525523025479 ], [ -8.616052146966611, 40.778751528326254 ], [ -8.616045565350747, 40.779002609843801 ], [ -8.616075044654009, 40.779098659168206 ], [ -8.616083750621401, 40.779122574055386 ], [ -8.616088321546824, 40.779278697779475 ], [ -8.616087561753957, 40.779320667553399 ], [ -8.614263841198262, 40.77902269187495 ], [ -8.61354143626283, 40.778772228989972 ], [ -8.612920552816027, 40.778323948598477 ], [ -8.611861206924724, 40.778015446629887 ], [ -8.611059966787678, 40.778049490085131 ], [ -8.61000582389662, 40.778068184417805 ], [ -8.608980364796377, 40.777576359984472 ], [ -8.608836375183298, 40.777650436661304 ], [ -8.608568519357613, 40.777779232396192 ], [ -8.608319383161648, 40.777908941865846 ], [ -8.60811335940088, 40.777987952943775 ], [ -8.608078264659692, 40.778000254961746 ], [ -8.608040291879218, 40.77800797449477 ], [ -8.607859328820807, 40.778012954141843 ], [ -8.607797083650672, 40.77800618635078 ], [ -8.607763974273396, 40.777997859700037 ], [ -8.607731199678051, 40.777986471785063 ], [ -8.607613889799509, 40.77791491560793 ], [ -8.607391392412156, 40.777760772449149 ], [ -8.607361513667096, 40.777740632333789 ], [ -8.607258691416188, 40.777623996962852 ], [ -8.607171626808501, 40.777458032548218 ], [ -8.607092113724475, 40.777221984925418 ], [ -8.607063789440188, 40.776987165100543 ], [ -8.607002150005698, 40.776749604095393 ], [ -8.606988453109462, 40.776506260420042 ], [ -8.606990214857801, 40.776288424582951 ], [ -8.606841087574802, 40.776273012577128 ], [ -8.606515411603841, 40.776266520169564 ], [ -8.606318267652005, 40.776262199535239 ], [ -8.606040962513607, 40.77617842333526 ], [ -8.605972311914087, 40.77615277133053 ], [ -8.605662763951393, 40.776065977305088 ], [ -8.605360543483219, 40.775992930020578 ], [ -8.605046055539807, 40.775926955065927 ], [ -8.604725021327534, 40.775874064972115 ], [ -8.604423127839755, 40.775846849043674 ], [ -8.604121301614285, 40.775846732422188 ], [ -8.603799484407785, 40.775849404337713 ], [ -8.60349067455927, 40.775866155593171 ], [ -8.603191151419963, 40.775939870374579 ], [ -8.602902496195776, 40.776042714345266 ], [ -8.602612688529081, 40.776150246652591 ], [ -8.602319188965041, 40.776255271858986 ], [ -8.602028383361208, 40.776356591544705 ], [ -8.601736515447827, 40.776457734712167 ], [ -8.601447511269452, 40.776562468395596 ], [ -8.60116819057618, 40.776662385858231 ], [ -8.600880274413196, 40.77675360809662 ], [ -8.600585054515498, 40.776851073513164 ], [ -8.600303451757366, 40.776947038653262 ], [ -8.60003142933887, 40.777041525353141 ], [ -8.599775444721692, 40.77715962594791 ], [ -8.599588372297935, 40.777306715286187 ], [ -8.599495452787695, 40.777215603366926 ] ] ] } },
{ "type": "Feature", "properties": { "dtmnfr": "011202", "freguesia": "Monte", "municipio": "Murtosa", "distrito_i": "Aveiro", "nuts3_cod": "191", "nuts3": "Região de Aveiro", "nuts2": "Centro", "nuts1": "Continente", "area_ha": 228.57, "perimetro_": 7, "designacao": "Monte" }, "geometry": { "type": "Polygon", "coordinates": [ [ [ -8.652256383555933, 40.754266903190292 ], [ -8.648896473574327, 40.754803402200736 ], [ -8.647181154503087, 40.755378118768071 ], [ -8.646713970816064, 40.755665572410543 ], [ -8.645934537855243, 40.755864367807959 ], [ -8.64595396756053, 40.755927315319688 ], [ -8.645566233565686, 40.756077352978018 ], [ -8.64509870735867, 40.756460160548123 ], [ -8.643836505428455, 40.757065405284401 ], [ -8.643547439570117, 40.757173575739394 ], [ -8.643309952992798, 40.757305472463202 ], [ -8.643330245979422, 40.757403534140238 ], [ -8.643271762091114, 40.757421535156283 ], [ -8.643218402508253, 40.75744265982739 ], [ -8.642933977811483, 40.757522986497584 ], [ -8.642635898985743, 40.757598598318516 ], [ -8.642407703644318, 40.757645710964496 ], [ -8.642376089053904, 40.757646123324044 ], [ -8.64204592258573, 40.757645063782086 ], [ -8.641941533342768, 40.757637062108778 ], [ -8.641731964737085, 40.757595847165682 ], [ -8.641712546963383, 40.757596471236702 ], [ -8.64159723095044, 40.757599502558286 ], [ -8.641563673273689, 40.75760973506339 ], [ -8.641529905445891, 40.757622850972986 ], [ -8.641504306784354, 40.757635393290585 ], [ -8.641259551007053, 40.757762542483171 ], [ -8.641005205681466, 40.75792098237681 ], [ -8.640771082599345, 40.758060150386306 ], [ -8.640538175992257, 40.758219571032789 ], [ -8.640520491232099, 40.758245045480486 ], [ -8.640319791983904, 40.758403785578643 ], [ -8.64021671790413, 40.758459891893096 ], [ -8.640121446872524, 40.758483453223555 ], [ -8.640093389754064, 40.758484387826435 ], [ -8.640032653661661, 40.75848582256225 ], [ -8.639811282115321, 40.758481666373648 ], [ -8.639779235889977, 40.758471452261944 ], [ -8.639671590709561, 40.758425461894582 ], [ -8.639406027765695, 40.758309027815955 ], [ -8.639113423180845, 40.758202527095989 ], [ -8.638808898798841, 40.758132098610545 ], [ -8.638497113810272, 40.758057200434429 ], [ -8.638185950161843, 40.757985445028595 ], [ -8.637898732168461, 40.757917729933681 ], [ -8.63759839364675, 40.757837195280061 ], [ -8.637526301401078, 40.757824544146693 ], [ -8.637208834380603, 40.757812431007657 ], [ -8.63688079446953, 40.757810804401608 ], [ -8.636690466743444, 40.757823165891722 ], [ -8.634649463069495, 40.759973262412984 ], [ -8.633277936083033, 40.760314936632319 ], [ -8.633069187061094, 40.760367083864381 ], [ -8.627779200392135, 40.760956909061015 ], [ -8.628896354596678, 40.760357236755844 ], [ -8.629609666109813, 40.759139941198484 ], [ -8.629862302174677, 40.758336878351933 ], [ -8.630051536429477, 40.758034667542589 ], [ -8.630095984037402, 40.757961000142352 ], [ -8.629992380553164, 40.757820793199492 ], [ -8.629914403166486, 40.757686326375548 ], [ -8.629901307541621, 40.757661615492445 ], [ -8.629884333673905, 40.757640258541365 ], [ -8.629843521829082, 40.757598292771476 ], [ -8.629763643773943, 40.757542356414774 ], [ -8.629522247005877, 40.757377081383154 ], [ -8.629385078080247, 40.757165429671588 ], [ -8.629343278308573, 40.757070789819544 ], [ -8.629332347099314, 40.757049492349843 ], [ -8.629162329561414, 40.756800433584218 ], [ -8.629093927168652, 40.756631885348888 ], [ -8.629093875457174, 40.756608834657783 ], [ -8.629097571012407, 40.756580901578523 ], [ -8.629108271577156, 40.756475588431513 ], [ -8.629156642033559, 40.756260705731499 ], [ -8.628855240957211, 40.755717478504295 ], [ -8.628618274951458, 40.755302929459049 ], [ -8.628587399674599, 40.755227332929479 ], [ -8.628705800051582, 40.75514577443694 ], [ -8.628734662498085, 40.755126201561438 ], [ -8.628967689013463, 40.754948523122003 ], [ -8.629068523445643, 40.754846243648267 ], [ -8.629078529039127, 40.754822243830446 ], [ -8.629082965996513, 40.754798001395521 ], [ -8.629104702149018, 40.754647977943726 ], [ -8.6290959093471, 40.754468997833605 ], [ -8.629050705657018, 40.754283154811148 ], [ -8.629042273558401, 40.754231413366469 ], [ -8.629023804063015, 40.754200335532317 ], [ -8.629007626322192, 40.75409567814016 ], [ -8.628993024488395, 40.753995606507701 ], [ -8.628989069131233, 40.753941862926943 ], [ -8.628975550233189, 40.753843140083703 ], [ -8.628976735042791, 40.753605587458786 ], [ -8.628980928279312, 40.753580263672333 ], [ -8.62899187548186, 40.753555993264243 ], [ -8.62903045081417, 40.753488293831545 ], [ -8.62916342983298, 40.753266288300537 ], [ -8.629299881713917, 40.753065074566791 ], [ -8.629446138029474, 40.752860747806587 ], [ -8.629528081249081, 40.752671025310647 ], [ -8.629510955299095, 40.752597347345684 ], [ -8.629488790053191, 40.752435986216874 ], [ -8.629392619632387, 40.752194619867737 ], [ -8.62928290409851, 40.751963849280131 ], [ -8.629259233419644, 40.751918297624194 ], [ -8.629170622310809, 40.751674468126758 ], [ -8.62908130589911, 40.751431723978897 ], [ -8.629004943999394, 40.751195943468275 ], [ -8.628997938012034, 40.751145634859633 ], [ -8.629010470095944, 40.750968006504714 ], [ -8.629029273242839, 40.75094928721353 ], [ -8.629043694218842, 40.750929324251949 ], [ -8.629076932895215, 40.750861371254146 ], [ -8.62907746181579, 40.750837416646888 ], [ -8.629322581131303, 40.750759276845464 ], [ -8.629353958622227, 40.75075941298622 ], [ -8.629613489869374, 40.750771797952027 ], [ -8.62962895498474, 40.750734002374578 ], [ -8.629712607664093, 40.750693929622145 ], [ -8.629774606048951, 40.750671778047256 ], [ -8.629800191592606, 40.750657532831205 ], [ -8.630017129442756, 40.750516478000812 ], [ -8.630032003487724, 40.750494440018741 ], [ -8.630157267406455, 40.750271031966712 ], [ -8.630237727682282, 40.750104990260041 ], [ -8.630278505433395, 40.750095273837225 ], [ -8.630278039553904, 40.750079781881631 ], [ -8.630274367195579, 40.750047921885155 ], [ -8.630283968330648, 40.750002044295442 ], [ -8.630307716834363, 40.749931345675762 ], [ -8.630346148965272, 40.749687510835699 ], [ -8.630331783313489, 40.749571588620185 ], [ -8.630299507746628, 40.749562720884789 ], [ -8.630132659376731, 40.749513108902683 ], [ -8.630198439972789, 40.748982973615313 ], [ -8.630232350731971, 40.748467031390788 ], [ -8.63017381778497, 40.747907001777094 ], [ -8.630134644471587, 40.7477195075964 ], [ -8.630074514255648, 40.747499960357509 ], [ -8.630003716407135, 40.747231288207871 ], [ -8.632449685774969, 40.745874733816969 ], [ -8.632455699675212, 40.745871285904926 ], [ -8.635060520024515, 40.744852387837433 ], [ -8.635334478352464, 40.744756099838959 ], [ -8.635589587039194, 40.744578220752771 ], [ -8.635760191176775, 40.744561177066615 ], [ -8.635849459063131, 40.744498023527612 ], [ -8.635939874811687, 40.74447709919388 ], [ -8.636076695538973, 40.744392302835649 ], [ -8.63621509649662, 40.744344422562847 ], [ -8.636420858615455, 40.744343249911594 ], [ -8.636417539444651, 40.74424817265335 ], [ -8.637095651143984, 40.743895186245226 ], [ -8.637624443424276, 40.743634244737173 ], [ -8.637642808463244, 40.743620028433305 ], [ -8.641259598031985, 40.743264437678249 ], [ -8.643154169371277, 40.74389656582634 ], [ -8.646139726688306, 40.74797168090425 ], [ -8.646189830316017, 40.748203869412102 ], [ -8.646250476429488, 40.748437187066365 ], [ -8.646341008543459, 40.748676310565948 ], [ -8.64642497824433, 40.748894217733195 ], [ -8.646509706558987, 40.749133094942032 ], [ -8.646587341849486, 40.749373537181874 ], [ -8.646667036903199, 40.749619374978664 ], [ -8.646743682196794, 40.749838573361373 ], [ -8.646841171797686, 40.750059026047943 ], [ -8.646956438353648, 40.750280481895352 ], [ -8.647069226358875, 40.750502577202546 ], [ -8.647191646840547, 40.750715627214348 ], [ -8.647321874488179, 40.75092692685655 ], [ -8.647459614181612, 40.751129824545281 ], [ -8.647618185967923, 40.751346581496477 ], [ -8.647774912467915, 40.751554702577614 ], [ -8.64783896540348, 40.75161492942847 ], [ -8.647976010303415, 40.751743176567487 ], [ -8.648154480290533, 40.751929769186738 ], [ -8.64834772455322, 40.752128180325457 ], [ -8.648564304303862, 40.752311535963678 ], [ -8.648787650840907, 40.752497116697931 ], [ -8.648810324779411, 40.752535286503395 ], [ -8.648838180776311, 40.752554791061669 ], [ -8.648846757850174, 40.752560967063161 ], [ -8.648868572256855, 40.752579688164246 ], [ -8.648883291150854, 40.752599614318228 ], [ -8.648953089729178, 40.752652251586539 ], [ -8.649181566116569, 40.752812139953775 ], [ -8.649431559029441, 40.752967523674165 ], [ -8.649661537433497, 40.753122906378039 ], [ -8.649905816081846, 40.753274076896723 ], [ -8.650173699547455, 40.753415154633551 ], [ -8.650436093649205, 40.75355048326486 ], [ -8.650703892745513, 40.75368039398036 ], [ -8.650991328618614, 40.753808317709719 ], [ -8.65127061510718, 40.753922680708577 ], [ -8.651568475822657, 40.754034711049336 ], [ -8.652119834271298, 40.754219344373958 ], [ -8.652256383555933, 40.754266903190292 ] ] ] } },
{ "type": "Feature", "properties": { "dtmnfr": "011203", "freguesia": "Murtosa", "municipio": "Murtosa", "distrito_i": "Aveiro", "nuts3_cod": "191", "nuts3": "Região de Aveiro", "nuts2": "Centro", "nuts1": "Continente", "area_ha": 1454.93, "perimetro_": 19, "designacao": "Murtosa" }, "geometry": { "type": "Polygon", "coordinates": [ [ [ -8.630132659376731, 40.749513108902683 ], [ -8.630007579912906, 40.749475914821154 ], [ -8.629704957053461, 40.749416171668926 ], [ -8.629423860191592, 40.749289067071722 ], [ -8.629223555050023, 40.749120187127161 ], [ -8.629054925445493, 40.748911372318467 ], [ -8.628866885463777, 40.748718849593558 ], [ -8.628682450732342, 40.748533963505302 ], [ -8.628495087515519, 40.748336932962168 ], [ -8.628487234690606, 40.748331652829286 ], [ -8.628262157032918, 40.74817441108231 ], [ -8.628021913235187, 40.748030824241134 ], [ -8.627800560388245, 40.747880136544417 ], [ -8.627585545968703, 40.747722305526494 ], [ -8.627393139743381, 40.747547536166621 ], [ -8.627350855271747, 40.747513677518604 ], [ -8.627354914715541, 40.747501593460356 ], [ -8.627226651941974, 40.747306832709192 ], [ -8.627082663349784, 40.747097814889749 ], [ -8.626913885348316, 40.746883501756535 ], [ -8.626750522957764, 40.746664215165467 ], [ -8.626598116030042, 40.74646955874632 ], [ -8.626448861552401, 40.746252907479281 ], [ -8.626332778174158, 40.746038459158711 ], [ -8.62624088611666, 40.745813732623702 ], [ -8.626229103797151, 40.745773799935066 ], [ -8.626115746046255, 40.745542950659427 ], [ -8.625955458357719, 40.745339675920945 ], [ -8.625692343746659, 40.745047607646569 ], [ -8.625455311071617, 40.744839618710294 ], [ -8.62526661823366, 40.744652405677776 ], [ -8.625094661431215, 40.744438732778924 ], [ -8.624818811060345, 40.744025152122518 ], [ -8.624590088965864, 40.743675750356218 ], [ -8.624388114174913, 40.743372698202968 ], [ -8.624259285766424, 40.743209990554512 ], [ -8.623949877338374, 40.742900371734464 ], [ -8.623484315914244, 40.742462020212002 ], [ -8.623446360488236, 40.742485232437375 ], [ -8.622933952012282, 40.742469135247518 ], [ -8.621767962572987, 40.742496609056971 ], [ -8.620859897415398, 40.742451208038887 ], [ -8.620601339922159, 40.742421600575611 ], [ -8.620530574387173, 40.742377775891448 ], [ -8.620455016050986, 40.741970897377215 ], [ -8.62029900100595, 40.741683398107028 ], [ -8.62012144140459, 40.741477309998785 ], [ -8.619779407517509, 40.741251382951326 ], [ -8.619510810006767, 40.741126451593921 ], [ -8.619215317263901, 40.741112484343191 ], [ -8.619019688688876, 40.741122947936439 ], [ -8.618907750465826, 40.741147281464421 ], [ -8.61877474058123, 40.741172611254576 ], [ -8.618624909867709, 40.741147394586037 ], [ -8.618354190680316, 40.740942597869214 ], [ -8.61803925830446, 40.740745816116501 ], [ -8.617734742811731, 40.740647237840655 ], [ -8.617638967717236, 40.740582624786107 ], [ -8.617600274492128, 40.740536595195877 ], [ -8.617610454064579, 40.740324665857017 ], [ -8.617617733832066, 40.739732025606969 ], [ -8.617633631626939, 40.739443260522172 ], [ -8.617754778318458, 40.739221231706296 ], [ -8.618033006421108, 40.738865532812866 ], [ -8.618234863312082, 40.738508988103362 ], [ -8.618477973814706, 40.738338583843976 ], [ -8.618689859525071, 40.738432776395392 ], [ -8.61883279866522, 40.738503404484455 ], [ -8.618948175845377, 40.738512999983946 ], [ -8.61908122665888, 40.7385104605641 ], [ -8.619240879230718, 40.73843828317424 ], [ -8.619449099928765, 40.738208678182517 ], [ -8.619782290133976, 40.737810515393448 ], [ -8.619815506333273, 40.737609924983339 ], [ -8.619751769221137, 40.737053060782259 ], [ -8.619666339416797, 40.736881342612222 ], [ -8.619241827080645, 40.736623613559971 ], [ -8.618540433681002, 40.736352827938532 ], [ -8.618000032246893, 40.736388519684276 ], [ -8.617856572050458, 40.736375347321783 ], [ -8.61776092663167, 40.736327932417481 ], [ -8.617586361472174, 40.736204848315339 ], [ -8.617254873952579, 40.735828582095095 ], [ -8.617172563092398, 40.735596240785512 ], [ -8.617275592917419, 40.735210580975071 ], [ -8.617419712568886, 40.734712990257094 ], [ -8.615478407922318, 40.731125224267366 ], [ -8.614959177498692, 40.730808806560368 ], [ -8.616146289684025, 40.729724140508772 ], [ -8.617210609778583, 40.729420071422496 ], [ -8.619703185290557, 40.728759847556631 ], [ -8.62098075121237, 40.728420081601342 ], [ -8.621568892267442, 40.728188231177711 ], [ -8.622419591434747, 40.727831168765022 ], [ -8.623182732322659, 40.727512566660771 ], [ -8.623958351423637, 40.727184450277825 ], [ -8.624459868362903, 40.726975648770043 ], [ -8.625493765939993, 40.7265857231449 ], [ -8.626514760555954, 40.726102105708193 ], [ -8.627129526968657, 40.725779885556079 ], [ -8.628494946336343, 40.72515375202731 ], [ -8.628777844280496, 40.725011605477768 ], [ -8.629429352883818, 40.72465166164762 ], [ -8.62961376678488, 40.724556855295127 ], [ -8.629822846655523, 40.724452576390576 ], [ -8.63044880107053, 40.724221866887468 ], [ -8.631016758601913, 40.724007612301079 ], [ -8.631384067970172, 40.72386995882156 ], [ -8.631781157537777, 40.723741086886953 ], [ -8.632367648564003, 40.723552860130056 ], [ -8.632433273938849, 40.723528532872876 ], [ -8.632888405802252, 40.723360146861737 ], [ -8.633226644748683, 40.723260071548538 ], [ -8.636567960364792, 40.722007316933876 ], [ -8.637559952191221, 40.722089598118231 ], [ -8.638820982091442, 40.722655058802466 ], [ -8.639970549782866, 40.723253325821389 ], [ -8.642351777562011, 40.724884760937073 ], [ -8.644271900875982, 40.726121085309188 ], [ -8.645610846270364, 40.726688916796434 ], [ -8.646569277264824, 40.72704456868653 ], [ -8.648005666177053, 40.727427070433265 ], [ -8.6487053780517, 40.727553602062656 ], [ -8.649458404922427, 40.727534469094927 ], [ -8.651362317710813, 40.727210190341879 ], [ -8.65360338995824, 40.726969907020674 ], [ -8.657492448618754, 40.726081289115868 ], [ -8.665113923204636, 40.724544813373349 ], [ -8.67448511052655, 40.722206909805827 ], [ -8.680257867988399, 40.721002746006086 ], [ -8.683854791753287, 40.720252226410942 ], [ -8.688962032419225, 40.745355516385246 ], [ -8.677626536402018, 40.746148498318597 ], [ -8.677599319287495, 40.746150246716212 ], [ -8.674689968326048, 40.74635362319632 ], [ -8.668161061549769, 40.746809302307021 ], [ -8.668086848512409, 40.746797037559787 ], [ -8.667943941277482, 40.746754030256504 ], [ -8.667650127568892, 40.746702264762241 ], [ -8.667450381385104, 40.746673027538122 ], [ -8.667369066670952, 40.74666133910732 ], [ -8.667077288874378, 40.746598582963415 ], [ -8.666782007484649, 40.746540788712863 ], [ -8.666619759703259, 40.746506423918319 ], [ -8.666621345030343, 40.746483003656962 ], [ -8.666382521885716, 40.74648159047976 ], [ -8.66605917985193, 40.74648308940958 ], [ -8.665762963555675, 40.746486172294368 ], [ -8.665436271914349, 40.746484263047307 ], [ -8.665111907730697, 40.746461358755241 ], [ -8.664791146627028, 40.746415838968709 ], [ -8.664543404186759, 40.746410227132685 ], [ -8.664486091374011, 40.746409052920498 ], [ -8.664446676809915, 40.746410316776327 ], [ -8.66426523851012, 40.746449155608957 ], [ -8.664234862387609, 40.746456320179384 ], [ -8.663934339828607, 40.746557388711864 ], [ -8.663677258393413, 40.746702385649371 ], [ -8.663443085104387, 40.746868611337845 ], [ -8.663215989045327, 40.747047238111158 ], [ -8.662977601083696, 40.747220240440001 ], [ -8.662762452643676, 40.747382235106699 ], [ -8.662559126526542, 40.747557596149811 ], [ -8.662399063953721, 40.747767965179037 ], [ -8.662260391161434, 40.74798814318671 ], [ -8.662145376899678, 40.748206767280195 ], [ -8.6620007727652, 40.748426072553073 ], [ -8.661941347511545, 40.748487130218535 ], [ -8.661717564560785, 40.748666815822752 ], [ -8.661693519017142, 40.748679893110008 ], [ -8.661413378632147, 40.74877068699459 ], [ -8.661129780815235, 40.748872662181725 ], [ -8.661050426511688, 40.748914720018746 ], [ -8.661025322729381, 40.748929512951882 ], [ -8.66092412288036, 40.74902363111039 ], [ -8.660765089387541, 40.749126205421135 ], [ -8.660534602222562, 40.749237033140894 ], [ -8.660552048738744, 40.749257749492905 ], [ -8.660600004447776, 40.749392066397661 ], [ -8.660701159699993, 40.749620864290144 ], [ -8.660755209064479, 40.749865999948774 ], [ -8.660799441654056, 40.750113700946287 ], [ -8.660827978797032, 40.750352196762911 ], [ -8.660828892928787, 40.750586591036232 ], [ -8.660829807212171, 40.750612521167064 ], [ -8.660834633622015, 40.75063888095675 ], [ -8.660945801480564, 40.750815945178203 ], [ -8.661044438228007, 40.751039535847198 ], [ -8.661107743335354, 40.751272472231165 ], [ -8.661115510639032, 40.751296659160388 ], [ -8.661120387070701, 40.751374077774841 ], [ -8.661117730458677, 40.751635500540047 ], [ -8.661074867736861, 40.7517406053976 ], [ -8.660936758785011, 40.751944119015448 ], [ -8.660810138438338, 40.752148208480364 ], [ -8.6606593827384, 40.752355201465761 ], [ -8.660496361078742, 40.752568373676191 ], [ -8.660315266459834, 40.752787300437042 ], [ -8.660292917461684, 40.752805954556024 ], [ -8.660266128700414, 40.752817062076893 ], [ -8.660235275834085, 40.752823956720185 ], [ -8.660203935102341, 40.752828603242371 ], [ -8.660138115957482, 40.752830887616483 ], [ -8.659822410123274, 40.752828912362851 ], [ -8.659525840029529, 40.75283594127999 ], [ -8.659223788972522, 40.752838677439719 ], [ -8.658895590597227, 40.752873403207992 ], [ -8.658596003204266, 40.752918358891769 ], [ -8.658291463626856, 40.752966214320153 ], [ -8.657996457831915, 40.753020778410772 ], [ -8.657704405645227, 40.753075598471263 ], [ -8.657080618633143, 40.753212345891981 ], [ -8.656946846978414, 40.753216647873813 ], [ -8.656885057002679, 40.753219989099392 ], [ -8.656418479359088, 40.753456959636203 ], [ -8.652267614086727, 40.754264603232102 ], [ -8.652256383555933, 40.754266903190292 ], [ -8.652119834271298, 40.754219344373958 ], [ -8.651568475822657, 40.754034711049336 ], [ -8.65127061510718, 40.753922680708577 ], [ -8.650991328618614, 40.753808317709719 ], [ -8.650703892745513, 40.75368039398036 ], [ -8.650436093649205, 40.75355048326486 ], [ -8.650173699547455, 40.753415154633551 ], [ -8.649905816081846, 40.753274076896723 ], [ -8.649661537433497, 40.753122906378039 ], [ -8.649431559029441, 40.752967523674165 ], [ -8.649181566116569, 40.752812139953775 ], [ -8.648953089729178, 40.752652251586539 ], [ -8.648883291150854, 40.752599614318228 ], [ -8.648868572256855, 40.752579688164246 ], [ -8.648846757850174, 40.752560967063161 ], [ -8.648838180776311, 40.752554791061669 ], [ -8.648810324779411, 40.752535286503395 ], [ -8.648787650840907, 40.752497116697931 ], [ -8.648564304303862, 40.752311535963678 ], [ -8.64834772455322, 40.752128180325457 ], [ -8.648154480290533, 40.751929769186738 ], [ -8.647976010303415, 40.751743176567487 ], [ -8.64783896540348, 40.75161492942847 ], [ -8.647774912467915, 40.751554702577614 ], [ -8.647618185967923, 40.751346581496477 ], [ -8.647459614181612, 40.751129824545281 ], [ -8.647321874488179, 40.75092692685655 ], [ -8.647191646840547, 40.750715627214348 ], [ -8.647069226358875, 40.750502577202546 ], [ -8.646956438353648, 40.750280481895352 ], [ -8.646841171797686, 40.750059026047943 ], [ -8.646743682196794, 40.749838573361373 ], [ -8.646667036903199, 40.749619374978664 ], [ -8.646587341849486, 40.749373537181874 ], [ -8.646509706558987, 40.749133094942032 ], [ -8.64642497824433, 40.748894217733195 ], [ -8.646341008543459, 40.748676310565948 ], [ -8.646250476429488, 40.748437187066365 ], [ -8.646189830316017, 40.748203869412102 ], [ -8.646139726688306, 40.74797168090425 ], [ -8.643154169371277, 40.74389656582634 ], [ -8.641259598031985, 40.743264437678249 ], [ -8.637642808463244, 40.743620028433305 ], [ -8.637624443424276, 40.743634244737173 ], [ -8.637095651143984, 40.743895186245226 ], [ -8.636417539444651, 40.74424817265335 ], [ -8.636420858615455, 40.744343249911594 ], [ -8.63621509649662, 40.744344422562847 ], [ -8.636076695538973, 40.744392302835649 ], [ -8.635939874811687, 40.74447709919388 ], [ -8.635849459063131, 40.744498023527612 ], [ -8.635760191176775, 40.744561177066615 ], [ -8.635589587039194, 40.744578220752771 ], [ -8.635334478352464, 40.744756099838959 ], [ -8.635060520024515, 40.744852387837433 ], [ -8.632455699675212, 40.745871285904926 ], [ -8.632449685774969, 40.745874733816969 ], [ -8.630003716407135, 40.747231288207871 ], [ -8.630074514255648, 40.747499960357509 ], [ -8.630134644471587, 40.7477195075964 ], [ -8.63017381778497, 40.747907001777094 ], [ -8.630232350731971, 40.748467031390788 ], [ -8.630198439972789, 40.748982973615313 ], [ -8.630132659376731, 40.749513108902683 ] ] ] } },
{ "type": "Feature", "properties": { "dtmnfr": "011204", "freguesia": "Torreira", "municipio": "Murtosa", "distrito_i": "Aveiro", "nuts3_cod": "191", "nuts3": "Região de Aveiro", "nuts2": "Centro", "nuts1": "Continente", "area_ha": 3146.04, "perimetro_": 33, "designacao": "Torreira" }, "geometry": { "type": "Polygon", "coordinates": [ [ [ -8.683854791753287, 40.720252226410942 ], [ -8.69791901594518, 40.717316969552144 ], [ -8.704931414858304, 40.713130530343129 ], [ -8.706415427364824, 40.711631749489008 ], [ -8.714427553230241, 40.702087132825739 ], [ -8.714919761951478, 40.702221069544457 ], [ -8.716808324127008, 40.702735229896049 ], [ -8.717352191258446, 40.702861961128946 ], [ -8.718169170460884, 40.703058714062536 ], [ -8.719435301430659, 40.703307195696674 ], [ -8.719722631854429, 40.703351928183992 ], [ -8.720132388353724, 40.70339170966146 ], [ -8.720787980643527, 40.703546853581166 ], [ -8.721601240484794, 40.703816084370921 ], [ -8.722460162394041, 40.704042487024708 ], [ -8.723578385649642, 40.704273942718373 ], [ -8.724605130206452, 40.704450210655246 ], [ -8.725053516743912, 40.704548040116123 ], [ -8.725524412239315, 40.704702662281825 ], [ -8.726219116201232, 40.704942758487945 ], [ -8.727487123448876, 40.705261563053099 ], [ -8.728922932331324, 40.705593715641321 ], [ -8.732651344761354, 40.706341478803878 ], [ -8.733387145902499, 40.706514679321799 ], [ -8.734851809081354, 40.706786184258711 ], [ -8.73439817109656, 40.707761355742342 ], [ -8.734271120202129, 40.708316900355641 ], [ -8.734148183096535, 40.70860659976244 ], [ -8.733986892934794, 40.709210231643013 ], [ -8.733588025918216, 40.70963509174797 ], [ -8.733440287771925, 40.709839105157492 ], [ -8.733293405708009, 40.710125778159181 ], [ -8.732937682448673, 40.71109791019606 ], [ -8.732283815335403, 40.712303468868853 ], [ -8.731329178294619, 40.715152726246409 ], [ -8.731165284548426, 40.71548396560997 ], [ -8.730968907347924, 40.716060220900687 ], [ -8.730506035965483, 40.717193730662025 ], [ -8.730469151793107, 40.717580591932986 ], [ -8.730415392213573, 40.717670021466652 ], [ -8.730376543595966, 40.71768012528544 ], [ -8.730276146652377, 40.717874252297371 ], [ -8.730149357402713, 40.718213133379578 ], [ -8.729799631257315, 40.718861050665652 ], [ -8.729660651176101, 40.719227547682472 ], [ -8.729640973426196, 40.719673394249185 ], [ -8.728787301193844, 40.721819267316064 ], [ -8.728563191772661, 40.722951082966119 ], [ -8.728112623950985, 40.72425263812552 ], [ -8.727863438413443, 40.72480565652728 ], [ -8.727848945963578, 40.725051382019053 ], [ -8.727687664565394, 40.725547487514966 ], [ -8.727244949295436, 40.7265254543994 ], [ -8.726803492550427, 40.727208408599488 ], [ -8.726512917592311, 40.727914002041985 ], [ -8.726443612691899, 40.728186483679536 ], [ -8.725914528232586, 40.72918668289207 ], [ -8.725287245918341, 40.730926681867274 ], [ -8.725223951858576, 40.731250374671276 ], [ -8.72492391372305, 40.731667580806146 ], [ -8.724690705707307, 40.732133075945669 ], [ -8.724555921269726, 40.732617688145758 ], [ -8.724148659569863, 40.733679562476816 ], [ -8.724071374962493, 40.734147942530605 ], [ -8.723732605736515, 40.734699518787821 ], [ -8.723057278496176, 40.736319540792998 ], [ -8.722623244047359, 40.737624680321538 ], [ -8.72221837106313, 40.738468437975406 ], [ -8.721792988018958, 40.739497169901419 ], [ -8.721719766391271, 40.739718433504017 ], [ -8.721716483750566, 40.740030198767478 ], [ -8.721659474948499, 40.740264074839338 ], [ -8.721414988226991, 40.740784994544576 ], [ -8.721212205104958, 40.741497687155231 ], [ -8.720893143600275, 40.741967572655014 ], [ -8.720727865336659, 40.742463954051104 ], [ -8.720318127624763, 40.743419120638578 ], [ -8.720250049040096, 40.743835129025605 ], [ -8.720250648637986, 40.744359842622174 ], [ -8.720342135212826, 40.744650952544802 ], [ -8.720265402906731, 40.745119598376917 ], [ -8.720145058294197, 40.745341639002092 ], [ -8.719983895385289, 40.745795493811691 ], [ -8.719787994382106, 40.746150836864246 ], [ -8.719378670726782, 40.747399463745545 ], [ -8.719334584767052, 40.747650204781067 ], [ -8.718849260762765, 40.748969547826832 ], [ -8.718840811166075, 40.74970456276376 ], [ -8.718785465168995, 40.749914476335711 ], [ -8.717525184861767, 40.752360391916177 ], [ -8.717372467664415, 40.752944137691898 ], [ -8.717159044438915, 40.753410954066617 ], [ -8.717041576725329, 40.754193801384844 ], [ -8.716737204069009, 40.754727801000421 ], [ -8.716458554160683, 40.755415290589013 ], [ -8.716091360805711, 40.756038400114505 ], [ -8.716066837713887, 40.756280842635199 ], [ -8.716257038783072, 40.75674245597795 ], [ -8.716391941383252, 40.756960954661949 ], [ -8.716705182813833, 40.757206187682094 ], [ -8.716719933519329, 40.757280941491473 ], [ -8.716661816901713, 40.757473669259127 ], [ -8.715923117073526, 40.758799234305684 ], [ -8.715306683489585, 40.760377839648157 ], [ -8.715095701668666, 40.760816451194813 ], [ -8.714484717288183, 40.761898413502784 ], [ -8.714092689790235, 40.762776381874325 ], [ -8.713496591607562, 40.763885274011287 ], [ -8.713093592169388, 40.764824617520325 ], [ -8.712796365480354, 40.765821690154013 ], [ -8.712585183494413, 40.766282270702106 ], [ -8.712422841314721, 40.766748815474024 ], [ -8.712394719312098, 40.767231797495043 ], [ -8.712503875064979, 40.767471860388333 ], [ -8.712719142011929, 40.767723176829115 ], [ -8.712753211396102, 40.767814222958719 ], [ -8.71275404900125, 40.768059872355494 ], [ -8.712654624505067, 40.768542313751666 ], [ -8.712467345705672, 40.768988453303834 ], [ -8.712166182239201, 40.769426974038154 ], [ -8.711800696594926, 40.770151722074822 ], [ -8.71089169561983, 40.772433965560012 ], [ -8.710470281915272, 40.773350521973953 ], [ -8.710263475396177, 40.774033674821268 ], [ -8.710039975810373, 40.774457751761567 ], [ -8.70800775640191, 40.779544568269863 ], [ -8.707870626320789, 40.780057449029286 ], [ -8.707741276154556, 40.781373787389413 ], [ -8.707482753368767, 40.782342823153293 ], [ -8.707319518100261, 40.783344337531503 ], [ -8.707074850206714, 40.784301151911762 ], [ -8.706978798695983, 40.785031199906093 ], [ -8.70676143055489, 40.785775178155887 ], [ -8.706651847322945, 40.786008229499558 ], [ -8.705923092055885, 40.787900615095104 ], [ -8.70582258186383, 40.788115521587031 ], [ -8.705412491442873, 40.789362113552073 ], [ -8.704316689721129, 40.791869722314843 ], [ -8.704124906934416, 40.792577458527944 ], [ -8.703782284161335, 40.793518810585176 ], [ -8.703735706655852, 40.793765500346254 ], [ -8.703727173097757, 40.794261885001887 ], [ -8.703460382646789, 40.79521888592393 ], [ -8.703010578657816, 40.796362114358494 ], [ -8.702141515118411, 40.798181688812413 ], [ -8.701795363992749, 40.799118820163706 ], [ -8.701404393153242, 40.799942709566153 ], [ -8.701320308462138, 40.800267203119276 ], [ -8.700595827710064, 40.801849137069993 ], [ -8.699887334164528, 40.804142541318278 ], [ -8.699786957952645, 40.804614169508497 ], [ -8.699134561586865, 40.805736762521995 ], [ -8.699064573609808, 40.806215440284703 ], [ -8.698553642134693, 40.80747663933986 ], [ -8.698397179500308, 40.807932419502613 ], [ -8.698355419013698, 40.808246619466132 ], [ -8.698015712632369, 40.808979117610733 ], [ -8.697905378358215, 40.809564606908268 ], [ -8.697639914756612, 40.810359500676498 ], [ -8.697427129273212, 40.810813307270941 ], [ -8.697199189074716, 40.81149319888641 ], [ -8.696773425307073, 40.812366050232498 ], [ -8.696792798865443, 40.812833390021154 ], [ -8.696727259780843, 40.813015247366543 ], [ -8.696617824206067, 40.813694745042064 ], [ -8.696025802657168, 40.815998896743658 ], [ -8.695980973257223, 40.816239354309353 ], [ -8.695976697860514, 40.816238637669301 ], [ -8.692833322602226, 40.815711518677851 ], [ -8.691228555335806, 40.815442376156234 ], [ -8.691188205474697, 40.815436267934558 ], [ -8.691146787433144, 40.815429985668437 ], [ -8.690982658798124, 40.815405028188501 ], [ -8.690822189650941, 40.815392300298122 ], [ -8.690656389444021, 40.815365999704341 ], [ -8.690589160821961, 40.815351009994345 ], [ -8.6904267340411, 40.81531479552595 ], [ -8.690243076698575, 40.81527894629172 ], [ -8.690174613701085, 40.815283709062896 ], [ -8.690123438214286, 40.815287269929819 ], [ -8.689988432444036, 40.815272435072529 ], [ -8.689974357498503, 40.8152698744872 ], [ -8.689822601676928, 40.815242262235998 ], [ -8.689736953063127, 40.815229220411609 ], [ -8.68960079829332, 40.815208487055607 ], [ -8.689401917246979, 40.815180454089642 ], [ -8.689215749609309, 40.815156141545458 ], [ -8.688958357258382, 40.815118665469505 ], [ -8.688550436383313, 40.815066427925821 ], [ -8.688183382645246, 40.815025608607208 ], [ -8.687929599250246, 40.814998800742885 ], [ -8.687902945658676, 40.814995985221806 ], [ -8.687709580130845, 40.814972840369158 ], [ -8.687591984823989, 40.814958764569866 ], [ -8.687250317340792, 40.814906203099483 ], [ -8.686791306793511, 40.814838717232028 ], [ -8.686357961723807, 40.814778850651493 ], [ -8.685832883310281, 40.814719422837868 ], [ -8.685782277676433, 40.81471450367097 ], [ -8.685491260443998, 40.814686216395998 ], [ -8.685414886413152, 40.814682713533735 ], [ -8.685338427018435, 40.81467920652706 ], [ -8.685220148817093, 40.814657693558281 ], [ -8.68502730739484, 40.814622619256774 ], [ -8.684726284744498, 40.814554367497664 ], [ -8.684481558272125, 40.814528527189417 ], [ -8.684247055922938, 40.81450641866553 ], [ -8.684043066416674, 40.814476419782935 ], [ -8.683757527624376, 40.814431323205142 ], [ -8.683695184237031, 40.814422016140718 ], [ -8.683405673120461, 40.814378798952745 ], [ -8.682752873025077, 40.814281247993975 ], [ -8.681761769924494, 40.814135463339838 ], [ -8.681707540299039, 40.814127487156725 ], [ -8.680631667586489, 40.81397773296014 ], [ -8.680557226279413, 40.81396742173532 ], [ -8.680102854271919, 40.813904481497602 ], [ -8.680091184274506, 40.813902864619948 ], [ -8.680009105170537, 40.813892943141596 ], [ -8.679413158870583, 40.813820902697508 ], [ -8.679339691392345, 40.813811362294729 ], [ -8.677888653551177, 40.813622918071964 ], [ -8.677340177759215, 40.813544358258525 ], [ -8.676501753400654, 40.813424262580043 ], [ -8.675604498766848, 40.813316210397097 ], [ -8.674691815032428, 40.813190754208776 ], [ -8.674647919624276, 40.813199966015681 ], [ -8.674605442008572, 40.813208629959192 ], [ -8.674575180581696, 40.813247492916865 ], [ -8.674540454784102, 40.813363817788201 ], [ -8.674496950067271, 40.813638937871652 ], [ -8.674463423908692, 40.813902304778388 ], [ -8.674419862969112, 40.814185169258231 ], [ -8.674353727905888, 40.814490381630215 ], [ -8.674340491278558, 40.814612320096394 ], [ -8.673541272445631, 40.814201278861667 ], [ -8.672923458466837, 40.813900450396048 ], [ -8.672908042470585, 40.813891709457259 ], [ -8.672883450955124, 40.813877767007803 ], [ -8.672674964832563, 40.814080992433347 ], [ -8.672597981188876, 40.814180864322068 ], [ -8.672564129879925, 40.814224778155832 ], [ -8.672513748190109, 40.814296512360059 ], [ -8.672448465927223, 40.814401363160634 ], [ -8.672370554258348, 40.814527525340019 ], [ -8.672138596482231, 40.814934998016824 ], [ -8.6718122076788, 40.815507429155282 ], [ -8.671491826638594, 40.816075959196738 ], [ -8.671170396952714, 40.816632877817355 ], [ -8.671049943356456, 40.816848294660872 ], [ -8.670769512805149, 40.817331540348817 ], [ -8.670480810083589, 40.817847602451252 ], [ -8.670257950181474, 40.818239629561234 ], [ -8.670049548568157, 40.818602414080658 ], [ -8.669798525416033, 40.819044909399942 ], [ -8.669737991658568, 40.81912263277561 ], [ -8.669727729759209, 40.81912344411765 ], [ -8.669556518455089, 40.819136986696705 ], [ -8.666213079062135, 40.819633483214602 ], [ -8.665855230857076, 40.81921993281167 ], [ -8.66569916226068, 40.818648853625596 ], [ -8.665881100425729, 40.818057569259352 ], [ -8.666357272305609, 40.816853496503917 ], [ -8.666832021377916, 40.815400806462677 ], [ -8.667068371993262, 40.814665821550939 ], [ -8.667744715561296, 40.813657207592854 ], [ -8.668621340593518, 40.812590024439174 ], [ -8.669190611776695, 40.811624581723763 ], [ -8.66948653511294, 40.810625836526754 ], [ -8.669638050281199, 40.80982595482751 ], [ -8.669850500219567, 40.807885698050981 ], [ -8.670185289575308, 40.804984867588246 ], [ -8.670692462450738, 40.802815227253035 ], [ -8.670793096726422, 40.80213039507197 ], [ -8.67079926235308, 40.802116588863022 ], [ -8.670783039543632, 40.801079134785972 ], [ -8.670612814592468, 40.800368643385859 ], [ -8.669701160204999, 40.799408847305443 ], [ -8.668054980311624, 40.797007470326719 ], [ -8.668350507158388, 40.796390794407472 ], [ -8.669914898368468, 40.793630558622013 ], [ -8.671729887832877, 40.791208876172313 ], [ -8.673153803667986, 40.789505336533061 ], [ -8.675565557293611, 40.787344716538939 ], [ -8.678673909053721, 40.785520139471238 ], [ -8.681778784183114, 40.783280642139815 ], [ -8.684289610965662, 40.781157094207586 ], [ -8.685950254923247, 40.778283707803475 ], [ -8.688457461195341, 40.769825015502221 ], [ -8.689576476201445, 40.761372986376337 ], [ -8.690092881938005, 40.752019137668348 ], [ -8.688962032419225, 40.745355516385246 ], [ -8.683854791753287, 40.720252226410942 ] ] ] } }
]
}
