{
"type": "FeatureCollection",
"name": "CAOP_Vendas Novas_freg",
"crs": { "type": "name", "properties": { "name": "urn:ogc:def:crs:OGC:1.3:CRS84" } },
"features": [
{ "type": "Feature", "properties": { "dtmnfr": "071201", "freguesia": "Vendas Novas", "municipio": "Vendas Novas", "distrito_i": "Évora", "nuts3_cod": "1C4", "nuts3": "Alentejo Central", "nuts2": "Alentejo", "nuts1": "Continente", "area_ha": 15771.81, "perimetro_": 66, "designacao": "Vendas Novas" }, "geometry": { "type": "Polygon", "coordinates": [ [ [ -8.566213719249035, 38.678179938748322 ], [ -8.565653636315876, 38.677917991213519 ], [ -8.565440776194722, 38.677836177610558 ], [ -8.56518088935284, 38.677750661131313 ], [ -8.564807985360583, 38.677636735961073 ], [ -8.564410385235808, 38.677505519359258 ], [ -8.564081159070081, 38.677449623723994 ], [ -8.563816618736411, 38.67744942805642 ], [ -8.563425461450047, 38.677452946971876 ], [ -8.562186715369096, 38.677463184956153 ], [ -8.561569098601522, 38.677473203412276 ], [ -8.560878564603534, 38.677492767368562 ], [ -8.560422944609718, 38.677497770441185 ], [ -8.560010493384814, 38.677475496805478 ], [ -8.55961074621877, 38.677445614808981 ], [ -8.559457371896313, 38.677433294991687 ], [ -8.558828974242703, 38.677581970815616 ], [ -8.558586189000806, 38.677627088139886 ], [ -8.558469201647574, 38.677664985963034 ], [ -8.558309165548756, 38.677750608862368 ], [ -8.557754151757466, 38.678163762977114 ], [ -8.557421979384134, 38.678405941386863 ], [ -8.556683114955078, 38.678960285091833 ], [ -8.5564856960386, 38.679098375776988 ], [ -8.55599696047863, 38.679452367065956 ], [ -8.555454334588614, 38.679866186964155 ], [ -8.55528661405136, 38.679993808941461 ], [ -8.554702173531021, 38.680412915435404 ], [ -8.554294299899999, 38.680722647169048 ], [ -8.554039141263582, 38.680912558567186 ], [ -8.553328552690088, 38.681438405174106 ], [ -8.552902506041834, 38.681766665912484 ], [ -8.552549505249395, 38.682029351953538 ], [ -8.552326855419018, 38.682198962849192 ], [ -8.551552250087838, 38.68253207531523 ], [ -8.550219846361919, 38.683110308918643 ], [ -8.54916292667339, 38.683555932570421 ], [ -8.548802096796086, 38.683720357573321 ], [ -8.548091853154473, 38.684019074574536 ], [ -8.547128154590084, 38.684431019606023 ], [ -8.546779557304303, 38.684448023792896 ], [ -8.546011565393675, 38.684500921472505 ], [ -8.544979897077107, 38.684568167009928 ], [ -8.544531163125029, 38.684599208655477 ], [ -8.54379773843735, 38.684807903747242 ], [ -8.542584873241275, 38.685145290237259 ], [ -8.540870456835471, 38.685627829713297 ], [ -8.540711278822121, 38.685680894230394 ], [ -8.540509198302935, 38.686724106005975 ], [ -8.540354518650764, 38.687565122027429 ], [ -8.540145135061518, 38.688762672984851 ], [ -8.537288971998894, 38.689756123132526 ], [ -8.533658669953605, 38.691025380236432 ], [ -8.532554231415469, 38.691398139270639 ], [ -8.531214543155446, 38.691860969936471 ], [ -8.529663720233426, 38.694196746092118 ], [ -8.527986898179938, 38.696879654718664 ], [ -8.52683868699099, 38.698595086424895 ], [ -8.526035395272439, 38.699827676640211 ], [ -8.524842584800952, 38.701623043074186 ], [ -8.523620763475611, 38.70350587749698 ], [ -8.523079515832631, 38.70432472611899 ], [ -8.522359750681272, 38.705401802692982 ], [ -8.522004651557276, 38.705913568659746 ], [ -8.521399348261721, 38.706819549206571 ], [ -8.520130634170103, 38.708822400114592 ], [ -8.5200431271867, 38.708946912213278 ], [ -8.519930245509066, 38.709013228114479 ], [ -8.519066581939613, 38.709306780712339 ], [ -8.518855569129448, 38.709384590459145 ], [ -8.516954814319277, 38.710029811266956 ], [ -8.516027260759625, 38.710355350819306 ], [ -8.514038316214819, 38.711030633575376 ], [ -8.513171473742103, 38.711320101104896 ], [ -8.511736516021204, 38.711776173200043 ], [ -8.511037068828077, 38.712023281286903 ], [ -8.509336668181597, 38.712578189406685 ], [ -8.507194665298629, 38.713293932591434 ], [ -8.504398759341679, 38.714232515436684 ], [ -8.503070455685057, 38.714702455481962 ], [ -8.501231345720035, 38.715428483573469 ], [ -8.501018399395658, 38.715494826850005 ], [ -8.501103007762957, 38.715648236958437 ], [ -8.501900147687724, 38.716939997534951 ], [ -8.502279513623455, 38.717617018461269 ], [ -8.50253591546878, 38.718127142652222 ], [ -8.502335734201912, 38.718729516498257 ], [ -8.501956158443509, 38.719639728364768 ], [ -8.501508501052758, 38.720751752968368 ], [ -8.501388206795465, 38.721059937500499 ], [ -8.500892913860426, 38.72221327945563 ], [ -8.501073359160223, 38.722331524576738 ], [ -8.501436283015742, 38.722646561258117 ], [ -8.502285923905136, 38.723356683935478 ], [ -8.502790863636012, 38.723759814221403 ], [ -8.503294117448627, 38.724191236783263 ], [ -8.503581859853314, 38.724441738884167 ], [ -8.50395041375859, 38.724775032683525 ], [ -8.504623387948001, 38.725335264195614 ], [ -8.504732008469638, 38.725458961917752 ], [ -8.505532097631555, 38.726444323756525 ], [ -8.506333292486106, 38.727417151477752 ], [ -8.506687860226723, 38.72786272689995 ], [ -8.508042014210837, 38.727785861262163 ], [ -8.509144460304746, 38.72771267780945 ], [ -8.509441164291042, 38.728522535942368 ], [ -8.509654682724838, 38.728996841708884 ], [ -8.50984885277626, 38.72935509371603 ], [ -8.510199270598113, 38.730076320361007 ], [ -8.510611685175377, 38.730733204220741 ], [ -8.510866337303012, 38.731327544033988 ], [ -8.511131291240487, 38.731890680002529 ], [ -8.511355588671801, 38.732397913625945 ], [ -8.511379023529015, 38.732566287907993 ], [ -8.511088248224024, 38.734124275986922 ], [ -8.51099005244701, 38.734802632851931 ], [ -8.510926822107233, 38.735115413564976 ], [ -8.510905485559682, 38.735224165478783 ], [ -8.510876966428121, 38.735355821219237 ], [ -8.510922291361002, 38.735641683422351 ], [ -8.510840777192385, 38.736066587726178 ], [ -8.510778965671989, 38.736273254390795 ], [ -8.51050711145427, 38.737238951196062 ], [ -8.510171293418924, 38.737721198836006 ], [ -8.509913053921252, 38.738156093821772 ], [ -8.509231939101774, 38.739187916486927 ], [ -8.508414059916904, 38.74057954831008 ], [ -8.50772010930822, 38.741690401451024 ], [ -8.50744034488174, 38.742144319075585 ], [ -8.507118777201921, 38.742830954615506 ], [ -8.506915095840904, 38.743274714940043 ], [ -8.506540348136136, 38.744000434738503 ], [ -8.506424580891419, 38.7442103312585 ], [ -8.506010051493995, 38.744984374163977 ], [ -8.505592921531132, 38.745863555581998 ], [ -8.504727198404419, 38.746535568925346 ], [ -8.503708425687888, 38.747276703771504 ], [ -8.501151582424001, 38.749153346813145 ], [ -8.500230367810232, 38.749901790013027 ], [ -8.499057518716526, 38.750528964117947 ], [ -8.49760090047177, 38.75138009805336 ], [ -8.49543005568105, 38.75256519889696 ], [ -8.492945859756716, 38.753917108421199 ], [ -8.491734250286209, 38.754604494112769 ], [ -8.491641667454246, 38.754382852925943 ], [ -8.491441931130794, 38.754005101118764 ], [ -8.491126882751589, 38.753392342268789 ], [ -8.49052026760674, 38.752294856863678 ], [ -8.489828814613086, 38.750965245060456 ], [ -8.489668958446776, 38.75081115018795 ], [ -8.489458887519978, 38.750577854026282 ], [ -8.489235891828704, 38.750358742273633 ], [ -8.489122948270012, 38.750270445701574 ], [ -8.48898645779413, 38.750211410559729 ], [ -8.487770434619993, 38.749770754754458 ], [ -8.487509174966027, 38.749674713647096 ], [ -8.486995547757438, 38.749581240574194 ], [ -8.486646964951813, 38.74952770896639 ], [ -8.485948540797581, 38.749422183209319 ], [ -8.484929167304287, 38.749384817438973 ], [ -8.483741417273881, 38.749353269945914 ], [ -8.482352768067337, 38.749217190714099 ], [ -8.481924759322672, 38.749175500938783 ], [ -8.481542846589072, 38.749149352609528 ], [ -8.479656869296903, 38.749026345853615 ], [ -8.477174129711745, 38.748881652817573 ], [ -8.475056355091883, 38.748754031846083 ], [ -8.474770121845539, 38.748794326113412 ], [ -8.474257179362999, 38.748863391332598 ], [ -8.473946941059991, 38.748911591592936 ], [ -8.473440746100847, 38.748972705521865 ], [ -8.473149801420501, 38.748990402796544 ], [ -8.472219340677491, 38.749021310156202 ], [ -8.471443290234655, 38.749060142632288 ], [ -8.470860635626597, 38.749081469775568 ], [ -8.469904862586242, 38.749087033492145 ], [ -8.468992875754955, 38.749084079741309 ], [ -8.467810245736299, 38.748988937658325 ], [ -8.466845499477387, 38.748921266136122 ], [ -8.466481745590535, 38.748891411695546 ], [ -8.465449778380503, 38.748739421581618 ], [ -8.463660861227424, 38.748477696285939 ], [ -8.463230649661231, 38.748380277747728 ], [ -8.461765008733513, 38.748047794431209 ], [ -8.461278018743123, 38.747933595767982 ], [ -8.460952354174236, 38.747680122340782 ], [ -8.459829074117124, 38.746871927398651 ], [ -8.458898836316461, 38.746745179796989 ], [ -8.458244296899968, 38.746663592450304 ], [ -8.457725681464499, 38.746572616845633 ], [ -8.457599516765244, 38.746501173371811 ], [ -8.457476280240977, 38.746391440756945 ], [ -8.4560443483357, 38.745131140787066 ], [ -8.455548232415891, 38.744721563631494 ], [ -8.455053107059102, 38.744529265491273 ], [ -8.453603777622765, 38.744448316816161 ], [ -8.451799383983916, 38.743984672856712 ], [ -8.450815449956217, 38.743722345794303 ], [ -8.449756658728376, 38.744060059353352 ], [ -8.448653225621186, 38.744136199792436 ], [ -8.44718106115964, 38.743855346533358 ], [ -8.445860476822832, 38.743698289434988 ], [ -8.444920205841344, 38.7436818950152 ], [ -8.44264626048391, 38.743300706244412 ], [ -8.440612946839147, 38.743180073272832 ], [ -8.439246161361238, 38.743402030994794 ], [ -8.438252290771898, 38.74354633899447 ], [ -8.437192377697805, 38.743742788118993 ], [ -8.436291252065113, 38.74443938998423 ], [ -8.435792112781561, 38.744860919475983 ], [ -8.435282281147478, 38.745287783839608 ], [ -8.435608439828396, 38.744757979896868 ], [ -8.436008794274493, 38.744096468714808 ], [ -8.436653181768369, 38.743073723054621 ], [ -8.437042711706018, 38.74244088210736 ], [ -8.437805901597349, 38.741206939803405 ], [ -8.438295250180436, 38.74041303834472 ], [ -8.438960699303047, 38.739327349500684 ], [ -8.439580257601596, 38.738301319845235 ], [ -8.440571391868398, 38.736683827995584 ], [ -8.441217887325182, 38.735648169795816 ], [ -8.441840718930454, 38.734620951527909 ], [ -8.442180470451877, 38.734013715347196 ], [ -8.442849164765402, 38.732936012917747 ], [ -8.443490110571741, 38.731853875196997 ], [ -8.444570912640653, 38.73000666887642 ], [ -8.444698404919526, 38.729890663722536 ], [ -8.445081629764491, 38.729635880587139 ], [ -8.445174982447405, 38.729576716394952 ], [ -8.445105137115428, 38.729515286218849 ], [ -8.44501771635832, 38.729431659987128 ], [ -8.444948835029781, 38.72935383232538 ], [ -8.444857516432306, 38.729273452993162 ], [ -8.444727363674819, 38.729147597705158 ], [ -8.444565484182949, 38.728998767750547 ], [ -8.444462135730483, 38.728901038938979 ], [ -8.444358055385036, 38.728794120073381 ], [ -8.444281737918654, 38.728672982636127 ], [ -8.444173388442939, 38.728482572176418 ], [ -8.444103142231125, 38.728301965613518 ], [ -8.444016938130185, 38.728101498846883 ], [ -8.44394973206502, 38.727906019755054 ], [ -8.44385807696316, 38.727641609520852 ], [ -8.44376870296189, 38.727423940009466 ], [ -8.443663481271825, 38.72721361271892 ], [ -8.4435423852289, 38.727000986259256 ], [ -8.44343803160718, 38.726830200403995 ], [ -8.443313127357111, 38.726666580909608 ], [ -8.443155909492528, 38.726476844076551 ], [ -8.442974627523981, 38.726306080708163 ], [ -8.442758231569638, 38.726127126165053 ], [ -8.442634822044058, 38.726042506120379 ], [ -8.44236202801336, 38.725903788190344 ], [ -8.442124428706462, 38.725819919098207 ], [ -8.441908538419751, 38.725757077556949 ], [ -8.441749361028764, 38.725723719119259 ], [ -8.441482441138714, 38.725692719270924 ], [ -8.441214202403845, 38.72564991891138 ], [ -8.44109005836132, 38.725635473538695 ], [ -8.440680417632569, 38.725628090555247 ], [ -8.44019773153393, 38.725642064466832 ], [ -8.439612800657937, 38.725626672169724 ], [ -8.439405145715748, 38.725606138205059 ], [ -8.439085360220139, 38.725555363358374 ], [ -8.438723912841146, 38.725469568368659 ], [ -8.438367713840822, 38.72537546745523 ], [ -8.438281241514277, 38.725348215639166 ], [ -8.438154409404088, 38.72529576517725 ], [ -8.43800316289375, 38.725234900678245 ], [ -8.437886997217065, 38.72517602452001 ], [ -8.43778157718266, 38.725102345977071 ], [ -8.437662499367319, 38.724980142681218 ], [ -8.437617920611702, 38.724935400009805 ], [ -8.437509912558943, 38.724874427648786 ], [ -8.437372134982951, 38.724817766494141 ], [ -8.437256050304624, 38.724777986771358 ], [ -8.437102120399503, 38.724706502965532 ], [ -8.436818501521758, 38.724561493584488 ], [ -8.436626781586776, 38.724473264768804 ], [ -8.43639384512641, 38.724374149914176 ], [ -8.436126724748476, 38.7242944934221 ], [ -8.435908114873158, 38.724238040903302 ], [ -8.435735366032496, 38.724177326427956 ], [ -8.435534246019179, 38.724069031062697 ], [ -8.435377537497796, 38.72399340931112 ], [ -8.435188613975171, 38.723913637656267 ], [ -8.434959107767064, 38.723836040549422 ], [ -8.434834955484741, 38.723789881650184 ], [ -8.434569784371678, 38.723708237465637 ], [ -8.434394343236919, 38.723662205825768 ], [ -8.434240571228431, 38.723628737634151 ], [ -8.43410033450307, 38.723614326274564 ], [ -8.433833530967267, 38.723608708925099 ], [ -8.433482390806992, 38.723618081939705 ], [ -8.433280324308001, 38.723639683579364 ], [ -8.432922032018544, 38.723672315208923 ], [ -8.432781875999021, 38.723676909263624 ], [ -8.432502426077356, 38.723698709678914 ], [ -8.432392007079931, 38.723720159739038 ], [ -8.431934073453521, 38.723793132344021 ], [ -8.431807523602899, 38.72380615631667 ], [ -8.431629701918814, 38.723823551212433 ], [ -8.43125522269319, 38.723862524771022 ], [ -8.431058541799139, 38.723879872303591 ], [ -8.430769979294288, 38.723895474373961 ], [ -8.430629805131696, 38.723895832964502 ], [ -8.430505795897584, 38.723883540657241 ], [ -8.430303481044138, 38.723845862335708 ], [ -8.430120061490014, 38.723816691608086 ], [ -8.429580025487029, 38.723724478344927 ], [ -8.428911713149535, 38.723561506557324 ], [ -8.428767337345247, 38.723520169394689 ], [ -8.428594718130856, 38.723459171975847 ], [ -8.428365468122312, 38.723359039973147 ], [ -8.428148789239707, 38.723239244324759 ], [ -8.427988544027984, 38.723168393188942 ], [ -8.427738983353645, 38.723021111145343 ], [ -8.42750648697306, 38.722884149479881 ], [ -8.427314792748398, 38.722771668839144 ], [ -8.427129476829013, 38.72267133735545 ], [ -8.426818412120721, 38.722500067024214 ], [ -8.426624400527508, 38.722381651985252 ], [ -8.42643700526833, 38.722251504914659 ], [ -8.426171199286015, 38.722066160249511 ], [ -8.425996471675754, 38.721939942498039 ], [ -8.425825600618818, 38.721829033197849 ], [ -8.425557388045387, 38.721673416460675 ], [ -8.425344896193788, 38.72156314923739 ], [ -8.425122167306716, 38.721450838019216 ], [ -8.424952695938144, 38.721372174041015 ], [ -8.424721454871559, 38.721258530275861 ], [ -8.424417150654664, 38.721106514095126 ], [ -8.424281478673397, 38.72102488140839 ], [ -8.424147759878535, 38.720943060835118 ], [ -8.423999699106977, 38.720811911980256 ], [ -8.42391243803322, 38.720730336766977 ], [ -8.423805751681963, 38.720623043747764 ], [ -8.423706732077395, 38.720506726116689 ], [ -8.423629011863913, 38.720396391844439 ], [ -8.423418566091826, 38.720136494067944 ], [ -8.423267109107604, 38.719961211808993 ], [ -8.423183700961772, 38.719866026855563 ], [ -8.422920345967478, 38.719544461621183 ], [ -8.422807808449711, 38.719409980223432 ], [ -8.422724317107635, 38.71932236109253 ], [ -8.422664966116839, 38.719260443659657 ], [ -8.422583647576241, 38.719198575180641 ], [ -8.42208402361825, 38.718910476132628 ], [ -8.421953476750033, 38.718842070936802 ], [ -8.421514095530764, 38.718637232573336 ], [ -8.421207483137128, 38.718477200878013 ], [ -8.420967461160794, 38.718379336433287 ], [ -8.420857278619446, 38.718343306551837 ], [ -8.420766373100314, 38.718325334648981 ], [ -8.420622954876242, 38.718316588260869 ], [ -8.420522545047804, 38.718309270072901 ], [ -8.420396905444553, 38.718289853673483 ], [ -8.420292418392432, 38.718270474366697 ], [ -8.420164838764498, 38.718254123456674 ], [ -8.42006051698557, 38.718245279484798 ], [ -8.419793440173585, 38.718224142095004 ], [ -8.419534563379907, 38.718211173329095 ], [ -8.419319968171429, 38.718202605088841 ], [ -8.41886339940601, 38.718209762699459 ], [ -8.418336012224794, 38.7182186226959 ], [ -8.418069420375806, 38.718231436458254 ], [ -8.417876266346227, 38.718236232771901 ], [ -8.417451266374478, 38.718231328019961 ], [ -8.417250271175222, 38.718228759276833 ], [ -8.417113023469069, 38.718210981819205 ], [ -8.416975830501524, 38.718205281313189 ], [ -8.41679579828317, 38.718184463499512 ], [ -8.41659668439519, 38.718165312243961 ], [ -8.416405284694127, 38.718147582363748 ], [ -8.416298321533729, 38.718140276425153 ], [ -8.415977441870956, 38.718091062358866 ], [ -8.415716353203596, 38.718041697502926 ], [ -8.415475850393976, 38.717993821845319 ], [ -8.414974253004715, 38.7178672125726 ], [ -8.414511123088838, 38.717724924441647 ], [ -8.414092354250426, 38.717607659753185 ], [ -8.413722204358905, 38.717485318791056 ], [ -8.413414101865726, 38.717378773274376 ], [ -8.413144096053223, 38.717254845431121 ], [ -8.412881124553859, 38.71713503667911 ], [ -8.412633324972623, 38.717012674180062 ], [ -8.412283609815763, 38.716822178946728 ], [ -8.412015500521909, 38.716680766305274 ], [ -8.41160448562807, 38.716455014033798 ], [ -8.411340997923872, 38.71629079635813 ], [ -8.411082563167778, 38.716093504289866 ], [ -8.4107344818256, 38.715846975091857 ], [ -8.410473167119262, 38.715678065129346 ], [ -8.410379476227666, 38.715593520469682 ], [ -8.410122521743601, 38.715390551195057 ], [ -8.409969915870779, 38.715265877445482 ], [ -8.4098763303087, 38.715177642379302 ], [ -8.409789995090177, 38.715062456551919 ], [ -8.409757946063367, 38.715010555242955 ], [ -8.409735817569299, 38.714997182721525 ], [ -8.409691629230494, 38.714987648514004 ], [ -8.409625234618915, 38.714974386078509 ], [ -8.40950252710725, 38.71493810303388 ], [ -8.409431196808208, 38.714895934125963 ], [ -8.409389310983157, 38.714857570918852 ], [ -8.409295923616202, 38.714702494284147 ], [ -8.409231741471011, 38.714606437703182 ], [ -8.409152780191819, 38.714495103888083 ], [ -8.409107043621649, 38.714442248313489 ], [ -8.408992433593218, 38.714268570097879 ], [ -8.408952845204322, 38.714170568112557 ], [ -8.408943585028616, 38.714095190659016 ], [ -8.408974219553121, 38.713750914325892 ], [ -8.408994081055518, 38.713659520091319 ], [ -8.408983048471388, 38.713559442803415 ], [ -8.408950754678139, 38.713467757240288 ], [ -8.408907781128976, 38.713367755289752 ], [ -8.408839765820078, 38.713261103990106 ], [ -8.408747209742579, 38.713142900768943 ], [ -8.408640385719757, 38.71305139078401 ], [ -8.408490878503725, 38.712934955626139 ], [ -8.408288200663046, 38.712835329458805 ], [ -8.408117560044406, 38.712760653199929 ], [ -8.407978860535477, 38.712685901608268 ], [ -8.407840002820246, 38.712569440573269 ], [ -8.407743764625522, 38.712461220844446 ], [ -8.407615618017671, 38.71236141841959 ], [ -8.407423270676077, 38.71217834628127 ], [ -8.407252473215582, 38.712061959462943 ], [ -8.407103033996579, 38.711962206387533 ], [ -8.406953658843403, 38.711879137010975 ], [ -8.40679366828631, 38.711804433860038 ], [ -8.406592544758047, 38.711699697957044 ], [ -8.406408845380236, 38.711667894413814 ], [ -8.406206392962307, 38.711640624057836 ], [ -8.406106748767705, 38.711620773917183 ], [ -8.406045577570636, 38.71158812786031 ], [ -8.405997198826492, 38.711535362782591 ], [ -8.405945299440738, 38.71140207099976 ], [ -8.405909482909644, 38.711296402176934 ], [ -8.405847850456617, 38.711142869158323 ], [ -8.40577674922636, 38.711009622078294 ], [ -8.405725191028576, 38.710966866075466 ], [ -8.405625437570706, 38.710916742894931 ], [ -8.405361562194631, 38.71082169615223 ], [ -8.40521549614027, 38.710778169034029 ], [ -8.404967935024239, 38.710710732233196 ], [ -8.404762285779151, 38.710688514983531 ], [ -8.404492424372433, 38.710681574755625 ], [ -8.404286922058786, 38.710699712064859 ], [ -8.404145622612621, 38.710730217974515 ], [ -8.404020566206519, 38.710768342131409 ], [ -8.403875924001204, 38.710766157575904 ], [ -8.403811622137891, 38.710756220002764 ], [ -8.403695164468431, 38.710728835351766 ], [ -8.40358577046455, 38.710683685432009 ], [ -8.403473081790093, 38.710618459294217 ], [ -8.403341178132537, 38.710548324759436 ], [ -8.403241507060182, 38.710520719794118 ], [ -8.403122611450973, 38.710515951631749 ], [ -8.402978036142775, 38.710531419137496 ], [ -8.402875327671843, 38.710551837163344 ], [ -8.402775768244753, 38.71055206861616 ], [ -8.402647249724573, 38.710527141140787 ], [ -8.402498518331049, 38.710476500306314 ], [ -8.402430935559851, 38.710451524071694 ], [ -8.402363302897017, 38.710413847281643 ], [ -8.402244191031672, 38.710320979636151 ], [ -8.402193854684148, 38.710295242911897 ], [ -8.402068577097136, 38.710276252738325 ], [ -8.402028776902805, 38.710271120436815 ], [ -8.401983769427588, 38.710256093801441 ], [ -8.401951472078204, 38.710228512053412 ], [ -8.401944920432118, 38.710198259635135 ], [ -8.401941465481052, 38.710135302208073 ], [ -8.401936709697582, 38.710093694453306 ], [ -8.40189808050245, 38.710063515775623 ], [ -8.401844778459225, 38.710044903980169 ], [ -8.4016712850893, 38.710042782999629 ], [ -8.401520359958436, 38.710050696416815 ], [ -8.401475408141383, 38.710050799595209 ], [ -8.401392698464901, 38.710038466223487 ], [ -8.401302794509149, 38.710009040960109 ], [ -8.40119382726051, 38.709953709472671 ], [ -8.401113416389837, 38.709911919289993 ], [ -8.400968323925332, 38.709880093454203 ], [ -8.400772857173083, 38.70984477948906 ], [ -8.400610464720707, 38.709799482340465 ], [ -8.400500062317866, 38.709760191650304 ], [ -8.400416444522914, 38.709719665861542 ], [ -8.400358003469279, 38.709678992390636 ], [ -8.400321530843106, 38.709609898326249 ], [ -8.400288118859665, 38.70952970728532 ], [ -8.400231724996081, 38.709359405858038 ], [ -8.400207943081718, 38.709302711348805 ], [ -8.400163535686481, 38.70923362995017 ], [ -8.400062253993875, 38.709112792170806 ], [ -8.399970974094808, 38.70902111708115 ], [ -8.399921798527597, 38.708937273051454 ], [ -8.399880624787313, 38.708871969399638 ], [ -8.399839401135797, 38.708822607625208 ], [ -8.399755465259219, 38.708758575231016 ], [ -8.399615008599232, 38.708674940089224 ], [ -8.399469773872269, 38.708606089079744 ], [ -8.399260024931648, 38.708531260988082 ], [ -8.399116489793705, 38.708485918825914 ], [ -8.399036069470514, 38.708469979804164 ], [ -8.398925594203178, 38.708441584978523 ], [ -8.398798238355921, 38.708416924462632 ], [ -8.398727663672, 38.708390331399976 ], [ -8.398641117220604, 38.708335309609318 ], [ -8.3986091662223, 38.708306916304153 ], [ -8.398545479823881, 38.708276703316358 ], [ -8.39849983893563, 38.7082465403209 ], [ -8.398481544442973, 38.708212710173711 ], [ -8.398472131059005, 38.708121929054606 ], [ -8.398452988982747, 38.708044776870736 ], [ -8.398470219025635, 38.708010236429637 ], [ -8.398496778381324, 38.707979364564082 ], [ -8.398576899057328, 38.707945853317547 ], [ -8.39860345254302, 38.707913723898479 ], [ -8.398601739287404, 38.707886610454686 ], [ -8.398586001385544, 38.70785953515847 ], [ -8.398544956420746, 38.707826386340656 ], [ -8.398491374228165, 38.707794438828337 ], [ -8.39839541100628, 38.707772499154544 ], [ -8.398326176735527, 38.707765273101373 ], [ -8.39825544993842, 38.7077592178521 ], [ -8.398176815828487, 38.707760655475766 ], [ -8.398104528536624, 38.707766945784755 ], [ -8.398049464682206, 38.707768335309233 ], [ -8.397989667785785, 38.70776477562368 ], [ -8.397898382937543, 38.707732914140244 ], [ -8.397832202053838, 38.707681358815165 ], [ -8.397784895814535, 38.707634623348099 ], [ -8.39772708918308, 38.707578996225031 ], [ -8.397684407811099, 38.7075408981066 ], [ -8.397611973033552, 38.707507734401005 ], [ -8.397533378003711, 38.707488186037978 ], [ -8.397470344441173, 38.707479772589487 ], [ -8.397374363361816, 38.707452783028828 ], [ -8.397273610081728, 38.707408600340301 ], [ -8.397214665836362, 38.707387028268926 ], [ -8.397168994103394, 38.707379742002232 ], [ -8.39713442141996, 38.707387210384937 ], [ -8.397084224780878, 38.707399661324587 ], [ -8.397038722914077, 38.707436702096118 ], [ -8.397008922717824, 38.707461449978048 ], [ -8.39695716068011, 38.707484988966463 ], [ -8.396878544725251, 38.707491293698453 ], [ -8.396818835955786, 38.707480349206335 ], [ -8.396698747539647, 38.707431347008438 ], [ -8.396624706134361, 38.707399444754948 ], [ -8.396542845156155, 38.707365129663089 ], [ -8.396454568388029, 38.707308665226101 ], [ -8.396370984818425, 38.707244719668097 ], [ -8.396281804940996, 38.707191142453965 ], [ -8.39619829857865, 38.707149440507607 ], [ -8.39609435483429, 38.707112743473346 ], [ -8.395982448984105, 38.707069847697753 ], [ -8.395863561154888, 38.70700300663264 ], [ -8.395806907532069, 38.706978540677817 ], [ -8.395761347712211, 38.706969996066235 ], [ -8.395707897030993, 38.706971288980483 ], [ -8.395657597830791, 38.706987434696352 ], [ -8.395620015998201, 38.707020852060182 ], [ -8.395580794985888, 38.707048052038679 ], [ -8.395541545800707, 38.707066609614557 ], [ -8.395499140854847, 38.707071658377998 ], [ -8.395463841005219, 38.707070480041381 ], [ -8.395413443755944, 38.707058250990357 ], [ -8.395344091022983, 38.707018953395618 ], [ -8.395255795551902, 38.70695510318032 ], [ -8.395184910319756, 38.706905988202379 ], [ -8.395162356988624, 38.706865506418616 ], [ -8.39512102142883, 38.706836881853327 ], [ -8.395052251527776, 38.706822677780465 ], [ -8.394891780182762, 38.706787140428993 ], [ -8.394561675342443, 38.706716086451245 ], [ -8.394396649293396, 38.706687738126952 ], [ -8.394314148801465, 38.70667715316096 ], [ -8.394240903502702, 38.706691675802546 ], [ -8.394190575490283, 38.706709736092932 ], [ -8.394158651026865, 38.706749293849263 ], [ -8.394149658071115, 38.706795979029451 ], [ -8.394149893006309, 38.70686059151722 ], [ -8.39411792930097, 38.70688938006348 ], [ -8.394049250873902, 38.706900302628945 ], [ -8.393985101574529, 38.706896856002089 ], [ -8.393875050062986, 38.706868384281371 ], [ -8.393742039905247, 38.7068256054852 ], [ -8.393664003418115, 38.706782703153841 ], [ -8.393590509269108, 38.70672902226616 ], [ -8.393438837014308, 38.706592954483227 ], [ -8.393356180622893, 38.706539293843853 ], [ -8.393282791021855, 38.706514329723902 ], [ -8.393117804930755, 38.706496747889425 ], [ -8.392888696027262, 38.706482898959273 ], [ -8.39269166812409, 38.706472567228069 ], [ -8.392233372973342, 38.706423328845936 ], [ -8.391866739657209, 38.706384655152661 ], [ -8.391683456038884, 38.706374291306687 ], [ -8.391312306518351, 38.706353573771842 ], [ -8.390950165084938, 38.706289759848033 ], [ -8.390661411514628, 38.706250909718207 ], [ -8.39036242606555, 38.706186284640062 ], [ -8.3901324793994, 38.706085721141356 ], [ -8.38988809309957, 38.705965638428275 ], [ -8.389715426060151, 38.705870536085534 ], [ -8.389532659480183, 38.705750840760132 ], [ -8.38938129166498, 38.705697328856857 ], [ -8.389275798278637, 38.705661663281433 ], [ -8.389161143654805, 38.70562601767147 ], [ -8.38899146419873, 38.705576134220038 ], [ -8.388872227464534, 38.705540499253573 ], [ -8.388679643372532, 38.705490665444501 ], [ -8.388441248350873, 38.705440930456994 ], [ -8.388244109103562, 38.705398285401834 ], [ -8.388088110761128, 38.705330422869501 ], [ -8.387913838777544, 38.705276958100903 ], [ -8.387753399834443, 38.705248590390873 ], [ -8.387487609114292, 38.705224041454599 ], [ -8.387281486495009, 38.705231669200948 ], [ -8.387057283444893, 38.705234357025113 ], [ -8.386843990898297, 38.705222569808171 ], [ -8.386859022880047, 38.704987248689413 ], [ -8.386838332389937, 38.7046984892227 ], [ -8.38682563490145, 38.704585284725837 ], [ -8.386787148486523, 38.704464031506078 ], [ -8.386713408953726, 38.704321501717558 ], [ -8.386636920135116, 38.704210957817466 ], [ -8.38656331424203, 38.704138693328332 ], [ -8.386340056087343, 38.703975141469712 ], [ -8.386274670191652, 38.70391781439308 ], [ -8.386236470664249, 38.703875287443921 ], [ -8.386188363708866, 38.703795850141653 ], [ -8.386135489794455, 38.703732817141116 ], [ -8.386082063637119, 38.703676812600875 ], [ -8.386005849530436, 38.703613110276692 ], [ -8.385924208454156, 38.703574916421445 ], [ -8.385823635807425, 38.703547479569423 ], [ -8.385763824552647, 38.70355500634254 ], [ -8.385681442547209, 38.703576721997393 ], [ -8.385603579643462, 38.703580479914891 ], [ -8.385553087545114, 38.703551871715227 ], [ -8.38552085684386, 38.703505276154957 ], [ -8.385474832392527, 38.703444352198098 ], [ -8.385415065853932, 38.703383456973071 ], [ -8.385355248975262, 38.703308203667618 ], [ -8.385283257815843, 38.703233544101373 ], [ -8.38521276639602, 38.703163616863179 ], [ -8.385186393370244, 38.703084307938148 ], [ -8.385159584229944, 38.70301239477152 ], [ -8.385132216239263, 38.702944353622755 ], [ -8.385088607984365, 38.70290183704617 ], [ -8.384972015343099, 38.70282867325669 ], [ -8.384846471771235, 38.702761926238345 ], [ -8.384746628949797, 38.702711695253271 ], [ -8.3845826143396, 38.702655928842773 ], [ -8.384457524927925, 38.702617912961465 ], [ -8.3844085761732, 38.702592437597168 ], [ -8.384351361434598, 38.702536259329619 ], [ -8.384282639047903, 38.702444794533143 ], [ -8.38422826654366, 38.702380143297198 ], [ -8.384188233339287, 38.702339965336769 ], [ -8.384116843989737, 38.70230660991831 ], [ -8.384059749535139, 38.702284388535091 ], [ -8.383985661365976, 38.702268878655516 ], [ -8.383900174442982, 38.702248882773354 ], [ -8.383858631058166, 38.702235728917053 ], [ -8.383825671832371, 38.702212111640264 ], [ -8.383812354722057, 38.702184666100315 ], [ -8.383814006316019, 38.702164482402573 ], [ -8.383829408889758, 38.702131388405284 ], [ -8.383834090754357, 38.702121738698153 ], [ -8.38385956221116, 38.702074754091257 ], [ -8.383870945257899, 38.702043470346084 ], [ -8.383842311146038, 38.702007767412518 ], [ -8.383788124662855, 38.701962933595553 ], [ -8.383754974744363, 38.701918235729153 ], [ -8.38374819312671, 38.701852943555458 ], [ -8.38374569556956, 38.701763494831155 ], [ -8.383738981147298, 38.701717117919074 ], [ -8.383686109358559, 38.70165363697307 ], [ -8.383641967996191, 38.701588328452473 ], [ -8.383624314026939, 38.701538553656789 ], [ -8.383632958902545, 38.701512233908581 ], [ -8.383700737795037, 38.701465600987483 ], [ -8.383742392393527, 38.701444883849085 ], [ -8.383766401004156, 38.701406998868428 ], [ -8.383759715325606, 38.701369179678828 ], [ -8.38370024352778, 38.701324629191852 ], [ -8.383632072415917, 38.701259463138626 ], [ -8.383590302428104, 38.701214783686744 ], [ -8.38355700343412, 38.701127208866325 ], [ -8.383563014067617, 38.700939555268512 ], [ -8.383538336350867, 38.700786557963212 ], [ -8.383502727519131, 38.700662862496259 ], [ -8.383402957869979, 38.70045145462506 ], [ -8.383328940014602, 38.700243413774579 ], [ -8.38329178117603, 38.70009631825053 ], [ -8.383226988290703, 38.699906205518914 ], [ -8.383185373970381, 38.699795015349501 ], [ -8.383162020758441, 38.699665838182007 ], [ -8.383097466039981, 38.699543928627811 ], [ -8.383033023975507, 38.699454324897125 ], [ -8.382947898762582, 38.699365441836278 ], [ -8.382844423061186, 38.699260806529978 ], [ -8.382681803938301, 38.699140810473516 ], [ -8.382525605640355, 38.699015570332598 ], [ -8.382325843133195, 38.698923755871093 ], [ -8.382167098302924, 38.698858426101197 ], [ -8.382010650657165, 38.698759310475992 ], [ -8.381885776825827, 38.698683282150775 ], [ -8.381851738191775, 38.69864605971069 ], [ -8.381774237988031, 38.698475879470898 ], [ -8.381707945375535, 38.698319820926336 ], [ -8.381629058592743, 38.698146040247323 ], [ -8.381529362398595, 38.697970863306196 ], [ -8.381247528842852, 38.69764672142032 ], [ -8.381099866341849, 38.697496060796603 ], [ -8.380889989514788, 38.697269594478556 ], [ -8.380824012567381, 38.697172176324813 ], [ -8.380775924045651, 38.697026703825266 ], [ -8.380727970632034, 38.696888354702857 ], [ -8.380718655102132, 38.696820993069672 ], [ -8.380715845932562, 38.696674347272506 ], [ -8.380699474307024, 38.696495116887093 ], [ -8.380723924645547, 38.696384988473184 ], [ -8.380780044683792, 38.6962606419957 ], [ -8.380820487358349, 38.696155794526533 ], [ -8.380882035554617, 38.696037971949487 ], [ -8.380918295543813, 38.695926615869034 ], [ -8.380949925251304, 38.695800911411432 ], [ -8.380959431960973, 38.695716801474582 ], [ -8.380968119160508, 38.695602739190065 ], [ -8.380947279330547, 38.695494503834034 ], [ -8.380903932260493, 38.695391721989942 ], [ -8.380842391520536, 38.695278263410806 ], [ -8.380746811193534, 38.695128930540434 ], [ -8.380723928505926, 38.695027815943739 ], [ -8.380705438190013, 38.694932099667156 ], [ -8.380680227012787, 38.694854050095032 ], [ -8.380671026356159, 38.694786241384023 ], [ -8.380677395935004, 38.694667315974044 ], [ -8.380672483803307, 38.694576795700144 ], [ -8.380633723902644, 38.694470315167109 ], [ -8.380588147204204, 38.694386992930163 ], [ -8.380509011768989, 38.694273118274694 ], [ -8.380501929453303, 38.694219896555673 ], [ -8.380496990815752, 38.694088568243686 ], [ -8.380503491088605, 38.694006851853786 ], [ -8.380523630823552, 38.693946540735467 ], [ -8.380591122534218, 38.693820373101929 ], [ -8.380631730421054, 38.693763446268832 ], [ -8.380704477048821, 38.693694309217648 ], [ -8.380836935172459, 38.693586339178317 ], [ -8.380928270013998, 38.693507173406644 ], [ -8.381060739848349, 38.693402792857313 ], [ -8.381188790012231, 38.693345087654748 ], [ -8.381289358347512, 38.693287439736224 ], [ -8.381366825721797, 38.69317240623775 ], [ -8.381425821739183, 38.693020203502812 ], [ -8.381464029245739, 38.692934901109076 ], [ -8.381479487466912, 38.692817764265222 ], [ -8.381499502355727, 38.692723676952738 ], [ -8.381512511176778, 38.692663742928126 ], [ -8.381575177643782, 38.692537766917546 ], [ -8.381677851851251, 38.692380263585555 ], [ -8.381837600999441, 38.692177597732297 ], [ -8.381883037544879, 38.692056164098808 ], [ -8.381939663818171, 38.691879752049395 ], [ -8.381933185350432, 38.69163708554008 ], [ -8.381926519733543, 38.69137189979125 ], [ -8.381902766692237, 38.691151699557587 ], [ -8.3818673969309, 38.690864145298171 ], [ -8.381883789762705, 38.690621249026499 ], [ -8.381957264175405, 38.690333460476594 ], [ -8.382071002520917, 38.690085946557076 ], [ -8.382116207101804, 38.68989874702168 ], [ -8.382075589719095, 38.689754975930349 ], [ -8.38198328180907, 38.689584379373755 ], [ -8.381925503543652, 38.689431634724642 ], [ -8.381838843058445, 38.689234090565925 ], [ -8.381746661929153, 38.689099434511597 ], [ -8.381677577604014, 38.689032200821899 ], [ -8.381551200052195, 38.688947075089359 ], [ -8.381459199150967, 38.688866283941515 ], [ -8.381395886248526, 38.688772107766219 ], [ -8.38136669851905, 38.688641822653928 ], [ -8.381359565489072, 38.688574274377189 ], [ -8.381339105761285, 38.688473156444296 ], [ -8.381272947340351, 38.688387899864907 ], [ -8.381180905728794, 38.688293689036065 ], [ -8.381022848677787, 38.688154758978705 ], [ -8.380864706913657, 38.688024747918377 ], [ -8.38078244079262, 38.687967000237563 ], [ -8.380731250726415, 38.687888201161641 ], [ -8.380749366703952, 38.687808166233573 ], [ -8.380800783657023, 38.687754100829792 ], [ -8.380821950101398, 38.687726128724272 ], [ -8.380825824185356, 38.687717024921703 ], [ -8.380826468928687, 38.687704680497042 ], [ -8.380825721050265, 38.687687114256235 ], [ -8.380819781756998, 38.687665598098384 ], [ -8.38080317914997, 38.687650501260087 ], [ -8.380774522798632, 38.687639569222171 ], [ -8.380714392726691, 38.687632942183782 ], [ -8.380662757690356, 38.687624045979348 ], [ -8.380628329648701, 38.687606189795396 ], [ -8.380593870306798, 38.687579242574593 ], [ -8.380556289600658, 38.687513652191278 ], [ -8.380507274758543, 38.687399169560848 ], [ -8.38047506904304, 38.687258621208805 ], [ -8.380432277940075, 38.687183136365952 ], [ -8.38031457744628, 38.687113212100115 ], [ -8.380251268230316, 38.687052629613476 ], [ -8.380210467424128, 38.686952545342017 ], [ -8.380231980852441, 38.6868283107843 ], [ -8.380227030392682, 38.686720632495863 ], [ -8.380191027657613, 38.686681531821634 ], [ -8.380080409774582, 38.68660006453149 ], [ -8.379954040381598, 38.686517186365222 ], [ -8.379925179201184, 38.686480586529335 ], [ -8.379785772492532, 38.686148390881804 ], [ -8.379191295264869, 38.684832473842711 ], [ -8.378959121936857, 38.684326971198054 ], [ -8.378239640859318, 38.682779786690148 ], [ -8.379042003908491, 38.680373034487225 ], [ -8.379865302153213, 38.679390644717671 ], [ -8.380228540032109, 38.678984146200058 ], [ -8.380870102766226, 38.678245281399413 ], [ -8.381017967894413, 38.678036605869288 ], [ -8.381271475415295, 38.677671413210206 ], [ -8.381449798636314, 38.677398622149788 ], [ -8.38163356965504, 38.67710681816412 ], [ -8.381744830884134, 38.676880384952327 ], [ -8.381983961975108, 38.676383252417139 ], [ -8.38230915941954, 38.675656489952758 ], [ -8.38284099462058, 38.674524613861763 ], [ -8.383120568144399, 38.673943378033371 ], [ -8.383221202786558, 38.673442754340755 ], [ -8.383325827303279, 38.672735931488141 ], [ -8.38321296598455, 38.672197719732416 ], [ -8.382747113379008, 38.671018592056079 ], [ -8.38262168881379, 38.670709273405123 ], [ -8.382488573684832, 38.670226782110838 ], [ -8.382367225530711, 38.669952398330892 ], [ -8.381952021011982, 38.668891654425522 ], [ -8.381771869839342, 38.668432712481788 ], [ -8.381531036707308, 38.667937686863837 ], [ -8.381203889686764, 38.667302675468292 ], [ -8.380987078647347, 38.666874978474063 ], [ -8.380415802440881, 38.665717149329218 ], [ -8.380360391192049, 38.665580859028871 ], [ -8.380080635549096, 38.664113276961757 ], [ -8.380091843661596, 38.663377372622492 ], [ -8.380159904830171, 38.661865979574195 ], [ -8.38022911166553, 38.660688422552163 ], [ -8.380293552955814, 38.659457031149529 ], [ -8.380272933814952, 38.658785806119198 ], [ -8.380261704777899, 38.658182766328352 ], [ -8.380199920870536, 38.657522397484449 ], [ -8.380156523530623, 38.656883528463105 ], [ -8.380150256178657, 38.656391757088819 ], [ -8.380093089972023, 38.65574214761353 ], [ -8.380039330957919, 38.654751512060727 ], [ -8.380103879305931, 38.653680542158909 ], [ -8.380104165395618, 38.653464433162917 ], [ -8.380111456342648, 38.652846726971632 ], [ -8.380133128852604, 38.652302313174978 ], [ -8.38017961168973, 38.651610253584984 ], [ -8.380236087232062, 38.650727074865166 ], [ -8.380254429693913, 38.650070125703131 ], [ -8.381499535148754, 38.650071078398199 ], [ -8.38233729344428, 38.650361022355455 ], [ -8.383442840037743, 38.650763332386575 ], [ -8.383988236460862, 38.650952416942189 ], [ -8.385171560991022, 38.651606782573886 ], [ -8.386185367129229, 38.652214838348101 ], [ -8.387635052229047, 38.653098342020485 ], [ -8.388502118766942, 38.653624133212681 ], [ -8.389956401346218, 38.654496829313949 ], [ -8.390942795831258, 38.655097724052119 ], [ -8.391630701940949, 38.655502009247066 ], [ -8.392075301775586, 38.654900983477724 ], [ -8.392606965866062, 38.654201843002078 ], [ -8.393314156031899, 38.653313767591349 ], [ -8.393893230660037, 38.652548031914364 ], [ -8.394733068338004, 38.651502095478868 ], [ -8.395487214799587, 38.650526696086004 ], [ -8.396264747037758, 38.649511603588145 ], [ -8.396416120868432, 38.649224262976674 ], [ -8.397112301111594, 38.64789847484149 ], [ -8.397671262704854, 38.646873598916066 ], [ -8.398167076893161, 38.645924084180656 ], [ -8.398348040249427, 38.645563794186515 ], [ -8.398415061925196, 38.644233025529026 ], [ -8.398490785917891, 38.643417166461525 ], [ -8.398602436099763, 38.643015681517667 ], [ -8.398725259516118, 38.642251234516969 ], [ -8.398758400474295, 38.641766138808315 ], [ -8.398640663159878, 38.640868986252492 ], [ -8.39854848283516, 38.640329098189284 ], [ -8.398401233986014, 38.639585083661252 ], [ -8.398270216964308, 38.638912017383497 ], [ -8.398215855881656, 38.638615631819718 ], [ -8.398079797761659, 38.637711341006202 ], [ -8.398067019614693, 38.637541155574453 ], [ -8.398167635852962, 38.637573082762465 ], [ -8.398272539202489, 38.637585548543228 ], [ -8.398350504863402, 38.637579064205575 ], [ -8.398460436270589, 38.637552507111025 ], [ -8.398568945878802, 38.637514788262557 ], [ -8.398742521578656, 38.637430434311291 ], [ -8.398903471324195, 38.637347730279274 ], [ -8.399051175921707, 38.637256679322839 ], [ -8.399158400606044, 38.637180405556002 ], [ -8.399265747859511, 38.637108453589903 ], [ -8.399381176683002, 38.637046933651767 ], [ -8.399526112764931, 38.636983368189256 ], [ -8.399700727989782, 38.636932248340997 ], [ -8.399818861678808, 38.636887660999598 ], [ -8.399934996339843, 38.636831183548502 ], [ -8.400041581859888, 38.636770040754584 ], [ -8.400143159207332, 38.636689906300766 ], [ -8.400255945560467, 38.636598214648352 ], [ -8.400339746289376, 38.636526945135472 ], [ -8.400409025918234, 38.636440488327359 ], [ -8.400462011330688, 38.63635775760909 ], [ -8.400532733647506, 38.636228146803298 ], [ -8.400593817059459, 38.636131530145505 ], [ -8.400633993263215, 38.636062882468934 ], [ -8.400674186289383, 38.636000634231166 ], [ -8.400745622251524, 38.635907778198778 ], [ -8.400852498684181, 38.635803127537585 ], [ -8.401006072423108, 38.635685572677076 ], [ -8.401138738454915, 38.635595546215306 ], [ -8.401269126305708, 38.635512823343895 ], [ -8.40136690793406, 38.635463140945944 ], [ -8.401450706439444, 38.635420880943066 ], [ -8.401483369330242, 38.635402518284913 ], [ -8.401528443670792, 38.635355389783172 ], [ -8.40157958691286, 38.635304017042593 ], [ -8.40162377540233, 38.635265447515302 ], [ -8.401730901458482, 38.6351956593724 ], [ -8.401840163467103, 38.63511478151807 ], [ -8.401914537494758, 38.635041374127844 ], [ -8.401986656740315, 38.634977157629905 ], [ -8.402035461336258, 38.634914798140422 ], [ -8.402089908858462, 38.634826123236579 ], [ -8.402156522771973, 38.634704086933667 ], [ -8.402209019701003, 38.634584962112505 ], [ -8.402265121474924, 38.634507272537732 ], [ -8.402342439080087, 38.634421249185856 ], [ -8.402483028377787, 38.634304623074406 ], [ -8.402595635194029, 38.634226893310938 ], [ -8.402782241145857, 38.634129532275765 ], [ -8.402919577364402, 38.634062732615455 ], [ -8.403071050066364, 38.633998694549213 ], [ -8.403268307698387, 38.633923556848849 ], [ -8.403479516500425, 38.633833077877519 ], [ -8.403881539810152, 38.63369692641438 ], [ -8.404015587826072, 38.633641575413428 ], [ -8.404096194861497, 38.633606433848222 ], [ -8.404190556247022, 38.633534150681022 ], [ -8.404445881386691, 38.633328168750289 ], [ -8.404642955289264, 38.633174747951657 ], [ -8.404817861920527, 38.633021380101489 ], [ -8.404951049499971, 38.632922699210759 ], [ -8.405078174170134, 38.632827722960478 ], [ -8.405269471009376, 38.63269863783124 ], [ -8.405557422510531, 38.632525729893274 ], [ -8.405725903072742, 38.632424122906009 ], [ -8.405917799523257, 38.63234111276013 ], [ -8.406100625224488, 38.63227966140461 ], [ -8.406260676763109, 38.632246980489647 ], [ -8.406407054128968, 38.632228690525736 ], [ -8.406521477281316, 38.632232012996703 ], [ -8.406645135415147, 38.632256851706103 ], [ -8.406772787751008, 38.632302173920031 ], [ -8.406889200355661, 38.632352349842797 ], [ -8.406984308802437, 38.63239246640822 ], [ -8.407057750278074, 38.632449729578227 ], [ -8.407096606109983, 38.632501308388143 ], [ -8.407128354851489, 38.632633923559702 ], [ -8.407172975976511, 38.632739758427753 ], [ -8.407265261631082, 38.632862056864241 ], [ -8.407361749818978, 38.632962341707355 ], [ -8.40743567691058, 38.633053075624467 ], [ -8.407622488027473, 38.633190912114749 ], [ -8.407727098671286, 38.633247416187317 ], [ -8.40825664173566, 38.63342227613817 ], [ -8.408299851533471, 38.633428754172428 ], [ -8.408469463741316, 38.63342438605082 ], [ -8.408754695652704, 38.633404188916082 ], [ -8.408978819071217, 38.633371353317813 ], [ -8.409180008036371, 38.633331542235318 ], [ -8.409446803272928, 38.633244429149656 ], [ -8.409795575442674, 38.633120460554757 ], [ -8.410085514543042, 38.632989241607191 ], [ -8.410208178107833, 38.632923327515883 ], [ -8.410342612606447, 38.632829813710174 ], [ -8.410422942413284, 38.632753859957319 ], [ -8.410500071265764, 38.632651974346103 ], [ -8.410670787712684, 38.632666432262326 ], [ -8.410694505970572, 38.632652774364324 ], [ -8.410811000769469, 38.632544487533295 ], [ -8.410850414515691, 38.632520881419921 ], [ -8.411300007062513, 38.632418180768987 ], [ -8.411697627356132, 38.632280827422797 ], [ -8.412760633187238, 38.632046528682643 ], [ -8.412929190335783, 38.632009190755802 ], [ -8.413202430547528, 38.632074113749923 ], [ -8.413676252283663, 38.632125399560366 ], [ -8.414178413889626, 38.632286069786588 ], [ -8.414557527140166, 38.632346319354319 ], [ -8.415070417847494, 38.632432545095007 ], [ -8.415505517142066, 38.632536529757182 ], [ -8.415890316197071, 38.632640538893902 ], [ -8.415436607027395, 38.633235466876151 ], [ -8.415538825627863, 38.633469882655859 ], [ -8.415762565263197, 38.633714129240907 ], [ -8.415849315568819, 38.633803244077093 ], [ -8.415960922828745, 38.633854680119136 ], [ -8.416777335823243, 38.632743059037402 ], [ -8.419121016398037, 38.634098465981253 ], [ -8.422430724128509, 38.635978784144555 ], [ -8.425342280962333, 38.63793046854375 ], [ -8.431761884388223, 38.64291211305062 ], [ -8.432910539847027, 38.643854126213306 ], [ -8.43450921089892, 38.642814866595494 ], [ -8.438033823307093, 38.640672363771515 ], [ -8.443093832460759, 38.639376953578349 ], [ -8.444227867749115, 38.638861092882117 ], [ -8.44822024475741, 38.639032099490926 ], [ -8.453410451015019, 38.641782088579042 ], [ -8.456318461762583, 38.639699813539146 ], [ -8.458151901562227, 38.638193855694176 ], [ -8.460007398605409, 38.635251440118736 ], [ -8.460202586749908, 38.634937491871469 ], [ -8.461592115575062, 38.633500012218569 ], [ -8.46374063159632, 38.630154311217609 ], [ -8.464250213797085, 38.628991160765466 ], [ -8.468459656027829, 38.628026361590273 ], [ -8.469618016782873, 38.62856635925958 ], [ -8.470252260163287, 38.628855316562912 ], [ -8.471656118896661, 38.629552221441813 ], [ -8.473386024090932, 38.630504446466247 ], [ -8.473871363917082, 38.630725711608832 ], [ -8.475100997678979, 38.631283232061421 ], [ -8.477190750044839, 38.632323929093104 ], [ -8.477811172633841, 38.632640354734562 ], [ -8.47906258600355, 38.63329487928592 ], [ -8.480532253516172, 38.63407098482147 ], [ -8.482650360507144, 38.635195276364776 ], [ -8.484130693258285, 38.63595292035496 ], [ -8.486060190836721, 38.636995518435945 ], [ -8.486960775077145, 38.637507723701482 ], [ -8.487343073215207, 38.639677999341373 ], [ -8.487490504486582, 38.640687972737396 ], [ -8.48775155975056, 38.642129944196284 ], [ -8.487987154041543, 38.64343111707786 ], [ -8.49427446852585, 38.646468126072698 ], [ -8.498442271259846, 38.648203282127398 ], [ -8.500455378068773, 38.64906614850149 ], [ -8.500632985029615, 38.648624379862142 ], [ -8.5007560644056, 38.648318235832853 ], [ -8.501896236102631, 38.64607906978442 ], [ -8.502571310666404, 38.644763893155542 ], [ -8.503333926400741, 38.643233413561511 ], [ -8.503660606137709, 38.642568919823709 ], [ -8.504014590723708, 38.641855243503926 ], [ -8.504559108742562, 38.640762524000067 ], [ -8.504736204728202, 38.640414962264778 ], [ -8.504938308431079, 38.640018315793021 ], [ -8.505461363480505, 38.639022231351234 ], [ -8.506419551721057, 38.637214078208643 ], [ -8.511257740715569, 38.636226982046622 ], [ -8.513293158041568, 38.635802616123264 ], [ -8.515706006261105, 38.635313828655661 ], [ -8.518898364757412, 38.63467183326641 ], [ -8.523208795832632, 38.632359805711509 ], [ -8.52589492374776, 38.630912912442973 ], [ -8.529340597579926, 38.629089337748489 ], [ -8.532518190579365, 38.627370176516379 ], [ -8.534064336355213, 38.625497908511264 ], [ -8.535632710181968, 38.623578552349336 ], [ -8.538550596021382, 38.622703789735354 ], [ -8.540073163339027, 38.621367187360015 ], [ -8.54043607960161, 38.620871998333158 ], [ -8.541190809101883, 38.619828510354047 ], [ -8.542266414612333, 38.618936655671476 ], [ -8.544463025181257, 38.618150827809622 ], [ -8.547110514697744, 38.617808488309542 ], [ -8.549843790927493, 38.616403676121777 ], [ -8.550898430915124, 38.617532053064231 ], [ -8.552824833964959, 38.619670262177507 ], [ -8.560524168060359, 38.627923194427041 ], [ -8.562414691127362, 38.631919145729405 ], [ -8.564030793274664, 38.635398986809328 ], [ -8.569083982248948, 38.635621648167692 ], [ -8.572553441975284, 38.636101109757831 ], [ -8.575677877751948, 38.636478087178347 ], [ -8.588409270057847, 38.640246782716758 ], [ -8.588854925800517, 38.640402496296318 ], [ -8.589027791098291, 38.640478832444522 ], [ -8.590523282521168, 38.641113995402172 ], [ -8.592074336895445, 38.641780552688083 ], [ -8.593547758524609, 38.642407062241311 ], [ -8.595360904400398, 38.643171548906047 ], [ -8.596749551349978, 38.643764854760569 ], [ -8.597989398573233, 38.644299223396672 ], [ -8.599575764616997, 38.64498665102164 ], [ -8.600434541029701, 38.645371270441025 ], [ -8.601410359386147, 38.645800646282453 ], [ -8.6015209184784, 38.645885819705704 ], [ -8.601459869278498, 38.645943396131521 ], [ -8.601047816537916, 38.646260910643413 ], [ -8.600539786420164, 38.646649989378481 ], [ -8.600138868722929, 38.646936315619179 ], [ -8.599478383604426, 38.647437218391737 ], [ -8.598981594545981, 38.647812898910495 ], [ -8.5976266024221, 38.648823720087833 ], [ -8.596728907108083, 38.649494604572027 ], [ -8.596096510709618, 38.649959786204143 ], [ -8.595537627072989, 38.650389083217284 ], [ -8.59484874022813, 38.650894521131889 ], [ -8.594097725203071, 38.651444687843913 ], [ -8.593634749966874, 38.651793519091434 ], [ -8.592917697847698, 38.652334647050132 ], [ -8.592257112848769, 38.652835509206135 ], [ -8.591827959997358, 38.653153059067165 ], [ -8.591466656861618, 38.653434750914897 ], [ -8.591105208108003, 38.653694197300673 ], [ -8.590656195603119, 38.654050497401457 ], [ -8.590259072913796, 38.654462704315101 ], [ -8.590090228795207, 38.654676906670041 ], [ -8.589840742048967, 38.655018559416824 ], [ -8.589271931908005, 38.655718285566195 ], [ -8.58880130878109, 38.656305753340277 ], [ -8.588617563692887, 38.656532120418937 ], [ -8.58807709665702, 38.657229208856712 ], [ -8.587643913386897, 38.657744452380939 ], [ -8.587061582418782, 38.658434602015383 ], [ -8.586740623290117, 38.658822894239535 ], [ -8.586155427849045, 38.659576108800124 ], [ -8.585761122431707, 38.660054560911384 ], [ -8.584899483959267, 38.661085568169078 ], [ -8.584258100384687, 38.66195556172589 ], [ -8.584033039157047, 38.662258948777826 ], [ -8.583886469276369, 38.662440848140697 ], [ -8.583734547150939, 38.662616003668589 ], [ -8.583582184097311, 38.662750055319663 ], [ -8.583282964816311, 38.662991442792411 ], [ -8.582774691568893, 38.663375995519623 ], [ -8.582097134370832, 38.663912455520972 ], [ -8.581058165369743, 38.664730571356486 ], [ -8.580154554230647, 38.665419145075866 ], [ -8.579348829345966, 38.666049225514485 ], [ -8.578285493063209, 38.666898830146508 ], [ -8.577399070352001, 38.667622907542615 ], [ -8.577535448328909, 38.668061903424025 ], [ -8.578159414596382, 38.669448477171031 ], [ -8.578388537712019, 38.67006836851295 ], [ -8.579001257617872, 38.671598492375949 ], [ -8.578033877637781, 38.672087096701041 ], [ -8.576727094664882, 38.672754932378261 ], [ -8.575782301460951, 38.673230084931781 ], [ -8.574911761748849, 38.673785028658379 ], [ -8.573956328866286, 38.674380324627023 ], [ -8.572746675553896, 38.675167866686429 ], [ -8.571813768130898, 38.675772655945579 ], [ -8.571293618345724, 38.676063080688039 ], [ -8.570054340509712, 38.676654958614684 ], [ -8.56902424321688, 38.677117029481039 ], [ -8.568104269469092, 38.67754333808994 ], [ -8.567292393388787, 38.677910909255125 ], [ -8.567037743188623, 38.677848799672596 ], [ -8.566213719249035, 38.678179938748322 ] ] ] } },
{ "type": "Feature", "properties": { "dtmnfr": "071202", "freguesia": "Landeira", "municipio": "Vendas Novas", "distrito_i": "Évora", "nuts3_cod": "1C4", "nuts3": "Alentejo Central", "nuts2": "Alentejo", "nuts1": "Continente", "area_ha": 6467.07, "perimetro_": 35, "designacao": "Landeira" }, "geometry": { "type": "Polygon", "coordinates": [ [ [ -8.612390709273944, 38.644689641813756 ], [ -8.610997795633052, 38.644822131017818 ], [ -8.609044380647891, 38.64499358932003 ], [ -8.607594510747404, 38.645136279671 ], [ -8.606208517460693, 38.645288703705972 ], [ -8.605753616548332, 38.645340592215192 ], [ -8.605056449641399, 38.645430158806732 ], [ -8.604163683607043, 38.645537192256157 ], [ -8.603640925045763, 38.645622711364986 ], [ -8.602563216044254, 38.645746197494816 ], [ -8.601653374217733, 38.645878099804605 ], [ -8.6015209184784, 38.645885819705704 ], [ -8.601410359386147, 38.645800646282453 ], [ -8.600434541029701, 38.645371270441025 ], [ -8.599575764616997, 38.64498665102164 ], [ -8.597989398573233, 38.644299223396672 ], [ -8.596749551349978, 38.643764854760569 ], [ -8.595360904400398, 38.643171548906047 ], [ -8.593547758524609, 38.642407062241311 ], [ -8.592074336895445, 38.641780552688083 ], [ -8.590523282521168, 38.641113995402172 ], [ -8.589027791098291, 38.640478832444522 ], [ -8.588854925800517, 38.640402496296318 ], [ -8.588409270057847, 38.640246782716758 ], [ -8.575677877751948, 38.636478087178347 ], [ -8.572553441975284, 38.636101109757831 ], [ -8.569083982248948, 38.635621648167692 ], [ -8.564030793274664, 38.635398986809328 ], [ -8.562414691127362, 38.631919145729405 ], [ -8.560524168060359, 38.627923194427041 ], [ -8.552824833964959, 38.619670262177507 ], [ -8.550898430915124, 38.617532053064231 ], [ -8.549843790927493, 38.616403676121777 ], [ -8.55224253233655, 38.614314704417943 ], [ -8.554065696837645, 38.612680795876372 ], [ -8.555790517114199, 38.61118323202556 ], [ -8.557299494309712, 38.609841875982973 ], [ -8.578687560401423, 38.598950126174493 ], [ -8.582709479270699, 38.591190175234289 ], [ -8.582060989513774, 38.587442428480699 ], [ -8.581894599443688, 38.586563800550735 ], [ -8.581759249217942, 38.585699627842224 ], [ -8.581561347252087, 38.584728821474563 ], [ -8.581420177786377, 38.583922964214189 ], [ -8.581298212165288, 38.583219047121517 ], [ -8.581312823485341, 38.582582616221323 ], [ -8.581214367647183, 38.582197132826877 ], [ -8.58124605724776, 38.581794248752068 ], [ -8.580740481516793, 38.580939591343743 ], [ -8.580484302888658, 38.580031996888181 ], [ -8.580355984330664, 38.579199313940748 ], [ -8.579912443115607, 38.578405755968525 ], [ -8.579593859527789, 38.577833373504049 ], [ -8.579366931505968, 38.577163858642336 ], [ -8.579114235219937, 38.576329275221035 ], [ -8.57880681154354, 38.575650350270976 ], [ -8.57824536641507, 38.573918240889299 ], [ -8.57809430789381, 38.573505899490165 ], [ -8.577816977136441, 38.572685980047275 ], [ -8.577596031074517, 38.571977575429486 ], [ -8.57740674741288, 38.571385638048163 ], [ -8.577019392370255, 38.570136004765594 ], [ -8.577003951438375, 38.568954265943887 ], [ -8.577100614397075, 38.566888443712458 ], [ -8.577127724966211, 38.565260964876146 ], [ -8.57646778779865, 38.5645979417734 ], [ -8.576292387454435, 38.561981739299469 ], [ -8.576111911111488, 38.559428111423294 ], [ -8.575989114301954, 38.557614392139321 ], [ -8.57583246125769, 38.55584165499257 ], [ -8.575450769501579, 38.550997561913192 ], [ -8.575374290561593, 38.549994952543891 ], [ -8.575218390388144, 38.547921193087156 ], [ -8.577453946772303, 38.546335705327095 ], [ -8.577936243455399, 38.545992898083178 ], [ -8.580121161002092, 38.544509888686726 ], [ -8.583617912383945, 38.543643177222194 ], [ -8.584320641689912, 38.543468674683631 ], [ -8.586836161865348, 38.542843381556644 ], [ -8.588747198386674, 38.542386515848946 ], [ -8.589912569667597, 38.542116301910838 ], [ -8.597067397321716, 38.545461367160335 ], [ -8.598676521768571, 38.546228226061018 ], [ -8.600592327023143, 38.547440573305174 ], [ -8.601507579530876, 38.548002719094143 ], [ -8.602760874342403, 38.548805639249707 ], [ -8.607099944934545, 38.549883338901438 ], [ -8.608786734181878, 38.550393464886241 ], [ -8.609202064774827, 38.550542303003787 ], [ -8.609741961602305, 38.550723239284906 ], [ -8.610079395141204, 38.550835817377809 ], [ -8.610292346367507, 38.550910977582866 ], [ -8.610572815444304, 38.551012888084365 ], [ -8.610942267139466, 38.551126589760266 ], [ -8.611355075112467, 38.551257323661609 ], [ -8.611451077734067, 38.551307016211268 ], [ -8.611632229182771, 38.551395367837891 ], [ -8.612791256227844, 38.551833460130524 ], [ -8.61283070137423, 38.551848253305302 ], [ -8.612887335168962, 38.551860540161613 ], [ -8.612922005906027, 38.55188138758151 ], [ -8.612992430692005, 38.551965238941285 ], [ -8.613096669757214, 38.552080834060952 ], [ -8.613157292328797, 38.552139500258448 ], [ -8.613295077069342, 38.552261898590004 ], [ -8.613367057122076, 38.552303851699762 ], [ -8.613470214643959, 38.552376391791739 ], [ -8.613550284127975, 38.552410654477853 ], [ -8.613622144014778, 38.552434682160715 ], [ -8.613676185137889, 38.552470310059363 ], [ -8.613714691950143, 38.552499162549424 ], [ -8.613906890239571, 38.552557286324422 ], [ -8.61399417490273, 38.552606379284114 ], [ -8.614114256422758, 38.552636514436571 ], [ -8.614261322769902, 38.552671221114757 ], [ -8.614387634015175, 38.552689526711674 ], [ -8.614531570404596, 38.552700737668339 ], [ -8.614711471923059, 38.552704676680051 ], [ -8.614852562455781, 38.552737066821976 ], [ -8.614954710068307, 38.552778983988709 ], [ -8.615069003676291, 38.552835081588491 ], [ -8.615180280700521, 38.552886420663675 ], [ -8.615300520834921, 38.552940158578892 ], [ -8.615432754148678, 38.553003209359616 ], [ -8.615507899567888, 38.553038210754899 ], [ -8.615598087383395, 38.553075495887214 ], [ -8.615684517404164, 38.553099099211046 ], [ -8.615823021894355, 38.553105191691465 ], [ -8.616031546457558, 38.553083338590646 ], [ -8.616365748810431, 38.553053041733769 ], [ -8.616558683422294, 38.553049448957402 ], [ -8.616806184843567, 38.553040138919954 ], [ -8.616906187581479, 38.553035490862314 ], [ -8.617168571273012, 38.553004946181922 ], [ -8.61741310506523, 38.552981501287235 ], [ -8.617658823614898, 38.552962822712459 ], [ -8.617961757676692, 38.552940665463275 ], [ -8.618110689411871, 38.552944280692699 ], [ -8.618243572438249, 38.552933283098618 ], [ -8.6183498128996, 38.552918158249028 ], [ -8.618464042762414, 38.552896783503847 ], [ -8.61857009258941, 38.552852473024068 ], [ -8.61874263789216, 38.552803737373743 ], [ -8.618880676489844, 38.552773886571998 ], [ -8.619045338895356, 38.55274608530781 ], [ -8.619167416220824, 38.552731702931744 ], [ -8.619396052565449, 38.552715172567886 ], [ -8.619624532790885, 38.552692685170861 ], [ -8.619846659201521, 38.552680323029698 ], [ -8.61992067285621, 38.552666140591192 ], [ -8.619989814523704, 38.552644323955342 ], [ -8.620072036568633, 38.552605874765923 ], [ -8.620227055192936, 38.552526943507104 ], [ -8.620356854110478, 38.552466407606147 ], [ -8.620497844266264, 38.552399520011519 ], [ -8.620693406960141, 38.552326906262657 ], [ -8.620850350079241, 38.552260489600037 ], [ -8.621037191063731, 38.552188364734064 ], [ -8.621161263895907, 38.552146945949424 ], [ -8.621352044352141, 38.552046425085877 ], [ -8.621555732800926, 38.551953781927693 ], [ -8.621790177403426, 38.55186433682757 ], [ -8.621966581464555, 38.55180927896491 ], [ -8.622128682427428, 38.551793015679443 ], [ -8.622256455670749, 38.551790677510169 ], [ -8.622404461013227, 38.55174222186605 ], [ -8.622557614243936, 38.551693029248177 ], [ -8.622671293962645, 38.551675074981176 ], [ -8.622799858769685, 38.551670574503383 ], [ -8.622929320788977, 38.551645975156475 ], [ -8.623230345640865, 38.551530036928781 ], [ -8.623470065672004, 38.551473809073201 ], [ -8.623686369703956, 38.551382005700525 ], [ -8.623831014673669, 38.551330053574311 ], [ -8.623984848271418, 38.551296163263501 ], [ -8.624142772016938, 38.551307570407104 ], [ -8.624275697022552, 38.551319174106155 ], [ -8.624385599455573, 38.551336817991192 ], [ -8.624528337608513, 38.551375586405371 ], [ -8.624690320457013, 38.551409763346967 ], [ -8.624786712439789, 38.551430530033414 ], [ -8.624999947760379, 38.551427376795218 ], [ -8.625203942810238, 38.551381837085565 ], [ -8.625404370274484, 38.551317843961051 ], [ -8.625656723433995, 38.551247594631434 ], [ -8.625826481263427, 38.551210398196872 ], [ -8.626085398557921, 38.551161108020572 ], [ -8.626373274393206, 38.551135658431484 ], [ -8.626562822124381, 38.551140717791711 ], [ -8.626749567738754, 38.551156232965624 ], [ -8.627019008909242, 38.551152480509678 ], [ -8.627305807572231, 38.551103793377429 ], [ -8.627404080363082, 38.551114547975281 ], [ -8.627579572253145, 38.551100557378888 ], [ -8.627861896093776, 38.551041446182616 ], [ -8.628089773489451, 38.551020208698397 ], [ -8.628287866856764, 38.550967662042126 ], [ -8.628428215548947, 38.550908599495095 ], [ -8.628575325784286, 38.550848430762954 ], [ -8.628650694120987, 38.55079865941584 ], [ -8.628787698975596, 38.550653491464658 ], [ -8.628881288815746, 38.550567876881637 ], [ -8.628988327949752, 38.550502018269135 ], [ -8.629132190768987, 38.550437720541993 ], [ -8.62948741308511, 38.550313698412509 ], [ -8.629600882368532, 38.550283395944071 ], [ -8.629695614615422, 38.550280023196038 ], [ -8.629924676556049, 38.5502508137197 ], [ -8.629985704724232, 38.55018780961268 ], [ -8.630181841161487, 38.549974194770407 ], [ -8.630335355690285, 38.549895165533037 ], [ -8.630396139151383, 38.549876170848307 ], [ -8.630513816374918, 38.549840895917683 ], [ -8.630648421137467, 38.549830325557039 ], [ -8.630827990344921, 38.549836405942429 ], [ -8.630930875652211, 38.549851643062091 ], [ -8.631015083792256, 38.549869117931642 ], [ -8.631094653828358, 38.54988040209799 ], [ -8.631180356557811, 38.549881385170949 ], [ -8.631263326826618, 38.549886528163135 ], [ -8.631332810584347, 38.549898212717203 ], [ -8.631408940110099, 38.549908786137372 ], [ -8.631575728475525, 38.549908436448803 ], [ -8.631986841179781, 38.549905688988261 ], [ -8.632660156717892, 38.549897947956644 ], [ -8.633902100016227, 38.549927382769411 ], [ -8.634310892115939, 38.549937700111904 ], [ -8.634664471411963, 38.549962731732215 ], [ -8.634930177488982, 38.550039732615517 ], [ -8.635173322863631, 38.55014768871883 ], [ -8.635328276205112, 38.55022692383772 ], [ -8.635377198727195, 38.550234374676826 ], [ -8.635451486618384, 38.550227930249854 ], [ -8.635831409440881, 38.55011125805143 ], [ -8.636284263356668, 38.549958776409014 ], [ -8.636481744492766, 38.549868565346493 ], [ -8.636680078638433, 38.549753031356694 ], [ -8.636843030904995, 38.549678910312103 ], [ -8.636993941960325, 38.549655828241967 ], [ -8.637243835165496, 38.549629529894816 ], [ -8.637376444867865, 38.549613549965088 ], [ -8.63756882734552, 38.54958200261904 ], [ -8.637694259191854, 38.549539750619296 ], [ -8.637904615457686, 38.549454344383108 ], [ -8.638075818333746, 38.549445675097836 ], [ -8.638553121822101, 38.549476134708705 ], [ -8.63911394256515, 38.549491178444477 ], [ -8.639495625392451, 38.551208674336685 ], [ -8.63956576802088, 38.551541857950461 ], [ -8.639587673234075, 38.551786158359967 ], [ -8.639584703295968, 38.552018360037586 ], [ -8.639621880015463, 38.552450202564366 ], [ -8.639658534065672, 38.55293909818014 ], [ -8.639706949102717, 38.553412542151293 ], [ -8.639753814646026, 38.553992024801005 ], [ -8.639797154963309, 38.554314331195172 ], [ -8.63999345818565, 38.555376011309775 ], [ -8.640344759354644, 38.557122764456516 ], [ -8.640604739223674, 38.558346888610416 ], [ -8.640922351316087, 38.56101946086558 ], [ -8.64086444644221, 38.562958662096307 ], [ -8.640875424933453, 38.563538752094324 ], [ -8.640881602073948, 38.563991519067677 ], [ -8.640885847623622, 38.565268887716222 ], [ -8.640892347033843, 38.56619245173335 ], [ -8.64091559383859, 38.567473461523015 ], [ -8.642511219768222, 38.569604112996437 ], [ -8.645689490604912, 38.573898960535317 ], [ -8.648219464502693, 38.57732024734495 ], [ -8.648771799231975, 38.579659421468648 ], [ -8.649468595205034, 38.58258051443795 ], [ -8.650580150422618, 38.587245477230411 ], [ -8.651104963065629, 38.589519178136449 ], [ -8.651101810954223, 38.589670889233389 ], [ -8.650994987994837, 38.589962509466538 ], [ -8.650978857690626, 38.590017710761778 ], [ -8.650906400257048, 38.590283870001883 ], [ -8.65086309512294, 38.59056619894578 ], [ -8.650844421464168, 38.590841844640444 ], [ -8.650856406829176, 38.591026131217319 ], [ -8.650905273932262, 38.591223295035299 ], [ -8.651002473868786, 38.591543140712048 ], [ -8.651061956437653, 38.591896671305207 ], [ -8.651130956187291, 38.592253883751688 ], [ -8.651221098769094, 38.59262281692105 ], [ -8.651247136501169, 38.592731968720926 ], [ -8.651319788958133, 38.593001803244682 ], [ -8.65135559973106, 38.59313923473124 ], [ -8.651418277349537, 38.593276750807355 ], [ -8.651480848084836, 38.59339937029614 ], [ -8.651571781843996, 38.593506967078575 ], [ -8.65183836694619, 38.593624958363193 ], [ -8.652157015059231, 38.593724097992272 ], [ -8.652373499291551, 38.593766156793578 ], [ -8.652553019782973, 38.59382985504309 ], [ -8.652729624373524, 38.593902849913576 ], [ -8.652822892534664, 38.593937142935992 ], [ -8.652908842254883, 38.594011243624365 ], [ -8.653052191449776, 38.594148400463482 ], [ -8.653200420578861, 38.594304155585206 ], [ -8.653282432314073, 38.594489997988546 ], [ -8.653336161071651, 38.594702035161895 ], [ -8.653410430761845, 38.595129980990876 ], [ -8.653494245383232, 38.595565332355562 ], [ -8.653581435128, 38.596060043181033 ], [ -8.653623609824898, 38.596272808067681 ], [ -8.653628313413991, 38.596621318913712 ], [ -8.653632838410825, 38.596929197729153 ], [ -8.653612331176443, 38.59752077069323 ], [ -8.653602219942623, 38.597678371582873 ], [ -8.653613689718917, 38.597708407361978 ], [ -8.653686270455411, 38.597777085333121 ], [ -8.653851483998887, 38.597876163965843 ], [ -8.653994060476027, 38.59798830785261 ], [ -8.654048764457414, 38.598045085935873 ], [ -8.654187209334017, 38.598188061731967 ], [ -8.654341069721985, 38.598320517283021 ], [ -8.654500112711398, 38.59842366809125 ], [ -8.654643766092715, 38.598509687737447 ], [ -8.654741187270089, 38.598583928658009 ], [ -8.654805547654311, 38.598657867368146 ], [ -8.654833923989919, 38.598708909751956 ], [ -8.654949237838302, 38.59897080347119 ], [ -8.655077352042429, 38.599193094485322 ], [ -8.655205319500126, 38.59937917358566 ], [ -8.65536384838132, 38.599553135133526 ], [ -8.655645440364927, 38.599774829655097 ], [ -8.655884416130844, 38.599945455812431 ], [ -8.656038856226568, 38.600077276805095 ], [ -8.656131828936651, 38.600218378805017 ], [ -8.656278569756624, 38.600459950305805 ], [ -8.656534015383334, 38.600668340781453 ], [ -8.656925762281009, 38.600930612691528 ], [ -8.657304452092683, 38.601227177745017 ], [ -8.65770728392955, 38.601560112375729 ], [ -8.658029122439961, 38.60182008239105 ], [ -8.658177784556488, 38.601977242394163 ], [ -8.658265128879737, 38.602117285995114 ], [ -8.658322654897985, 38.60232331480487 ], [ -8.658388834630985, 38.602645242229393 ], [ -8.658442564083725, 38.602896959089314 ], [ -8.65846794011426, 38.603148718526462 ], [ -8.658458287406178, 38.603423427057152 ], [ -8.658417367317806, 38.603669404396094 ], [ -8.658366222656309, 38.603814874476647 ], [ -8.658187835522744, 38.604083812798272 ], [ -8.658037386268298, 38.604287852386648 ], [ -8.657911398721888, 38.604469935198011 ], [ -8.65776168240971, 38.604655814948636 ], [ -8.657621441323371, 38.604819497973864 ], [ -8.657519891683691, 38.604906117281288 ], [ -8.657477883534938, 38.605003132812989 ], [ -8.657469203932679, 38.605114895982737 ], [ -8.657403737792945, 38.60524925862012 ], [ -8.657333470301023, 38.605376193781865 ], [ -8.657291515816624, 38.605480657044303 ], [ -8.65723054984695, 38.605581481419087 ], [ -8.657094532681123, 38.605673950654143 ], [ -8.656972463637182, 38.605763409781964 ], [ -8.656850342770552, 38.605830619468449 ], [ -8.656815988991275, 38.605873559834578 ], [ -8.656803142160159, 38.605954062148427 ], [ -8.656763750961233, 38.60609386402551 ], [ -8.656724323227925, 38.606244298519492 ], [ -8.656714868960325, 38.606428470006811 ], [ -8.656705316452291, 38.606598497131202 ], [ -8.656704005295168, 38.60678047288711 ], [ -8.656748399355294, 38.606949537952254 ], [ -8.656767905979022, 38.607042595336765 ], [ -8.656762973024627, 38.607106123054429 ], [ -8.656745170321329, 38.607151788197783 ], [ -8.656655468979015, 38.607288664932859 ], [ -8.656554600898325, 38.607452347026715 ], [ -8.656545351664688, 38.60750616329954 ], [ -8.656542097595125, 38.607690034951027 ], [ -8.656531506296073, 38.607812599370035 ], [ -8.656499662659076, 38.607854179865207 ], [ -8.656385482129535, 38.607939369186738 ], [ -8.656223588636644, 38.608078910528363 ], [ -8.655815367979503, 38.608446385060986 ], [ -8.655241866319068, 38.608914491201595 ], [ -8.654991937797119, 38.609069825950137 ], [ -8.654270572304778, 38.609735936302748 ], [ -8.653545341596242, 38.610322579374035 ], [ -8.653223014322544, 38.610600835781604 ], [ -8.653061685958422, 38.610724428266295 ], [ -8.652922666651108, 38.610821704655507 ], [ -8.652900593475362, 38.610865672088238 ], [ -8.652935129438857, 38.611005959424396 ], [ -8.65316853053382, 38.611575499004822 ], [ -8.653470021882326, 38.6122722040921 ], [ -8.653310671005055, 38.612257511170029 ], [ -8.652875324431347, 38.612260979836407 ], [ -8.652491973881704, 38.612309439419782 ], [ -8.652261378452245, 38.61233478864056 ], [ -8.652076477620104, 38.612359208692432 ], [ -8.651883062772752, 38.612397273189437 ], [ -8.651651157590251, 38.612462443565789 ], [ -8.651475028773126, 38.612493675485048 ], [ -8.651350398526432, 38.612517916564201 ], [ -8.651174228322672, 38.612559235674375 ], [ -8.651053850961832, 38.612583372931191 ], [ -8.650873285638042, 38.612604445139084 ], [ -8.650649520773483, 38.612605437733706 ], [ -8.650460176102046, 38.612602939261166 ], [ -8.650202189562011, 38.612634441066497 ], [ -8.6500087010638, 38.612662324349444 ], [ -8.649759058686088, 38.612656674247994 ], [ -8.649488021129415, 38.612678139236934 ], [ -8.649303184373403, 38.612695895713756 ], [ -8.649152525512562, 38.612724575043217 ], [ -8.648917027670008, 38.612786694839635 ], [ -8.648685890154781, 38.612863745975794 ], [ -8.648429495192216, 38.612909647391895 ], [ -8.648254319153613, 38.612929966661405 ], [ -8.648088580407642, 38.612953128583911 ], [ -8.647933243168481, 38.612986331969765 ], [ -8.647787462498396, 38.61303859605308 ], [ -8.647630644999396, 38.61315377990114 ], [ -8.647527727126549, 38.613242962045909 ], [ -8.647455944250622, 38.613320209116857 ], [ -8.647272233191549, 38.613479566533137 ], [ -8.646816756730088, 38.613767402098318 ], [ -8.646530077678941, 38.613914234831789 ], [ -8.646278067095896, 38.614027675216946 ], [ -8.646136271888508, 38.614076401133886 ], [ -8.645992765343641, 38.614126040611865 ], [ -8.645894832699298, 38.614159078851216 ], [ -8.645839711276592, 38.614190308838893 ], [ -8.645818134381079, 38.614255711527463 ], [ -8.645788301613173, 38.614306199360648 ], [ -8.645769567281354, 38.614335920445598 ], [ -8.645739674975246, 38.614379019945083 ], [ -8.645623594330267, 38.614506993624524 ], [ -8.645439998032245, 38.614619232603886 ], [ -8.645222053381874, 38.614744681813114 ], [ -8.644963499606719, 38.614778877945049 ], [ -8.644770522166798, 38.614879804689807 ], [ -8.64453949109258, 38.615005759361622 ], [ -8.644367669775981, 38.615127856086566 ], [ -8.644185589421577, 38.6153726836624 ], [ -8.644047559451465, 38.615547147812407 ], [ -8.643985814856217, 38.615615162275809 ], [ -8.643932030529871, 38.615673140076801 ], [ -8.643874824347636, 38.615717978918184 ], [ -8.643816807618782, 38.615745349735654 ], [ -8.643629438913155, 38.615828052512924 ], [ -8.643555480262965, 38.615858462779237 ], [ -8.643498015419787, 38.615883218633734 ], [ -8.643459841798231, 38.615907884917661 ], [ -8.643433662598078, 38.615940068524992 ], [ -8.643399631702655, 38.616014178410623 ], [ -8.643372824129715, 38.616087979331915 ], [ -8.643330969005145, 38.616159777562984 ], [ -8.643196964151896, 38.616255399914188 ], [ -8.643001923808088, 38.616357777651395 ], [ -8.642843488006873, 38.616424858867973 ], [ -8.642653821987659, 38.616491447994569 ], [ -8.642500180868547, 38.616554366767183 ], [ -8.642369299991827, 38.616636730616378 ], [ -8.64222315450535, 38.616786003869208 ], [ -8.642118705946297, 38.616904464754057 ], [ -8.642065061738386, 38.616966045287803 ], [ -8.641972365309801, 38.617025454386756 ], [ -8.641744711603444, 38.617144362389006 ], [ -8.64130711964256, 38.617320939408032 ], [ -8.641055368361034, 38.617425810451799 ], [ -8.640914482230377, 38.617490110390179 ], [ -8.640838406731172, 38.617546562010084 ], [ -8.640683258188641, 38.617721817097724 ], [ -8.64063856798446, 38.617783357231168 ], [ -8.640537228180445, 38.617903605763786 ], [ -8.640469502989284, 38.617987767284646 ], [ -8.640335944287813, 38.61809852190013 ], [ -8.640167120616281, 38.618223925285115 ], [ -8.640028409843683, 38.61833677017092 ], [ -8.639959799936465, 38.618409407350526 ], [ -8.639896179836679, 38.618489675398003 ], [ -8.639849878177937, 38.618534827164446 ], [ -8.639443621995508, 38.618777021816932 ], [ -8.639195877455489, 38.618913307651525 ], [ -8.638933291607913, 38.619046415045673 ], [ -8.63876365800915, 38.619138406448542 ], [ -8.638535378007401, 38.619251094297567 ], [ -8.638406539169301, 38.619315882369413 ], [ -8.638354454700213, 38.619354660845559 ], [ -8.638323616353514, 38.619394610523663 ], [ -8.638305883945995, 38.619435853045957 ], [ -8.638296304266433, 38.61946157245989 ], [ -8.638282041847328, 38.619474334786823 ], [ -8.638222266774219, 38.619514500348494 ], [ -8.638101724153669, 38.619582851070554 ], [ -8.637900154232634, 38.619705967470146 ], [ -8.637730878436573, 38.619800925852978 ], [ -8.63736007323412, 38.620008544293654 ], [ -8.637029328101669, 38.620181129765413 ], [ -8.636864110600415, 38.6202813851896 ], [ -8.636708814729648, 38.620372767779614 ], [ -8.63656153746088, 38.620493482595094 ], [ -8.636291810961483, 38.620738766731243 ], [ -8.635948649739833, 38.621075351087221 ], [ -8.635733211509294, 38.621333915698919 ], [ -8.635632142676323, 38.621494877017632 ], [ -8.635398839117002, 38.621860081841916 ], [ -8.635190498115632, 38.622215720398593 ], [ -8.635037956646832, 38.622503827518898 ], [ -8.634817376031958, 38.622985753315866 ], [ -8.634761084941045, 38.623082822640612 ], [ -8.634756597426962, 38.623120082921147 ], [ -8.634794781777291, 38.623149712216929 ], [ -8.634838733572614, 38.623178770868471 ], [ -8.634918564353491, 38.62324788309158 ], [ -8.634966768045135, 38.623305387752374 ], [ -8.634971982205178, 38.623372399438239 ], [ -8.634943914494322, 38.623432105845744 ], [ -8.634873356332802, 38.623525511493483 ], [ -8.634802720151024, 38.623607745391155 ], [ -8.634798699666772, 38.623712037714427 ], [ -8.634767205428259, 38.623854695991653 ], [ -8.6347537192533, 38.624069746676483 ], [ -8.634698776225406, 38.624360464270943 ], [ -8.63462721186295, 38.6244775820009 ], [ -8.634567187821766, 38.624548014484276 ], [ -8.634392063264627, 38.624695329229631 ], [ -8.634261552593694, 38.624834165934715 ], [ -8.634196773869848, 38.624981006797164 ], [ -8.634147330732432, 38.625053558430118 ], [ -8.633794690378069, 38.62541818985909 ], [ -8.633679804549228, 38.62552606252801 ], [ -8.633519720843404, 38.625722857905728 ], [ -8.633465048923842, 38.625803626416165 ], [ -8.633126948824636, 38.626360068531312 ], [ -8.633007109179292, 38.626532005878296 ], [ -8.632728650505754, 38.626996401460147 ], [ -8.632653677944367, 38.62718057912209 ], [ -8.632628737493512, 38.627375536809652 ], [ -8.632503615427417, 38.627547405187201 ], [ -8.632358187552484, 38.627806111342359 ], [ -8.6322509864066, 38.627978899282574 ], [ -8.632166664879513, 38.628090510884903 ], [ -8.632014863736686, 38.628191330936495 ], [ -8.631704342652741, 38.628390206472396 ], [ -8.631302187925955, 38.628672982386512 ], [ -8.6309632223824, 38.628894225640536 ], [ -8.630733632259188, 38.629023303280881 ], [ -8.63044437047262, 38.629224879399288 ], [ -8.630243205464449, 38.629362029148339 ], [ -8.629921155698856, 38.629555548475047 ], [ -8.629621206124048, 38.629757167032501 ], [ -8.629451845831639, 38.629877514279151 ], [ -8.629254327587836, 38.630028611439322 ], [ -8.628940235474294, 38.630244160919453 ], [ -8.62872342756747, 38.630378767350123 ], [ -8.628465445880733, 38.630505076351319 ], [ -8.628002209252783, 38.630676753918529 ], [ -8.627477227363967, 38.630854278383879 ], [ -8.627201267868086, 38.630938951467087 ], [ -8.626919355121741, 38.630993114666936 ], [ -8.626452417092139, 38.631145346607774 ], [ -8.626091759120454, 38.631272085082628 ], [ -8.625939928738161, 38.631337137313743 ], [ -8.625773361454989, 38.631398013923771 ], [ -8.625635510817434, 38.631425350612396 ], [ -8.625573786381354, 38.631434349338477 ], [ -8.625363920586539, 38.631477664962361 ], [ -8.624751045743238, 38.631735810457045 ], [ -8.624235335283345, 38.631995436642029 ], [ -8.624118183448745, 38.632060788641816 ], [ -8.624009939390406, 38.632135829354148 ], [ -8.623894300593731, 38.632238379744472 ], [ -8.623876017946861, 38.632251790443803 ], [ -8.6236260614714, 38.632462551566626 ], [ -8.62339285964531, 38.632637749447412 ], [ -8.623143905512546, 38.632810580612762 ], [ -8.622792043094663, 38.633032852274702 ], [ -8.622415377283312, 38.633272517039458 ], [ -8.622259810854008, 38.633381087243109 ], [ -8.622158838296869, 38.633445287739683 ], [ -8.62206519446525, 38.633472705677462 ], [ -8.621958917140772, 38.633465761223675 ], [ -8.621843021205096, 38.63344661104373 ], [ -8.621777375259676, 38.633437065361143 ], [ -8.621699199122395, 38.633442350898889 ], [ -8.621608709227514, 38.633459844427726 ], [ -8.621543216116541, 38.633489574830939 ], [ -8.62146232397741, 38.633551260469204 ], [ -8.621378418037031, 38.633625295422227 ], [ -8.621297642845404, 38.633704097927215 ], [ -8.62124182105487, 38.633770630631311 ], [ -8.621183040685404, 38.633841228460518 ], [ -8.621056118014012, 38.633924095946718 ], [ -8.620884518394282, 38.634056334590746 ], [ -8.620717905473175, 38.634196292983866 ], [ -8.620576172432665, 38.634312641361959 ], [ -8.620469193984139, 38.634389570649638 ], [ -8.620330129653786, 38.634527526498488 ], [ -8.620052794393194, 38.63490261426638 ], [ -8.619847366887329, 38.635213442786345 ], [ -8.619795429327786, 38.635294103374434 ], [ -8.619644298055427, 38.63565190613722 ], [ -8.619605071988271, 38.635777645974073 ], [ -8.619537007835209, 38.636055649522064 ], [ -8.619512927676194, 38.636196639459101 ], [ -8.619514130981582, 38.636255730330994 ], [ -8.619523909728994, 38.636427922770714 ], [ -8.619545938111671, 38.636695196715856 ], [ -8.619540593266892, 38.636754220221619 ], [ -8.619486311285351, 38.636845248979682 ], [ -8.619337046052072, 38.636970456112373 ], [ -8.619161649716206, 38.637086761575453 ], [ -8.618963463783723, 38.637212442609659 ], [ -8.618893934931121, 38.637257502291703 ], [ -8.618754645505952, 38.637312129121447 ], [ -8.618634857447654, 38.637363613855072 ], [ -8.618538878807991, 38.63741959568253 ], [ -8.618450805672904, 38.63749094782726 ], [ -8.618375397215413, 38.637566208298608 ], [ -8.618261567652498, 38.637716938750245 ], [ -8.618191849260805, 38.637869825639946 ], [ -8.618082186043901, 38.638212684403342 ], [ -8.617971858914794, 38.638458345989719 ], [ -8.617878567000647, 38.638606734368786 ], [ -8.617726144373, 38.638741592223951 ], [ -8.61754422836659, 38.638862608335849 ], [ -8.617321310635123, 38.639034689522397 ], [ -8.617210260591403, 38.639173966055665 ], [ -8.617076356611603, 38.639415127420648 ], [ -8.616913006559132, 38.639684071996861 ], [ -8.616784368476759, 38.639837293533688 ], [ -8.616723195621029, 38.639877993413862 ], [ -8.616654967744875, 38.63991196624341 ], [ -8.616583148450079, 38.639941358772838 ], [ -8.616482597080269, 38.6399672711837 ], [ -8.616395635491331, 38.639982223798562 ], [ -8.616305214988541, 38.639995388987295 ], [ -8.61620092825954, 38.639995463841714 ], [ -8.616077972361936, 38.640037948989885 ], [ -8.615946855642711, 38.64009686268318 ], [ -8.615728915882341, 38.640224870890293 ], [ -8.615587751325545, 38.640326526479136 ], [ -8.615464471332697, 38.640441261987938 ], [ -8.615372422648537, 38.640553163452537 ], [ -8.615297949262214, 38.640666251757352 ], [ -8.615291015853932, 38.640745194293736 ], [ -8.615307586200217, 38.640853133858435 ], [ -8.615304788621444, 38.640982949578671 ], [ -8.61523479020887, 38.641214931717442 ], [ -8.615106913652205, 38.641499759477391 ], [ -8.615018663560148, 38.641682630796971 ], [ -8.614916995475614, 38.641851504459382 ], [ -8.614805858561796, 38.641960781598485 ], [ -8.614676448010721, 38.642017527560185 ], [ -8.61460636603781, 38.642032857072024 ], [ -8.614437972632999, 38.642441802331746 ], [ -8.614169993203571, 38.642920702240026 ], [ -8.61395426166251, 38.643208503195105 ], [ -8.6134382155025, 38.643762021596018 ], [ -8.6132100662241, 38.643998162176317 ], [ -8.612946950954004, 38.644243635026797 ], [ -8.612687730009393, 38.644489093116604 ], [ -8.612544756937778, 38.644648585252789 ], [ -8.612390709273944, 38.644689641813756 ] ] ] } }
]
}
