{
"type": "FeatureCollection",
"name": "CAOP_Entroncamento_freg",
"crs": { "type": "name", "properties": { "name": "urn:ogc:def:crs:OGC:1.3:CRS84" } },
"features": [
{ "type": "Feature", "properties": { "dtmnfr": "141001", "freguesia": "São João Baptista", "municipio": "Entroncamento", "distrito_i": "Santarém", "nuts3_cod": "1D2", "nuts3": "Médio Tejo", "nuts2": "Oeste e Vale do Tejo", "nuts1": "Continente", "area_ha": 456.05, "perimetro_": 14, "designacao": "São João Baptista" }, "geometry": { "type": "Polygon", "coordinates": [ [ [ -8.456505284659364, 39.490614826688486 ], [ -8.456530922714924, 39.49060358674339 ], [ -8.456582163746933, 39.490573541984745 ], [ -8.456605634898002, 39.490521148026858 ], [ -8.456613301929893, 39.490419707378209 ], [ -8.456635327540315, 39.490282919476172 ], [ -8.456651232121242, 39.490177584707105 ], [ -8.456635465783672, 39.490088011979651 ], [ -8.456583622322198, 39.489988719325254 ], [ -8.456467527373846, 39.489794765603293 ], [ -8.456420929669692, 39.489723920293123 ], [ -8.456362117916672, 39.489674816607021 ], [ -8.456151838850806, 39.489550841872983 ], [ -8.455995066561268, 39.489459408067376 ], [ -8.455906464120638, 39.489402911988194 ], [ -8.455872352388818, 39.48936715715535 ], [ -8.455776225402735, 39.489268078912325 ], [ -8.455711139514547, 39.489195035573552 ], [ -8.455683159511073, 39.489127022334443 ], [ -8.455663166201054, 39.489027731858059 ], [ -8.455657527957721, 39.488939569294899 ], [ -8.455679453855174, 39.488779634809468 ], [ -8.455710631562058, 39.488635347671234 ], [ -8.455750215108109, 39.488523374011663 ], [ -8.455818123379963, 39.488303594793976 ], [ -8.455844591269095, 39.488245968611217 ], [ -8.455852511834816, 39.488198928453542 ], [ -8.455877039304461, 39.488148781630308 ], [ -8.455919869173979, 39.488085885067484 ], [ -8.455983024364961, 39.48804400655559 ], [ -8.456210608577623, 39.487914933221077 ], [ -8.45642710239631, 39.487802374830999 ], [ -8.456616764301163, 39.487719520014814 ], [ -8.456700819095659, 39.487671456422774 ], [ -8.456818476726351, 39.487576829573506 ], [ -8.456871657825612, 39.487514709060953 ], [ -8.456918614688526, 39.487439913236422 ], [ -8.456951135735235, 39.48735911842499 ], [ -8.456995890125587, 39.487260366560974 ], [ -8.457094552843813, 39.487055454258673 ], [ -8.457191433969919, 39.486893059728601 ], [ -8.457250456173361, 39.486787332625788 ], [ -8.457381601872015, 39.48659503113943 ], [ -8.457430288590519, 39.486516531111199 ], [ -8.457491197119703, 39.486391889385395 ], [ -8.457538215486903, 39.486304117684831 ], [ -8.457580795152413, 39.486213208612568 ], [ -8.457612511554064, 39.486135389947975 ], [ -8.45762566067142, 39.486088697142989 ], [ -8.457646630764883, 39.485999111127782 ], [ -8.457677342649387, 39.485879773109772 ], [ -8.457694671069245, 39.485732464363096 ], [ -8.457715474080127, 39.485558479870456 ], [ -8.457751849006414, 39.485332215961002 ], [ -8.457781685724617, 39.485224495737 ], [ -8.457789417293457, 39.485138914218048 ], [ -8.457807429792439, 39.484989076169761 ], [ -8.457838221496392, 39.484887302363958 ], [ -8.457873765836299, 39.484807490486695 ], [ -8.457938470812174, 39.484724354630572 ], [ -8.458048545248156, 39.484600923565964 ], [ -8.458188749449052, 39.484432010319303 ], [ -8.458218023838315, 39.48437923768067 ], [ -8.458241683867753, 39.484292975692178 ], [ -8.458267561874887, 39.484085471828053 ], [ -8.458287351491284, 39.483943375608959 ], [ -8.458332319576527, 39.483840214567238 ], [ -8.458391647454143, 39.483751868540217 ], [ -8.458546963981082, 39.483584176242928 ], [ -8.458573515813091, 39.483470611346611 ], [ -8.458583811906403, 39.483386365512516 ], [ -8.458599922967899, 39.483202851938763 ], [ -8.458630236268608, 39.482999121173563 ], [ -8.458636781469723, 39.48288372169295 ], [ -8.458632760775462, 39.482793667695574 ], [ -8.458617304802335, 39.482720480646634 ], [ -8.458575923251004, 39.482620083131017 ], [ -8.458543499123833, 39.482546230209216 ], [ -8.458495862755125, 39.482476379312899 ], [ -8.458415957731214, 39.482365727001536 ], [ -8.458385381095187, 39.482313394636776 ], [ -8.458380745336134, 39.482291337809706 ], [ -8.45839676654299, 39.482263374968426 ], [ -8.458426026050448, 39.482231584953624 ], [ -8.458522319540092, 39.482168899871645 ], [ -8.458647780190583, 39.482080368600755 ], [ -8.458837969946618, 39.481939145217133 ], [ -8.458947263989314, 39.48184876744012 ], [ -8.459036974520615, 39.481769431162476 ], [ -8.459145867508461, 39.481691847831627 ], [ -8.459258725873111, 39.481618214544739 ], [ -8.459370025413453, 39.481558275226526 ], [ -8.459604973757182, 39.481446195865296 ], [ -8.459799725186471, 39.481311894363493 ], [ -8.459964187226719, 39.481187673620887 ], [ -8.460045920539887, 39.481119351097149 ], [ -8.460144588850707, 39.481041972108869 ], [ -8.460237871692742, 39.480982626646735 ], [ -8.460314450745289, 39.480929895100807 ], [ -8.460435329063989, 39.480856328168002 ], [ -8.460558076256973, 39.480785276899596 ], [ -8.460639971428749, 39.480725420059073 ], [ -8.460695842849448, 39.480669510377581 ], [ -8.460739226889647, 39.4806020159496 ], [ -8.460858843339665, 39.480408390000406 ], [ -8.460988210170692, 39.480212934133782 ], [ -8.46106887563443, 39.480115428577939 ], [ -8.461181823964987, 39.480036930288755 ], [ -8.46125082899742, 39.480005208452951 ], [ -8.46159122011875, 39.479922641466004 ], [ -8.461871351529187, 39.479879605268771 ], [ -8.462185765551455, 39.479786390775374 ], [ -8.462631770452987, 39.479600028011788 ], [ -8.46288322296706, 39.479488978774484 ], [ -8.463055502080664, 39.479373649276155 ], [ -8.463266994699602, 39.479193539873293 ], [ -8.463498130913358, 39.478966801876219 ], [ -8.463854383027279, 39.478605059552542 ], [ -8.463989639227549, 39.478477135912506 ], [ -8.464089046506723, 39.478362915597657 ], [ -8.46414528045899, 39.478237105429137 ], [ -8.464110160214346, 39.478110660008788 ], [ -8.464030814362005, 39.478044507080462 ], [ -8.463943959042942, 39.477963059989243 ], [ -8.463769802964196, 39.477707674169785 ], [ -8.463717258521299, 39.47755794647415 ], [ -8.463693133477207, 39.477397241313454 ], [ -8.463696852070736, 39.47712900637864 ], [ -8.463679110117932, 39.477015930000874 ], [ -8.463594046867437, 39.476797302971541 ], [ -8.463550466347739, 39.476699616374368 ], [ -8.463511526251878, 39.476576780782771 ], [ -8.463519807512229, 39.476485247190439 ], [ -8.463566122414941, 39.476375591550749 ], [ -8.463649298952655, 39.47619593781576 ], [ -8.463680838132827, 39.476107850818551 ], [ -8.463708224232308, 39.475903044186815 ], [ -8.463754377250742, 39.475736013522528 ], [ -8.46379702249684, 39.475586648304578 ], [ -8.463838633908352, 39.475514743386569 ], [ -8.463874232601546, 39.475473390139349 ], [ -8.463903587144939, 39.475414938667548 ], [ -8.463922895662458, 39.475320670663535 ], [ -8.463926226558037, 39.475238971423487 ], [ -8.463927687455506, 39.475032618103604 ], [ -8.463944714228612, 39.474972405693848 ], [ -8.463972409856618, 39.47485748240868 ], [ -8.463999316536247, 39.474796340278985 ], [ -8.464005037866839, 39.474704813909341 ], [ -8.463998308741759, 39.474584589774786 ], [ -8.463963159331058, 39.474476068216283 ], [ -8.463961602886677, 39.474393570438174 ], [ -8.463968539768111, 39.47428852742155 ], [ -8.464013875743845, 39.474217512527837 ], [ -8.464131844696874, 39.474096846121121 ], [ -8.464239967949062, 39.473984402186829 ], [ -8.464280498047799, 39.47392862087986 ], [ -8.464308452944644, 39.473845048282982 ], [ -8.464321637582323, 39.4737580041215 ], [ -8.46434303743929, 39.473591043665031 ], [ -8.464363532381805, 39.473477858403903 ], [ -8.464402341727713, 39.473304631711621 ], [ -8.464455639332154, 39.473100743558291 ], [ -8.464489552818167, 39.472949962684616 ], [ -8.464505796425819, 39.472725373032191 ], [ -8.464534338826994, 39.472495615234116 ], [ -8.464536402976254, 39.472417517841123 ], [ -8.464501198812144, 39.472273145133656 ], [ -8.464415226665817, 39.472131717332772 ], [ -8.464306766937355, 39.471905858924323 ], [ -8.46426665177348, 39.47177852873746 ], [ -8.464244071578106, 39.471697893992122 ], [ -8.464163261118742, 39.471566888593863 ], [ -8.464019082169948, 39.471356362396698 ], [ -8.463912363091378, 39.471249933159463 ], [ -8.463817014084166, 39.471190041243936 ], [ -8.463766500422082, 39.470954201667716 ], [ -8.463758640596581, 39.470840197282513 ], [ -8.463788785047305, 39.470703746588853 ], [ -8.46384336624412, 39.47050075477398 ], [ -8.463895432839356, 39.470257869095249 ], [ -8.463887352517524, 39.469853122247926 ], [ -8.46386805396363, 39.469632328322831 ], [ -8.463814012509557, 39.469289317289558 ], [ -8.463803727403125, 39.469055976173657 ], [ -8.463807264760474, 39.468945003524333 ], [ -8.463833344957985, 39.468882781083089 ], [ -8.46390735416175, 39.468683605131027 ], [ -8.463975137659814, 39.468543804749686 ], [ -8.464029875347828, 39.468423132680485 ], [ -8.464156818918021, 39.468213270429573 ], [ -8.464337086218082, 39.467926784956347 ], [ -8.464454748979003, 39.467768647165393 ], [ -8.464514953866361, 39.467698672278551 ], [ -8.464550167772487, 39.467624892876607 ], [ -8.464563181238423, 39.467576040558683 ], [ -8.464537677223495, 39.467491986080439 ], [ -8.464503110442582, 39.467406972956262 ], [ -8.464492276970693, 39.467353412185652 ], [ -8.464484077964219, 39.467291288158634 ], [ -8.46447575436542, 39.467201422028253 ], [ -8.464439978298275, 39.467132622222572 ], [ -8.46434872255152, 39.467051640852141 ], [ -8.464179710055365, 39.466919092351453 ], [ -8.464091404439531, 39.466872506412578 ], [ -8.463906934911769, 39.466812778958605 ], [ -8.463715833090937, 39.46675018602447 ], [ -8.463596974999065, 39.466656851061849 ], [ -8.463575566419641, 39.466577471060766 ], [ -8.463582724544892, 39.466371821807229 ], [ -8.463544060476549, 39.466281055542154 ], [ -8.463429443396146, 39.466247872410698 ], [ -8.463341068085128, 39.46621084071905 ], [ -8.463285559812933, 39.466145966882713 ], [ -8.463229728897092, 39.466036149901356 ], [ -8.463147758182362, 39.465953163274577 ], [ -8.4630856889351, 39.4658997486518 ], [ -8.462970449383487, 39.465736509335009 ], [ -8.462868650804161, 39.465637361638493 ], [ -8.462704719370572, 39.46549623989398 ], [ -8.462653022174875, 39.465400734741202 ], [ -8.462663012453993, 39.465301269128922 ], [ -8.462634887344166, 39.465178945466882 ], [ -8.462602710325248, 39.465009796862219 ], [ -8.462562399407817, 39.464839680516022 ], [ -8.462484852792082, 39.464586448509749 ], [ -8.462459433647885, 39.464493747464687 ], [ -8.462458953271041, 39.464392328164486 ], [ -8.462424268964124, 39.464306413103316 ], [ -8.462278962548925, 39.464172892130925 ], [ -8.462117656795815, 39.46402032228913 ], [ -8.461864101081423, 39.463822982515104 ], [ -8.461759724534984, 39.463742037047787 ], [ -8.462083736965404, 39.463457666900382 ], [ -8.462089596415636, 39.463370191404671 ], [ -8.462070520595974, 39.462973939824117 ], [ -8.46197644169251, 39.461434381488594 ], [ -8.461920678391882, 39.460649946728324 ], [ -8.461647761662872, 39.459203577841961 ], [ -8.461525870042694, 39.458537047427406 ], [ -8.461495220830317, 39.458173257849857 ], [ -8.461455842748608, 39.457190978503597 ], [ -8.461442422638822, 39.456810293461963 ], [ -8.461440087409633, 39.456290689811887 ], [ -8.461487931603966, 39.455989811353376 ], [ -8.461795099161737, 39.454852980409299 ], [ -8.461925934794094, 39.454387763744762 ], [ -8.462077104541441, 39.453924558297075 ], [ -8.462260975579165, 39.453644189056895 ], [ -8.462666921920027, 39.453203404110162 ], [ -8.463449859832689, 39.452344969205939 ], [ -8.463823769003641, 39.45188958968663 ], [ -8.464211069097077, 39.451367790854725 ], [ -8.465356340118394, 39.449782351827963 ], [ -8.466040596045257, 39.448854651186821 ], [ -8.466227636088112, 39.448660552821025 ], [ -8.466945991608553, 39.447920092525237 ], [ -8.46771761881773, 39.447123723665811 ], [ -8.467747318289884, 39.447067161443684 ], [ -8.4681737357716, 39.446647195188532 ], [ -8.468788592503662, 39.446012313616571 ], [ -8.469228809171478, 39.44556681190813 ], [ -8.469578258105985, 39.445208399809061 ], [ -8.469703911106999, 39.445054830233722 ], [ -8.469838814766854, 39.444953023273861 ], [ -8.469898646831265, 39.44493140159382 ], [ -8.470110725333727, 39.444930787307555 ], [ -8.470207233597597, 39.444866164105868 ], [ -8.470331299945006, 39.444780012480983 ], [ -8.47051977379809, 39.444665075669846 ], [ -8.470726653973555, 39.444542937144021 ], [ -8.470836940118982, 39.444467548749081 ], [ -8.471020820092845, 39.444356199352555 ], [ -8.471296542126764, 39.444169515343397 ], [ -8.47145279261027, 39.44406539537556 ], [ -8.471595297304043, 39.443979188757226 ], [ -8.471752726156998, 39.443876057530105 ], [ -8.471903302159248, 39.443786175581181 ], [ -8.472046809465771, 39.443699021549534 ], [ -8.472211294502264, 39.443578476553697 ], [ -8.472347805014206, 39.443486204034279 ], [ -8.472424819498166, 39.443437519741373 ], [ -8.47252982917089, 39.443365697499104 ], [ -8.472613822029981, 39.443319514685648 ], [ -8.472732853536405, 39.443239996251307 ], [ -8.472855295284065, 39.44314515127094 ], [ -8.472998662316096, 39.443029891818064 ], [ -8.47314553815877, 39.442896699730944 ], [ -8.473243302543102, 39.442791751231482 ], [ -8.47331678077783, 39.442732809565783 ], [ -8.47340764707597, 39.442643195764255 ], [ -8.473491616710501, 39.442568913133009 ], [ -8.473593004149857, 39.442492052080283 ], [ -8.473673496505699, 39.442443272108044 ], [ -8.473792612608502, 39.442381670029242 ], [ -8.473929242934133, 39.442314886101798 ], [ -8.474072918591348, 39.442263394222238 ], [ -8.474202651036762, 39.442211945757087 ], [ -8.474360318382049, 39.44214762249922 ], [ -8.474581162015818, 39.442080586197541 ], [ -8.47483351008229, 39.441993107325324 ], [ -8.475054340014028, 39.441923461727342 ], [ -8.475205121543935, 39.441877079766755 ], [ -8.475475069562634, 39.441802246756517 ], [ -8.475691769042262, 39.441742880126931 ], [ -8.47591615883398, 39.441688623538369 ], [ -8.476133545674912, 39.441626733890949 ], [ -8.476358177176634, 39.441597963848245 ], [ -8.476554516101722, 39.441556492328814 ], [ -8.476548369108478, 39.441605054802224 ], [ -8.476692116599182, 39.441568873236868 ], [ -8.476965642535273, 39.441514469468601 ], [ -8.477270894846036, 39.441462492255553 ], [ -8.477818212114746, 39.441384398164672 ], [ -8.47792132164324, 39.441376339285348 ], [ -8.478223138487296, 39.441334643183964 ], [ -8.478573973328851, 39.441292703445164 ], [ -8.47893877531398, 39.441209923749973 ], [ -8.479268407395406, 39.441132376190872 ], [ -8.47964019769039, 39.441054615636943 ], [ -8.479983908008586, 39.440982162620891 ], [ -8.480236288372343, 39.440904758008969 ], [ -8.480495808424411, 39.440837595044258 ], [ -8.480923378419126, 39.440693372892206 ], [ -8.481098703098741, 39.440631599735688 ], [ -8.481323046942082, 39.440569677773489 ], [ -8.481512338736696, 39.44051290431787 ], [ -8.481870019420214, 39.440424997344039 ], [ -8.482108613296083, 39.440378347604536 ], [ -8.482382271774785, 39.440352029955918 ], [ -8.482564666755474, 39.440310591964185 ], [ -8.482859233286794, 39.440238182614166 ], [ -8.483076610544664, 39.44017627911807 ], [ -8.483293902615424, 39.440099064409289 ], [ -8.483630381901277, 39.439975462415092 ], [ -8.483966760293347, 39.439856992861685 ], [ -8.48426109165332, 39.439738650181845 ], [ -8.484646406264803, 39.439579317301295 ], [ -8.484862923158467, 39.439509667012601 ], [ -8.484949568875578, 39.43950823043361 ], [ -8.484992716368774, 39.439542148314175 ], [ -8.485086386679605, 39.439596175536416 ], [ -8.485324121160097, 39.43970254506808 ], [ -8.485479818150502, 39.439757283934085 ], [ -8.485788990249397, 39.439909281891644 ], [ -8.485900369890407, 39.439974960300681 ], [ -8.486015295397063, 39.440051082311498 ], [ -8.486315136763318, 39.44021832725938 ], [ -8.486495757289374, 39.440331533006763 ], [ -8.486651707373868, 39.440434727380868 ], [ -8.486829771190738, 39.440547945779123 ], [ -8.487115983778363, 39.440751885119958 ], [ -8.487363200627984, 39.440916499813156 ], [ -8.487474605015809, 39.440986681942483 ], [ -8.487668987518092, 39.441086335167725 ], [ -8.488010969442234, 39.441268670926974 ], [ -8.488195030202281, 39.441371777432813 ], [ -8.488268779781498, 39.441414784228513 ], [ -8.488405990598629, 39.441509477660226 ], [ -8.48859232877569, 39.441626176295216 ], [ -8.488775116508485, 39.441730095497093 ], [ -8.488975316763018, 39.4418306294342 ], [ -8.489065448410273, 39.441874487201133 ], [ -8.489154543664922, 39.441919878365184 ], [ -8.489332418616915, 39.441970310844901 ], [ -8.489471693001994, 39.442014912177832 ], [ -8.489776282022184, 39.442175470173019 ], [ -8.489869926844014, 39.44222445054826 ], [ -8.490052542395157, 39.442315579169225 ], [ -8.490303163306189, 39.442417576427715 ], [ -8.490473994641256, 39.442476584564758 ], [ -8.490527862838791, 39.442492544335188 ], [ -8.490717506967725, 39.442550321586111 ], [ -8.490806467262615, 39.442591660528521 ], [ -8.490890772871808, 39.442630490850831 ], [ -8.491018430911742, 39.442675127856241 ], [ -8.491331689976015, 39.442812783515741 ], [ -8.49166190559305, 39.443021081344419 ], [ -8.491774383622541, 39.443072607851562 ], [ -8.492099035110819, 39.443201938029546 ], [ -8.492421938572182, 39.443329731593764 ], [ -8.492805093532787, 39.443494904466512 ], [ -8.492505948302828, 39.443783692073104 ], [ -8.492082861580153, 39.44418833520831 ], [ -8.491462687648474, 39.444782377801324 ], [ -8.49128767626844, 39.444950897059108 ], [ -8.490667700143412, 39.44554195882435 ], [ -8.490273526297646, 39.445923988832661 ], [ -8.489439943544829, 39.446728625825735 ], [ -8.488579348214095, 39.447546853462299 ], [ -8.48764574196918, 39.448450858544973 ], [ -8.486965839710912, 39.44910360273559 ], [ -8.485843400434284, 39.450189299630821 ], [ -8.484761593845988, 39.451230193281489 ], [ -8.483816376276227, 39.452131051648507 ], [ -8.483232593520507, 39.452690618770831 ], [ -8.48285752097788, 39.453051577638632 ], [ -8.482121798446959, 39.453758502172754 ], [ -8.481798754742703, 39.45407129583905 ], [ -8.481382300126985, 39.4544789411162 ], [ -8.481111026777274, 39.454737629386337 ], [ -8.480840814169879, 39.454999282555718 ], [ -8.480565722759708, 39.455262479955749 ], [ -8.480390784620127, 39.455432426195124 ], [ -8.480126096920575, 39.455685143338414 ], [ -8.479745300989389, 39.456047639398435 ], [ -8.479244133276746, 39.45652732066592 ], [ -8.478880582683951, 39.456877694033075 ], [ -8.478404501995373, 39.457334955150586 ], [ -8.477823467297972, 39.457879357510713 ], [ -8.47743676075587, 39.458225471570081 ], [ -8.476840185000896, 39.458754870558401 ], [ -8.476060909735342, 39.459512863714657 ], [ -8.475614741452086, 39.459963905683665 ], [ -8.475122289289915, 39.460430114730947 ], [ -8.47444678739472, 39.46105584083675 ], [ -8.473129151598044, 39.462319161088281 ], [ -8.472665385863719, 39.462767171636813 ], [ -8.472234576156412, 39.463206261853436 ], [ -8.471863425788822, 39.46360905950344 ], [ -8.471478718923571, 39.463997031134838 ], [ -8.471107516739037, 39.464366859051516 ], [ -8.470622072354113, 39.464831414353597 ], [ -8.469914115311731, 39.465514131304055 ], [ -8.4691128819947, 39.466305012770199 ], [ -8.468901559723587, 39.466556018621709 ], [ -8.468618402910165, 39.466948190874419 ], [ -8.468487837419055, 39.467150957439848 ], [ -8.468361492641936, 39.467385142505115 ], [ -8.46828971975199, 39.467538378282903 ], [ -8.468169257407711, 39.467813076758205 ], [ -8.467991094836663, 39.468315906551886 ], [ -8.467899608865375, 39.468575573258477 ], [ -8.467705844651258, 39.469120333599903 ], [ -8.467479789260652, 39.469767229364102 ], [ -8.467166255630843, 39.470685672884855 ], [ -8.466822007019603, 39.471647704639373 ], [ -8.466523596156632, 39.472525565895545 ], [ -8.466209864474695, 39.473432028609935 ], [ -8.466016569255427, 39.474008306131346 ], [ -8.465777198407887, 39.474695592009702 ], [ -8.465469066370394, 39.475587082997116 ], [ -8.465309900250398, 39.476035814561932 ], [ -8.465184065284255, 39.476407978699491 ], [ -8.465026752699329, 39.476856704525375 ], [ -8.464770197838897, 39.477599607450088 ], [ -8.464621183343905, 39.477977644697155 ], [ -8.464484315119659, 39.478296178522307 ], [ -8.464320024846012, 39.478668410639656 ], [ -8.4642194957421, 39.478868877083201 ], [ -8.464123375685032, 39.479026436038737 ], [ -8.464059341352595, 39.479141006953348 ], [ -8.463949399803491, 39.479302179064227 ], [ -8.463802893758121, 39.479534947960026 ], [ -8.463670039562162, 39.479728356985824 ], [ -8.463578445502284, 39.479868029154879 ], [ -8.463482153523108, 39.479989841146683 ], [ -8.463390474209671, 39.480111639054677 ], [ -8.463298693173096, 39.480211990659626 ], [ -8.463193226045245, 39.480344552167871 ], [ -8.463092269034767, 39.480455652461394 ], [ -8.462885691534169, 39.480667143198446 ], [ -8.462642328739657, 39.480903760099274 ], [ -8.461884351043091, 39.481570790830467 ], [ -8.46107105380751, 39.482248696306115 ], [ -8.460657673513577, 39.482628775039494 ], [ -8.460409750179981, 39.482879698627031 ], [ -8.460042626270086, 39.483288241178052 ], [ -8.459877479847508, 39.483485311425568 ], [ -8.459762858440749, 39.483635768927634 ], [ -8.459666638219987, 39.483775450033953 ], [ -8.459561309253708, 39.483940179805181 ], [ -8.459423972059229, 39.484165768454815 ], [ -8.459282021849717, 39.484391368973846 ], [ -8.459071608926383, 39.484774447312795 ], [ -8.458902744798364, 39.485164556777498 ], [ -8.458645926034249, 39.485778516612058 ], [ -8.458420449761444, 39.486378741677882 ], [ -8.458082627760778, 39.487315234829509 ], [ -8.457857287237667, 39.487921492946946 ], [ -8.457328450264155, 39.489377229087602 ], [ -8.457026717539959, 39.490181667863759 ], [ -8.456861712516451, 39.490668955630007 ], [ -8.456850658430238, 39.490666374388489 ], [ -8.456822253777638, 39.490757330132851 ], [ -8.456680550008198, 39.49073205740806 ], [ -8.456569167295363, 39.490678597537908 ], [ -8.456505284659364, 39.490614826688486 ] ] ] } },
{ "type": "Feature", "properties": { "dtmnfr": "141002", "freguesia": "Nossa Senhora de Fátima", "municipio": "Entroncamento", "distrito_i": "Santarém", "nuts3_cod": "1D2", "nuts3": "Médio Tejo", "nuts2": "Oeste e Vale do Tejo", "nuts1": "Continente", "area_ha": 916.76, "perimetro_": 16, "designacao": "Nossa Senhora de Fátima" }, "geometry": { "type": "Polygon", "coordinates": [ [ [ -8.498563896609168, 39.462172230550181 ], [ -8.498570483014207, 39.462275159865328 ], [ -8.498638810699291, 39.462563256492224 ], [ -8.498661552657078, 39.462645595454177 ], [ -8.498745657146102, 39.462863027533643 ], [ -8.49876567766411, 39.462998381216103 ], [ -8.498773010553423, 39.463268974339009 ], [ -8.498786669519923, 39.463617520239211 ], [ -8.498928971384411, 39.463672113567334 ], [ -8.499251218594942, 39.464317672173358 ], [ -8.499632360775305, 39.464891468309844 ], [ -8.498363948800391, 39.465298358133126 ], [ -8.498167938988908, 39.465368145512244 ], [ -8.497024739751417, 39.465789488241072 ], [ -8.495898904201047, 39.466312266277399 ], [ -8.497499732817186, 39.467201540492525 ], [ -8.497819578709603, 39.467376003078279 ], [ -8.497889709380395, 39.467326196923167 ], [ -8.498140427388229, 39.467523900910102 ], [ -8.49785453638032, 39.467716881050123 ], [ -8.498467405341797, 39.468196053947899 ], [ -8.497966562828893, 39.468610429370372 ], [ -8.49776042523254, 39.468799131077155 ], [ -8.497666322156153, 39.468878015705087 ], [ -8.497513545305369, 39.469062327201343 ], [ -8.497451222745974, 39.469143494411803 ], [ -8.497373044123199, 39.469283435926741 ], [ -8.49731884024273, 39.469383673351317 ], [ -8.49721229602088, 39.469520824953214 ], [ -8.497156040929543, 39.469607741078953 ], [ -8.49695115611715, 39.469895161207056 ], [ -8.496826492681349, 39.470055878274678 ], [ -8.496613882797291, 39.470422768089001 ], [ -8.496471402815196, 39.470643881867105 ], [ -8.496067371147426, 39.471184935051738 ], [ -8.495908932420052, 39.471226699466612 ], [ -8.495790099474261, 39.471565177102171 ], [ -8.495634266707585, 39.471897213763526 ], [ -8.495528861928856, 39.472113117304275 ], [ -8.495364539244898, 39.472379657821726 ], [ -8.495101034669206, 39.472921708986433 ], [ -8.494896183256145, 39.473362669108155 ], [ -8.494820293325899, 39.473564720162599 ], [ -8.494744284225806, 39.473743837951311 ], [ -8.494709440773102, 39.473872373271249 ], [ -8.494674620939293, 39.474005495760984 ], [ -8.494645671192648, 39.47412942727658 ], [ -8.494612203425163, 39.47427660723941 ], [ -8.494536782797036, 39.474568126575655 ], [ -8.494421860713549, 39.475064227065566 ], [ -8.494342597920317, 39.475376293192035 ], [ -8.494302545894753, 39.475497110241918 ], [ -8.494246735771508, 39.475648777385274 ], [ -8.494204729210262, 39.47572834939789 ], [ -8.494148403722555, 39.475803552431444 ], [ -8.493963414664696, 39.476033628977774 ], [ -8.493870883829553, 39.476141276573365 ], [ -8.493762084846129, 39.476250418368075 ], [ -8.493516632883086, 39.476542468670893 ], [ -8.493479481891567, 39.476550419879331 ], [ -8.493274924772628, 39.476908001992321 ], [ -8.493174723168142, 39.477151316971245 ], [ -8.493017957192999, 39.477378778119864 ], [ -8.492823683843604, 39.477702822510963 ], [ -8.492528197300524, 39.478188760101013 ], [ -8.492468295187583, 39.478201826111302 ], [ -8.492387925412, 39.478279622720358 ], [ -8.492298480828179, 39.478357001459074 ], [ -8.492241060934655, 39.478400776176642 ], [ -8.492024943738931, 39.478525378522548 ], [ -8.491511480749732, 39.478662703643465 ], [ -8.491407761911567, 39.47867635719804 ], [ -8.491271492762776, 39.478643269240912 ], [ -8.491091338105379, 39.478573393935456 ], [ -8.490816358529814, 39.478462018611687 ], [ -8.490394937101302, 39.478124840109253 ], [ -8.490353288943885, 39.478093175237575 ], [ -8.489886287506321, 39.477818011919702 ], [ -8.489578882062613, 39.477683223115768 ], [ -8.489023080808124, 39.477656471637246 ], [ -8.488359353194452, 39.477705437474611 ], [ -8.487794797081914, 39.477784178586333 ], [ -8.487531990464307, 39.477801642794432 ], [ -8.487269764005843, 39.477818027407174 ], [ -8.487155613664848, 39.478590357662867 ], [ -8.487006210700812, 39.479607873909274 ], [ -8.486897243536944, 39.4803940595489 ], [ -8.486955584947349, 39.481878042067045 ], [ -8.486982528979931, 39.482672187607292 ], [ -8.486982673220705, 39.482700649195998 ], [ -8.486452258278893, 39.48266831129537 ], [ -8.486200487364833, 39.482619272930535 ], [ -8.486073646724726, 39.482589486463951 ], [ -8.48594411057327, 39.482555747672528 ], [ -8.485796496351053, 39.482509898754039 ], [ -8.485729169257256, 39.482503440483967 ], [ -8.485539860423069, 39.482509332118283 ], [ -8.485417707352969, 39.482511233465388 ], [ -8.485170272941172, 39.482492352181566 ], [ -8.484967320971851, 39.482466667017768 ], [ -8.484747896135381, 39.482447070489386 ], [ -8.484586228328926, 39.482425945234795 ], [ -8.484360565061319, 39.482414560473487 ], [ -8.484222870706395, 39.482398404397173 ], [ -8.483913384587598, 39.482382049599153 ], [ -8.483627669241079, 39.48235508326735 ], [ -8.483502428243424, 39.482343574224195 ], [ -8.48327998366079, 39.482347216607209 ], [ -8.483108205534018, 39.482349270362327 ], [ -8.482957043159695, 39.482336214792966 ], [ -8.482907277020301, 39.482333303940706 ], [ -8.482817591728256, 39.482318174476632 ], [ -8.482666285073691, 39.482300884785332 ], [ -8.482538101756132, 39.482304784569777 ], [ -8.482445614147631, 39.482311008863022 ], [ -8.482389981771748, 39.482319465098293 ], [ -8.482345428973876, 39.482358686472203 ], [ -8.482340905704149, 39.482382480264974 ], [ -8.482329150760313, 39.482495100016635 ], [ -8.482286530538953, 39.482895945473345 ], [ -8.482236883392277, 39.483471100469387 ], [ -8.482216248325253, 39.48366796202243 ], [ -8.48210135105399, 39.484835692100063 ], [ -8.48208841067747, 39.48494408116315 ], [ -8.482084467449189, 39.48499165069012 ], [ -8.482042913750139, 39.485003844729739 ], [ -8.481838528309959, 39.485063814693348 ], [ -8.481457259005939, 39.485177012305591 ], [ -8.481278511534335, 39.485227357089897 ], [ -8.48054910241409, 39.485476880076305 ], [ -8.48007386937342, 39.485626647450005 ], [ -8.479545864004669, 39.485777834698084 ], [ -8.479046457288097, 39.485929654125272 ], [ -8.478595886136725, 39.486061867665377 ], [ -8.478567124501451, 39.486098070155435 ], [ -8.478097992305281, 39.486239345675934 ], [ -8.477664052172866, 39.486374390290308 ], [ -8.477052286560188, 39.48655959140374 ], [ -8.476767102220196, 39.486643212233787 ], [ -8.476271372284232, 39.486835629387635 ], [ -8.475800160900384, 39.486979876769873 ], [ -8.475529367737719, 39.487059575550383 ], [ -8.475464947306824, 39.487007976085359 ], [ -8.475474262879263, 39.486959184941981 ], [ -8.475408312366271, 39.48692834380153 ], [ -8.47541043378242, 39.486825462687953 ], [ -8.475346659772351, 39.486521051906323 ], [ -8.475219304560669, 39.485891216364443 ], [ -8.474703176194877, 39.485718277777217 ], [ -8.474147977845172, 39.485611564437711 ], [ -8.473348328275941, 39.485456026547482 ], [ -8.472496787459873, 39.48526604425107 ], [ -8.471641159346131, 39.485070939937494 ], [ -8.471572982897385, 39.485058079197898 ], [ -8.471483799684872, 39.485862929525332 ], [ -8.471409503390161, 39.486551902258427 ], [ -8.471344307294952, 39.48676870858921 ], [ -8.471245918919834, 39.486973541167174 ], [ -8.471044388668791, 39.487217767297487 ], [ -8.470810051813487, 39.487552339957304 ], [ -8.470739135946792, 39.487669815692229 ], [ -8.469074194962607, 39.488116809056613 ], [ -8.46789582078743, 39.488421051271345 ], [ -8.466563969963492, 39.48864439518718 ], [ -8.466117359361665, 39.488738992667386 ], [ -8.466192163514748, 39.489042850845294 ], [ -8.466176490679073, 39.489120352934371 ], [ -8.465579602628011, 39.489608624571545 ], [ -8.464970631016174, 39.489661442711792 ], [ -8.464401763904828, 39.48974053020676 ], [ -8.463213300902085, 39.490107982576561 ], [ -8.463255852532862, 39.490279893867388 ], [ -8.463546848145578, 39.490996461940874 ], [ -8.463490591966087, 39.491022923930345 ], [ -8.462349252113855, 39.491674854404941 ], [ -8.460919187611838, 39.492411265352665 ], [ -8.460868761374702, 39.492441670894813 ], [ -8.460721915060374, 39.492363003627233 ], [ -8.460661428225128, 39.492330389602721 ], [ -8.460471759794759, 39.492241218931717 ], [ -8.460370971510581, 39.492191787829896 ], [ -8.460193676517168, 39.49211338662608 ], [ -8.460090617379995, 39.492050357553502 ], [ -8.459947272787199, 39.491947817309978 ], [ -8.459868852254912, 39.491883456002718 ], [ -8.459671193094685, 39.491775935872596 ], [ -8.459554445158831, 39.491744108852188 ], [ -8.459417689449266, 39.491732782767471 ], [ -8.459353345473508, 39.491744675975141 ], [ -8.459114041048728, 39.491730759495653 ], [ -8.458568532607865, 39.491613945211029 ], [ -8.458410832785042, 39.491424433283271 ], [ -8.458113730386682, 39.491156499942484 ], [ -8.457568113284857, 39.491014732860897 ], [ -8.457133147235711, 39.490869858252161 ], [ -8.457156678175844, 39.49073099716864 ], [ -8.456943288548578, 39.490687732257456 ], [ -8.456861712516451, 39.490668955630007 ], [ -8.457026717539959, 39.490181667863759 ], [ -8.457328450264155, 39.489377229087602 ], [ -8.457857287237667, 39.487921492946946 ], [ -8.458082627760778, 39.487315234829509 ], [ -8.458420449761444, 39.486378741677882 ], [ -8.458645926034249, 39.485778516612058 ], [ -8.458902744798364, 39.485164556777498 ], [ -8.459071608926383, 39.484774447312795 ], [ -8.459282021849717, 39.484391368973846 ], [ -8.459423972059229, 39.484165768454815 ], [ -8.459561309253708, 39.483940179805181 ], [ -8.459666638219987, 39.483775450033953 ], [ -8.459762858440749, 39.483635768927634 ], [ -8.459877479847508, 39.483485311425568 ], [ -8.460042626270086, 39.483288241178052 ], [ -8.460409750179981, 39.482879698627031 ], [ -8.460657673513577, 39.482628775039494 ], [ -8.46107105380751, 39.482248696306115 ], [ -8.461884351043091, 39.481570790830467 ], [ -8.462642328739657, 39.480903760099274 ], [ -8.462885691534169, 39.480667143198446 ], [ -8.463092269034767, 39.480455652461394 ], [ -8.463193226045245, 39.480344552167871 ], [ -8.463298693173096, 39.480211990659626 ], [ -8.463390474209671, 39.480111639054677 ], [ -8.463482153523108, 39.479989841146683 ], [ -8.463578445502284, 39.479868029154879 ], [ -8.463670039562162, 39.479728356985824 ], [ -8.463802893758121, 39.479534947960026 ], [ -8.463949399803491, 39.479302179064227 ], [ -8.464059341352595, 39.479141006953348 ], [ -8.464123375685032, 39.479026436038737 ], [ -8.4642194957421, 39.478868877083201 ], [ -8.464320024846012, 39.478668410639656 ], [ -8.464484315119659, 39.478296178522307 ], [ -8.464621183343905, 39.477977644697155 ], [ -8.464770197838897, 39.477599607450088 ], [ -8.465026752699329, 39.476856704525375 ], [ -8.465184065284255, 39.476407978699491 ], [ -8.465309900250398, 39.476035814561932 ], [ -8.465469066370394, 39.475587082997116 ], [ -8.465777198407887, 39.474695592009702 ], [ -8.466016569255427, 39.474008306131346 ], [ -8.466209864474695, 39.473432028609935 ], [ -8.466523596156632, 39.472525565895545 ], [ -8.466822007019603, 39.471647704639373 ], [ -8.467166255630843, 39.470685672884855 ], [ -8.467479789260652, 39.469767229364102 ], [ -8.467705844651258, 39.469120333599903 ], [ -8.467899608865375, 39.468575573258477 ], [ -8.467991094836663, 39.468315906551886 ], [ -8.468169257407711, 39.467813076758205 ], [ -8.46828971975199, 39.467538378282903 ], [ -8.468361492641936, 39.467385142505115 ], [ -8.468487837419055, 39.467150957439848 ], [ -8.468618402910165, 39.466948190874419 ], [ -8.468901559723587, 39.466556018621709 ], [ -8.4691128819947, 39.466305012770199 ], [ -8.469914115311731, 39.465514131304055 ], [ -8.470622072354113, 39.464831414353597 ], [ -8.471107516739037, 39.464366859051516 ], [ -8.471478718923571, 39.463997031134838 ], [ -8.471863425788822, 39.46360905950344 ], [ -8.472234576156412, 39.463206261853436 ], [ -8.472665385863719, 39.462767171636813 ], [ -8.473129151598044, 39.462319161088281 ], [ -8.47444678739472, 39.46105584083675 ], [ -8.475122289289915, 39.460430114730947 ], [ -8.475614741452086, 39.459963905683665 ], [ -8.476060909735342, 39.459512863714657 ], [ -8.476840185000896, 39.458754870558401 ], [ -8.47743676075587, 39.458225471570081 ], [ -8.477823467297972, 39.457879357510713 ], [ -8.478404501995373, 39.457334955150586 ], [ -8.478880582683951, 39.456877694033075 ], [ -8.479244133276746, 39.45652732066592 ], [ -8.479745300989389, 39.456047639398435 ], [ -8.480126096920575, 39.455685143338414 ], [ -8.480390784620127, 39.455432426195124 ], [ -8.480565722759708, 39.455262479955749 ], [ -8.480840814169879, 39.454999282555718 ], [ -8.481111026777274, 39.454737629386337 ], [ -8.481382300126985, 39.4544789411162 ], [ -8.481798754742703, 39.45407129583905 ], [ -8.482121798446959, 39.453758502172754 ], [ -8.48285752097788, 39.453051577638632 ], [ -8.483232593520507, 39.452690618770831 ], [ -8.483816376276227, 39.452131051648507 ], [ -8.484761593845988, 39.451230193281489 ], [ -8.485843400434284, 39.450189299630821 ], [ -8.486965839710912, 39.44910360273559 ], [ -8.48764574196918, 39.448450858544973 ], [ -8.488579348214095, 39.447546853462299 ], [ -8.489439943544829, 39.446728625825735 ], [ -8.490273526297646, 39.445923988832661 ], [ -8.490667700143412, 39.44554195882435 ], [ -8.49128767626844, 39.444950897059108 ], [ -8.491462687648474, 39.444782377801324 ], [ -8.492082861580153, 39.44418833520831 ], [ -8.492505948302828, 39.443783692073104 ], [ -8.492805093532787, 39.443494904466512 ], [ -8.493210341549922, 39.443663876191088 ], [ -8.493491230003814, 39.443776487592665 ], [ -8.493863878804818, 39.443931240454482 ], [ -8.493990886604189, 39.443960927231167 ], [ -8.494425010356073, 39.444074412776814 ], [ -8.494725092003431, 39.444145891310534 ], [ -8.495002234756244, 39.444229962914967 ], [ -8.495143953670647, 39.444273740088349 ], [ -8.495145935772253, 39.444363987047346 ], [ -8.495210815736483, 39.444510054718073 ], [ -8.495397695977257, 39.444793100479593 ], [ -8.495461109268351, 39.444880362080866 ], [ -8.495518782397159, 39.444957009636468 ], [ -8.49562315633645, 39.445146277796432 ], [ -8.49581543270086, 39.445372021341726 ], [ -8.496123149862084, 39.445748629585374 ], [ -8.496174094401097, 39.445827010939091 ], [ -8.496316053390837, 39.44609379987542 ], [ -8.496483924141964, 39.446384922116415 ], [ -8.496556599129224, 39.446530962823772 ], [ -8.496591923432485, 39.446622362907505 ], [ -8.496620670079313, 39.44674323740788 ], [ -8.496625276081714, 39.44678006354399 ], [ -8.496653763569519, 39.447096385862565 ], [ -8.496672564781395, 39.447248274686707 ], [ -8.49669803232916, 39.447386361017848 ], [ -8.496737929411534, 39.447485944940688 ], [ -8.496839095413717, 39.447704583940279 ], [ -8.496951781692747, 39.447969847685648 ], [ -8.496984925760531, 39.4480662074075 ], [ -8.497133699664808, 39.448390888161157 ], [ -8.497182388416855, 39.448459371071394 ], [ -8.497210922036, 39.448539442442495 ], [ -8.497281289665169, 39.448666666987059 ], [ -8.497325452216048, 39.448735973736802 ], [ -8.497461642255566, 39.448986567454341 ], [ -8.497594098507058, 39.449168361766205 ], [ -8.497790958177283, 39.449400575256689 ], [ -8.497739329982755, 39.449436763404833 ], [ -8.497782974549246, 39.449606586334248 ], [ -8.497874149580191, 39.449868580334503 ], [ -8.497945717434442, 39.45000156877515 ], [ -8.498074900340598, 39.450199765545328 ], [ -8.498215317095363, 39.450413508141182 ], [ -8.498342404085831, 39.450632969541729 ], [ -8.498377852357782, 39.45074724374637 ], [ -8.498388754565013, 39.450898436436439 ], [ -8.498405644428383, 39.451128060537094 ], [ -8.498442158397712, 39.451444180418918 ], [ -8.498490997490961, 39.451962196154732 ], [ -8.498492481047521, 39.452023529273447 ], [ -8.49852018043074, 39.452585746629929 ], [ -8.498549555649054, 39.453046627946385 ], [ -8.49853795537577, 39.453205184244005 ], [ -8.498522940017182, 39.453332768038713 ], [ -8.498487398973019, 39.453622908244391 ], [ -8.498414788318897, 39.453932885720441 ], [ -8.49839204685272, 39.454093913370571 ], [ -8.49836854504443, 39.45433023662045 ], [ -8.498368184265868, 39.454483085852488 ], [ -8.498396166497596, 39.454480476005514 ], [ -8.498379338116182, 39.454638958599432 ], [ -8.498348316749896, 39.454815504286316 ], [ -8.498296375854867, 39.455012921844705 ], [ -8.498250149001166, 39.455126552627171 ], [ -8.498139230071354, 39.455266961637207 ], [ -8.498064747544094, 39.455464716433269 ], [ -8.498009103083835, 39.455666917379119 ], [ -8.497954250266037, 39.455819399814125 ], [ -8.497867173842035, 39.455986573742337 ], [ -8.497731205776764, 39.456246041701689 ], [ -8.49768230138627, 39.456403996018508 ], [ -8.497659486504594, 39.456484591098636 ], [ -8.497651821275362, 39.456551806513353 ], [ -8.497598912305326, 39.456854064720339 ], [ -8.497554479702499, 39.457088742863704 ], [ -8.497498752466118, 39.45731904743905 ], [ -8.497475530131858, 39.457476921172969 ], [ -8.497477868113245, 39.457568787128203 ], [ -8.497471180746413, 39.457711298037808 ], [ -8.497468291600072, 39.457780928554108 ], [ -8.497473103663692, 39.457989425693803 ], [ -8.497459131003849, 39.458228422657079 ], [ -8.497437828386747, 39.45839844980383 ], [ -8.497390087449377, 39.458555770708216 ], [ -8.497381307064286, 39.458632270393878 ], [ -8.497400082600759, 39.45873371693817 ], [ -8.497511670661057, 39.458986370538796 ], [ -8.497707599908768, 39.459480595919963 ], [ -8.497847224960234, 39.459850701766491 ], [ -8.497932171429264, 39.460029131580882 ], [ -8.497967777144391, 39.460083511354121 ], [ -8.498066615847339, 39.460208214837081 ], [ -8.498261411081067, 39.46052824999753 ], [ -8.498348974127868, 39.460652268972289 ], [ -8.498488835454344, 39.460889340701478 ], [ -8.498178030640334, 39.461423437597944 ], [ -8.498089686195826, 39.461571520679229 ], [ -8.498046895919655, 39.461698835620034 ], [ -8.498027159614059, 39.461812925282771 ], [ -8.497991131415963, 39.46207702991596 ], [ -8.497978179545383, 39.462110756733608 ], [ -8.498563896609168, 39.462172230550181 ] ] ] } }
]
}
