{
"type": "FeatureCollection",
"name": "CAOP_Constância_freg",
"crs": { "type": "name", "properties": { "name": "urn:ogc:def:crs:OGC:1.3:CRS84" } },
"features": [
{ "type": "Feature", "properties": { "dtmnfr": "140801", "freguesia": "Constância", "municipio": "Constância", "distrito_i": "Santarém", "nuts3_cod": "1D2", "nuts3": "Médio Tejo", "nuts2": "Oeste e Vale do Tejo", "nuts1": "Continente", "area_ha": 883.15, "perimetro_": 15, "designacao": "Constância" }, "geometry": { "type": "Polygon", "coordinates": [ [ [ -8.310253776150127, 39.500682386531537 ], [ -8.310168633209242, 39.500393391648387 ], [ -8.310013228252959, 39.499954274579011 ], [ -8.30995140649781, 39.499692271226529 ], [ -8.309833438518726, 39.49897892293879 ], [ -8.309763109828285, 39.498481041599739 ], [ -8.309758118263266, 39.498345314125046 ], [ -8.309730276109496, 39.497870060319507 ], [ -8.310290242421981, 39.497853261508148 ], [ -8.310527115318186, 39.497831279967492 ], [ -8.310793615440263, 39.497801235565845 ], [ -8.311054555278558, 39.497715770155764 ], [ -8.311450774505172, 39.497618038205232 ], [ -8.311713631338327, 39.497564015317863 ], [ -8.311971847230232, 39.497499274373219 ], [ -8.312119428415679, 39.497474024980683 ], [ -8.312397130682845, 39.497304812735678 ], [ -8.312284801363923, 39.496935706297855 ], [ -8.312030617366698, 39.496285349257562 ], [ -8.311817394437718, 39.495740852468153 ], [ -8.311766808503066, 39.495599433324855 ], [ -8.311488766646765, 39.49480085946491 ], [ -8.311397603144842, 39.494116029468209 ], [ -8.311317891573173, 39.493001633520237 ], [ -8.311548295203282, 39.49174067036617 ], [ -8.31168909041944, 39.491118704945826 ], [ -8.311778997869951, 39.490686054214834 ], [ -8.311872084483367, 39.490272850878249 ], [ -8.311905330429736, 39.490092209733319 ], [ -8.311888990696279, 39.489887331370198 ], [ -8.311873028170897, 39.489738021910213 ], [ -8.311840766084959, 39.489667725153623 ], [ -8.311835552906373, 39.489586133487201 ], [ -8.311829006985137, 39.489345384135895 ], [ -8.311784206888916, 39.489237284496092 ], [ -8.311734679789589, 39.489099376274154 ], [ -8.311619248472361, 39.488782511242107 ], [ -8.311604259206177, 39.488740291487609 ], [ -8.311577952329753, 39.488637020834283 ], [ -8.311468883575182, 39.488217466209669 ], [ -8.311363342048443, 39.487994259273343 ], [ -8.311265187265121, 39.487748790052194 ], [ -8.311236309318746, 39.487458902952909 ], [ -8.311223274560071, 39.487315533467104 ], [ -8.311206712207673, 39.487250169000056 ], [ -8.31117666805735, 39.487138171677124 ], [ -8.31112696197288, 39.486929463080791 ], [ -8.311066901318378, 39.486718346522096 ], [ -8.31090584161382, 39.486327423842241 ], [ -8.310904009115758, 39.486203494963753 ], [ -8.310913506371103, 39.486143491184585 ], [ -8.310934057226111, 39.486044922382824 ], [ -8.311047760128845, 39.485601787338233 ], [ -8.311280802645378, 39.485257148151625 ], [ -8.311404846270751, 39.485056777625928 ], [ -8.311459838173263, 39.484913706393037 ], [ -8.311482355965669, 39.48469919284846 ], [ -8.311518895182864, 39.484556150784542 ], [ -8.311532386963799, 39.484420292922621 ], [ -8.311545814747367, 39.484259412826525 ], [ -8.311550044392721, 39.484109270566321 ], [ -8.311591360953893, 39.484030564394132 ], [ -8.311623414239737, 39.483937573825123 ], [ -8.311623204042151, 39.483855357408416 ], [ -8.311650718191091, 39.483790971003174 ], [ -8.311673637275584, 39.483733741398936 ], [ -8.311678039151285, 39.483651517896988 ], [ -8.311585660315949, 39.483605189037164 ], [ -8.3115163560105, 39.483562399579263 ], [ -8.311447032366644, 39.483512460357254 ], [ -8.311451481309676, 39.483448110268178 ], [ -8.311534396950242, 39.483401512382912 ], [ -8.311787827328262, 39.483290308382202 ], [ -8.311799729744905, 39.483134581670299 ], [ -8.311911499880399, 39.48294695087472 ], [ -8.311961930801099, 39.482825335626273 ], [ -8.311952485753157, 39.482739558521864 ], [ -8.311873772592884, 39.482625289812262 ], [ -8.311822664647366, 39.48248238231281 ], [ -8.311744025150901, 39.482396711509928 ], [ -8.311642439798558, 39.482357545679641 ], [ -8.311585024504936, 39.482275060378598 ], [ -8.311468701519498, 39.48210401765833 ], [ -8.311428672275104, 39.482040577922795 ], [ -8.311434237162183, 39.481989505122051 ], [ -8.311481431077198, 39.481902420646207 ], [ -8.311549402957926, 39.481757394680805 ], [ -8.311636335696781, 39.481530734366409 ], [ -8.311616859855372, 39.481367830382567 ], [ -8.31155537098012, 39.481097270777603 ], [ -8.311436901489483, 39.480813103382886 ], [ -8.311402462581583, 39.480711016827584 ], [ -8.311375512660788, 39.480581267293111 ], [ -8.311433863131787, 39.480357443969034 ], [ -8.311484816265624, 39.480240005519498 ], [ -8.311526219542857, 39.480068723443281 ], [ -8.311533453248357, 39.479944416648181 ], [ -8.311569189415861, 39.479738731999419 ], [ -8.311553119424952, 39.47941288428563 ], [ -8.31158714743415, 39.479356180730754 ], [ -8.311668702462338, 39.479299396990157 ], [ -8.311773102482542, 39.479263390571411 ], [ -8.311881343729885, 39.479234217169292 ], [ -8.311985761073641, 39.47920505495275 ], [ -8.312050293025765, 39.479170457953423 ], [ -8.3120938664017, 39.479123372547029 ], [ -8.312091572799533, 39.478954946055261 ], [ -8.312102178415683, 39.478651127170401 ], [ -8.312036968401813, 39.47837777854798 ], [ -8.311913007281904, 39.478216476369219 ], [ -8.311651877962179, 39.477912988526946 ], [ -8.311377549858364, 39.477624829519229 ], [ -8.311230771899726, 39.477449690780617 ], [ -8.311135679397733, 39.47739597451681 ], [ -8.310985333367505, 39.477323071319937 ], [ -8.310878523169638, 39.477185159981012 ], [ -8.310750875412646, 39.477036112589261 ], [ -8.310621191794427, 39.476862297096581 ], [ -8.310592560798533, 39.476802986438194 ], [ -8.310523590482504, 39.476600075592842 ], [ -8.310324330185177, 39.47594314542669 ], [ -8.31012422237858, 39.475725305916399 ], [ -8.310343283034749, 39.47517536468817 ], [ -8.310706528806239, 39.474564495650206 ], [ -8.31117080867779, 39.474109468553003 ], [ -8.311405717245819, 39.473850875870589 ], [ -8.311638738792819, 39.473584001853567 ], [ -8.311777048130867, 39.473409861374066 ], [ -8.311917376769095, 39.473250761128938 ], [ -8.312300081139986, 39.472848280141406 ], [ -8.31234813015657, 39.472825506624226 ], [ -8.312761172254245, 39.472651662642988 ], [ -8.313083214963591, 39.472521187210418 ], [ -8.313856176823533, 39.472216804273749 ], [ -8.314237949884333, 39.472087313625558 ], [ -8.314863155872185, 39.471858006798108 ], [ -8.316044593210954, 39.471070911228942 ], [ -8.316948632451934, 39.470468620508555 ], [ -8.317257710558868, 39.470277898850192 ], [ -8.317463992027795, 39.470063208678795 ], [ -8.3178233740165, 39.469692533858456 ], [ -8.318166841542912, 39.469457711730058 ], [ -8.318231868903426, 39.469437882869173 ], [ -8.318693624319305, 39.469373100712644 ], [ -8.318834584065353, 39.469068259304429 ], [ -8.318998800688702, 39.468944690875944 ], [ -8.319434885835111, 39.468624873501597 ], [ -8.319824796899965, 39.468336559508487 ], [ -8.319555240998906, 39.468136409311604 ], [ -8.319290537236798, 39.467882658958011 ], [ -8.31975892172006, 39.467479561951066 ], [ -8.319803521785479, 39.467470843622628 ], [ -8.319921598966099, 39.467432012996142 ], [ -8.320051659100583, 39.467355783860683 ], [ -8.320121895516911, 39.467287215791842 ], [ -8.320977621852867, 39.467495148850674 ], [ -8.321238206360912, 39.467600552852716 ], [ -8.321139831248281, 39.468005489132615 ], [ -8.321486251813127, 39.468094723061931 ], [ -8.321565185625502, 39.468103241010901 ], [ -8.321716079225553, 39.468083089077581 ], [ -8.322797562126251, 39.468231908493223 ], [ -8.323243385727498, 39.468293412629663 ], [ -8.323550221515067, 39.468352714452216 ], [ -8.324045508241603, 39.468443128086442 ], [ -8.324382370119801, 39.468510493730278 ], [ -8.324603845233183, 39.46854587539422 ], [ -8.324816037126853, 39.46855982443256 ], [ -8.325101952392707, 39.468548629002726 ], [ -8.325364679385148, 39.468491000407475 ], [ -8.325423305196683, 39.468539919655143 ], [ -8.325825904978927, 39.469061565518949 ], [ -8.326260701085692, 39.469583241132455 ], [ -8.326705034299051, 39.469525430238868 ], [ -8.326983879345853, 39.469627239450432 ], [ -8.326947089696988, 39.469519669657423 ], [ -8.327112108139472, 39.469480391410428 ], [ -8.327129112272864, 39.469410198398528 ], [ -8.327541219679905, 39.469462556930189 ], [ -8.327499899690727, 39.469272398756985 ], [ -8.327495416596664, 39.469206927053811 ], [ -8.327563901593626, 39.469138180906469 ], [ -8.327810507705525, 39.469012406854006 ], [ -8.327976979570074, 39.469169413923737 ], [ -8.328253270806917, 39.469392719997664 ], [ -8.328524149323323, 39.469598070911537 ], [ -8.328775786273416, 39.469448310596682 ], [ -8.328943540136963, 39.469348049461956 ], [ -8.328973971644963, 39.469300260133842 ], [ -8.32900557650825, 39.469134659769303 ], [ -8.3290601991591, 39.468971270561788 ], [ -8.329145507079662, 39.468893396247417 ], [ -8.329295015332633, 39.468794332662149 ], [ -8.329443035850442, 39.468701941990744 ], [ -8.329555791264816, 39.468548362999371 ], [ -8.329621022919152, 39.468357213982472 ], [ -8.329730618512482, 39.468198144071302 ], [ -8.329890642527817, 39.468036824347458 ], [ -8.330020631766438, 39.468062185146479 ], [ -8.330291323612125, 39.468119457861171 ], [ -8.330517620501372, 39.468175721769768 ], [ -8.330650769155969, 39.468206567177333 ], [ -8.330708747180546, 39.468203136983441 ], [ -8.330815729099223, 39.468187461287279 ], [ -8.330839897557798, 39.46810518523786 ], [ -8.330992744263751, 39.468076013634899 ], [ -8.331176016856151, 39.468041293933403 ], [ -8.331270620436181, 39.468004470610296 ], [ -8.331510445180674, 39.467912910701337 ], [ -8.331739435058163, 39.467854783033602 ], [ -8.332034429884661, 39.467836528679676 ], [ -8.33234923159608, 39.467834812555623 ], [ -8.332341368255253, 39.467769346817818 ], [ -8.332435931599056, 39.467678034666903 ], [ -8.332434243807892, 39.467655876695581 ], [ -8.332109680750825, 39.467494132394648 ], [ -8.332001005308818, 39.46740551272071 ], [ -8.331753442873692, 39.467431430212663 ], [ -8.331578902115659, 39.467308427554556 ], [ -8.331544720280496, 39.467140775217217 ], [ -8.331815126437837, 39.467099235197374 ], [ -8.331850592650886, 39.467189154699476 ], [ -8.332229738582612, 39.467258485261262 ], [ -8.332324461000153, 39.467222743517269 ], [ -8.332494637030688, 39.466875865435817 ], [ -8.332404527937495, 39.466664933214382 ], [ -8.332543510759134, 39.466623043800077 ], [ -8.332645342060991, 39.466670065900907 ], [ -8.333007970981923, 39.466814988451773 ], [ -8.333098803521731, 39.466559395047739 ], [ -8.333318956100308, 39.466058045860684 ], [ -8.333434473657487, 39.465862301839998 ], [ -8.333536372541079, 39.465857715531371 ], [ -8.333706258714692, 39.465936052098151 ], [ -8.333857351033457, 39.465706832044724 ], [ -8.334013486572299, 39.465490482212509 ], [ -8.334055127263074, 39.465384756122305 ], [ -8.334346047064097, 39.464886255816921 ], [ -8.334686448674827, 39.464702459882943 ], [ -8.335115540595472, 39.464530309026159 ], [ -8.335236444271453, 39.464430026442223 ], [ -8.335700599910032, 39.464010032002449 ], [ -8.336258092484435, 39.463520515001839 ], [ -8.336844555441576, 39.463008423384338 ], [ -8.337529366608251, 39.462395280873622 ], [ -8.338135028394715, 39.461858923622422 ], [ -8.338519809618417, 39.461525974575608 ], [ -8.338876750409334, 39.461441749381784 ], [ -8.339062461237086, 39.461413227763813 ], [ -8.339183609038169, 39.461437693311709 ], [ -8.339324251365499, 39.461452753258627 ], [ -8.339855690051875, 39.461438832401974 ], [ -8.33992840190998, 39.46142924484041 ], [ -8.340068736922603, 39.46137972586061 ], [ -8.340113900983775, 39.461369014487666 ], [ -8.340225499032206, 39.46138529775294 ], [ -8.340555353218125, 39.461493780425151 ], [ -8.340967731682976, 39.461649219634722 ], [ -8.341117957512834, 39.461680651266782 ], [ -8.341245664310321, 39.461683934622606 ], [ -8.341329640304902, 39.461674326025616 ], [ -8.341528133208792, 39.461644514801222 ], [ -8.341746084010635, 39.461595934620938 ], [ -8.341809055362958, 39.461592307994344 ], [ -8.341859206163981, 39.461615726322862 ], [ -8.341990247834465, 39.461682407828448 ], [ -8.342260369735429, 39.461788744770637 ], [ -8.342666383327037, 39.461988590418883 ], [ -8.342808694069831, 39.46205408338011 ], [ -8.34308516486445, 39.462144008761186 ], [ -8.34321787423973, 39.462224744928413 ], [ -8.343326397817215, 39.462338484065533 ], [ -8.343509062836354, 39.462531978587393 ], [ -8.343716480104611, 39.462607800771785 ], [ -8.344522079110638, 39.463789662789608 ], [ -8.343741618086986, 39.464457960590167 ], [ -8.342749925151239, 39.465406670397876 ], [ -8.341916333420468, 39.466349588169635 ], [ -8.341567006290918, 39.466807052589957 ], [ -8.341184164091663, 39.467366711862503 ], [ -8.340595761526822, 39.46812408857334 ], [ -8.340094755865939, 39.469552409371659 ], [ -8.339920096679437, 39.469903719797543 ], [ -8.339395824570451, 39.470942528935119 ], [ -8.338845288644116, 39.471946164597348 ], [ -8.338385433034226, 39.472535408749678 ], [ -8.33947426406117, 39.473126035585366 ], [ -8.340025675630576, 39.473390121172386 ], [ -8.340791829543743, 39.473679844760248 ], [ -8.341193037573243, 39.473923394854971 ], [ -8.341580134825779, 39.474224154329207 ], [ -8.341981866472439, 39.474639281480705 ], [ -8.34229088940333, 39.475101497803955 ], [ -8.342421289061527, 39.475641858127311 ], [ -8.342487421552926, 39.476218632204827 ], [ -8.342399333812754, 39.477059788045167 ], [ -8.34227081915858, 39.477975516018482 ], [ -8.342158936928218, 39.478786921774031 ], [ -8.342131795684427, 39.479111852990606 ], [ -8.341946159046602, 39.480570323847395 ], [ -8.341866598358093, 39.480742947969439 ], [ -8.341761385516277, 39.481273825352893 ], [ -8.341344645931592, 39.48284043369992 ], [ -8.341215619770594, 39.48334109315725 ], [ -8.341062522167302, 39.483759829162011 ], [ -8.340915308574377, 39.484165584355374 ], [ -8.340313772193754, 39.485478076355342 ], [ -8.339805916691827, 39.486406520706581 ], [ -8.339226794534044, 39.487296178875354 ], [ -8.338582039783159, 39.488086781333216 ], [ -8.338078951117588, 39.488596659321146 ], [ -8.337767650452614, 39.488830039079652 ], [ -8.336229690133866, 39.489870536619058 ], [ -8.33514191394501, 39.49063713167029 ], [ -8.334192111352728, 39.491448964087212 ], [ -8.333804840988341, 39.491831981254812 ], [ -8.332821773608048, 39.49308996994894 ], [ -8.332472550373813, 39.493650445638416 ], [ -8.332242477883948, 39.494251692564113 ], [ -8.332031731734595, 39.495025839824265 ], [ -8.331701482567397, 39.495681932818101 ], [ -8.331291712288188, 39.496988906891247 ], [ -8.330757247990499, 39.498865558690923 ], [ -8.330500885828842, 39.501069960270478 ], [ -8.330329691120834, 39.502412081286863 ], [ -8.330023020520253, 39.503159818694527 ], [ -8.329832854619001, 39.503503756202939 ], [ -8.329500442418301, 39.503336431110363 ], [ -8.329138249785531, 39.50316438608953 ], [ -8.328938104681926, 39.503062047602725 ], [ -8.328757036233688, 39.502964809737257 ], [ -8.328631199853557, 39.502951243470264 ], [ -8.328505406795555, 39.502952715018779 ], [ -8.328286898616083, 39.503019379584281 ], [ -8.328094184459527, 39.503079688404441 ], [ -8.327844461691614, 39.503126409025782 ], [ -8.327742851549511, 39.503129102018946 ], [ -8.327613665615402, 39.503123104305288 ], [ -8.32746194031076, 39.503082019676327 ], [ -8.327301661583192, 39.503058509109472 ], [ -8.327115576735965, 39.503036304161526 ], [ -8.326932685567623, 39.502992658822031 ], [ -8.326742915104896, 39.50290038435088 ], [ -8.326475644485681, 39.502784465508796 ], [ -8.326324129744107, 39.502818495311018 ], [ -8.326012506662176, 39.50288909143152 ], [ -8.325709619081998, 39.502965978921331 ], [ -8.325517798759726, 39.503014304533615 ], [ -8.325461032356372, 39.503045654423929 ], [ -8.325406059431335, 39.503095824070542 ], [ -8.32536474026071, 39.503119668081382 ], [ -8.325251070582491, 39.503133638441554 ], [ -8.324880913041058, 39.50318685383872 ], [ -8.324388601005664, 39.503296475235587 ], [ -8.324156111916025, 39.503355676557355 ], [ -8.323500130234311, 39.503520685623577 ], [ -8.323138449666077, 39.50357001129899 ], [ -8.323028546082149, 39.5036853025535 ], [ -8.322964971520742, 39.503736653295462 ], [ -8.322767004441998, 39.503790841630455 ], [ -8.322319321829815, 39.50385660851672 ], [ -8.322177856907164, 39.503868099153102 ], [ -8.32184385981353, 39.503923677950034 ], [ -8.321735323062414, 39.503902595856559 ], [ -8.321554230734288, 39.503834080829918 ], [ -8.321336888243138, 39.503735542761127 ], [ -8.321230111708099, 39.503718152001113 ], [ -8.321125107260505, 39.503753448104398 ], [ -8.320866958701991, 39.503870241527729 ], [ -8.320749943191279, 39.503894208816483 ], [ -8.320687978713359, 39.503895572480836 ], [ -8.320575798935788, 39.503858194382381 ], [ -8.320401226523691, 39.503665638475439 ], [ -8.320354744324559, 39.503633200912489 ], [ -8.319964986585246, 39.503489994878045 ], [ -8.319858199244798, 39.50347134009801 ], [ -8.319775524413819, 39.503465262561917 ], [ -8.319558409049947, 39.503492993907429 ], [ -8.319506798275137, 39.503495598610691 ], [ -8.319422390902764, 39.503498165781664 ], [ -8.319348310701717, 39.503489547715844 ], [ -8.31932934273653, 39.503483363293661 ], [ -8.319244819897804, 39.503440900211082 ], [ -8.319120256052422, 39.503295909125583 ], [ -8.318926441205642, 39.502993322077984 ], [ -8.318781518814593, 39.502884752186098 ], [ -8.318581318283627, 39.502758614855345 ], [ -8.318463792646615, 39.502678552029899 ], [ -8.318360192972573, 39.50258864930575 ], [ -8.318272234980927, 39.502565013735179 ], [ -8.318139551741986, 39.502555231740075 ], [ -8.318062095983263, 39.502547786427598 ], [ -8.317863888546594, 39.502511806195898 ], [ -8.317772615400694, 39.50250943104971 ], [ -8.317631409473986, 39.502529743469708 ], [ -8.317367984012112, 39.502585105525711 ], [ -8.317206061736441, 39.502596622532764 ], [ -8.317116547935766, 39.502600549861477 ], [ -8.316987400927328, 39.502609493639028 ], [ -8.316909817082161, 39.502597095732597 ], [ -8.316833812104331, 39.502565695088386 ], [ -8.316780334746841, 39.502523266709481 ], [ -8.316693895244201, 39.502413251657138 ], [ -8.316655661648332, 39.50228820258112 ], [ -8.316634677736317, 39.502180605178729 ], [ -8.316649810449958, 39.502056740026376 ], [ -8.316627365806706, 39.502010386883249 ], [ -8.31658926093329, 39.501934161630011 ], [ -8.316539096419548, 39.501869119523356 ], [ -8.316314854504446, 39.501748156464352 ], [ -8.316151061835793, 39.501668250645707 ], [ -8.316088621502661, 39.501620883120992 ], [ -8.316031693678649, 39.501548378355551 ], [ -8.315993540377617, 39.501453330218865 ], [ -8.315955269162107, 39.501313242018099 ], [ -8.315939381603815, 39.501196898798206 ], [ -8.315932252924632, 39.501095490663872 ], [ -8.315914826273357, 39.501012926882375 ], [ -8.315857699846047, 39.500909165458687 ], [ -8.31580573974618, 39.500822963075599 ], [ -8.315662744798267, 39.500781848404074 ], [ -8.315389048488262, 39.500907296318559 ], [ -8.315096464190258, 39.50101529873622 ], [ -8.315010313502373, 39.501013003471044 ], [ -8.314905327731532, 39.501013169475058 ], [ -8.314841524760684, 39.501023270555542 ], [ -8.314707384561167, 39.501075990761969 ], [ -8.314597395779478, 39.501165062162734 ], [ -8.314532024862554, 39.501196420160518 ], [ -8.314488930842632, 39.501210268054706 ], [ -8.314425221177626, 39.501211626599265 ], [ -8.314389034128977, 39.501201687995341 ], [ -8.31403387076003, 39.501073356017692 ], [ -8.313932089343233, 39.501053428819148 ], [ -8.31384604769635, 39.501051042452076 ], [ -8.313754834877688, 39.50107118147308 ], [ -8.313708391790842, 39.501093771940269 ], [ -8.313512420292822, 39.501290607290471 ], [ -8.313299325900726, 39.501473603518747 ], [ -8.313196012195579, 39.501492588146569 ], [ -8.31309267729816, 39.501500223037212 ], [ -8.31284468146246, 39.501495567275057 ], [ -8.312725704451482, 39.501481972280907 ], [ -8.312632620524676, 39.501452126449472 ], [ -8.312482687221628, 39.501381027186909 ], [ -8.312386111804386, 39.501304887132832 ], [ -8.312354921143612, 39.50124981438784 ], [ -8.312347788674826, 39.501142189428101 ], [ -8.312325265392962, 39.501109710798637 ], [ -8.312282193549354, 39.501089782615871 ], [ -8.312094246262976, 39.50101747864494 ], [ -8.311949353437621, 39.500960059717443 ], [ -8.311849536767575, 39.500981560622627 ], [ -8.311735929849407, 39.501019297872297 ], [ -8.31162579891939, 39.501051981268795 ], [ -8.311491526137463, 39.501099745939698 ], [ -8.311405429010383, 39.501121138946665 ], [ -8.311334895082853, 39.501136286021421 ], [ -8.311217805968038, 39.501176459082345 ], [ -8.311093833391189, 39.50120547032094 ], [ -8.31104221173625, 39.501205550233387 ], [ -8.311011045231311, 39.50115678286673 ], [ -8.310969529421353, 39.501062996488031 ], [ -8.310922812055773, 39.500979213980251 ], [ -8.310893300113182, 39.500896663418466 ], [ -8.310865451681741, 39.50078160145668 ], [ -8.310858301355216, 39.50071396916055 ], [ -8.310842738763471, 39.500675263890862 ], [ -8.310808262764128, 39.500650278117746 ], [ -8.310754861624005, 39.500635316283649 ], [ -8.31069100312626, 39.500624156026014 ], [ -8.310575686457378, 39.500630549606996 ], [ -8.310510255817949, 39.500639388019003 ], [ -8.310431081782378, 39.500639509695709 ], [ -8.310382818380978, 39.500634631261697 ], [ -8.310253776150127, 39.500682386531537 ] ] ] } },
{ "type": "Feature", "properties": { "dtmnfr": "140802", "freguesia": "Montalvo", "municipio": "Constância", "distrito_i": "Santarém", "nuts3_cod": "1D2", "nuts3": "Médio Tejo", "nuts2": "Oeste e Vale do Tejo", "nuts1": "Continente", "area_ha": 1281.44, "perimetro_": 15, "designacao": "Montalvo" }, "geometry": { "type": "Polygon", "coordinates": [ [ [ -8.316044593210954, 39.471070911228942 ], [ -8.314863155872185, 39.471858006798108 ], [ -8.314237949884333, 39.472087313625558 ], [ -8.313856176823533, 39.472216804273749 ], [ -8.313083214963591, 39.472521187210418 ], [ -8.312761172254245, 39.472651662642988 ], [ -8.31234813015657, 39.472825506624226 ], [ -8.312300081139986, 39.472848280141406 ], [ -8.311917376769095, 39.473250761128938 ], [ -8.311777048130867, 39.473409861374066 ], [ -8.311638738792819, 39.473584001853567 ], [ -8.311405717245819, 39.473850875870589 ], [ -8.31117080867779, 39.474109468553003 ], [ -8.310706528806239, 39.474564495650206 ], [ -8.310343283034749, 39.47517536468817 ], [ -8.31012422237858, 39.475725305916399 ], [ -8.310324330185177, 39.47594314542669 ], [ -8.310523590482504, 39.476600075592842 ], [ -8.310592560798533, 39.476802986438194 ], [ -8.310621191794427, 39.476862297096581 ], [ -8.310750875412646, 39.477036112589261 ], [ -8.310878523169638, 39.477185159981012 ], [ -8.310985333367505, 39.477323071319937 ], [ -8.311135679397733, 39.47739597451681 ], [ -8.311230771899726, 39.477449690780617 ], [ -8.311377549858364, 39.477624829519229 ], [ -8.311651877962179, 39.477912988526946 ], [ -8.311913007281904, 39.478216476369219 ], [ -8.312036968401813, 39.47837777854798 ], [ -8.312102178415683, 39.478651127170401 ], [ -8.312091572799533, 39.478954946055261 ], [ -8.3120938664017, 39.479123372547029 ], [ -8.312050293025765, 39.479170457953423 ], [ -8.311985761073641, 39.47920505495275 ], [ -8.311881343729885, 39.479234217169292 ], [ -8.311773102482542, 39.479263390571411 ], [ -8.311668702462338, 39.479299396990157 ], [ -8.31158714743415, 39.479356180730754 ], [ -8.311553119424952, 39.47941288428563 ], [ -8.311569189415861, 39.479738731999419 ], [ -8.311533453248357, 39.479944416648181 ], [ -8.311526219542857, 39.480068723443281 ], [ -8.311484816265624, 39.480240005519498 ], [ -8.311433863131787, 39.480357443969034 ], [ -8.311375512660788, 39.480581267293111 ], [ -8.311402462581583, 39.480711016827584 ], [ -8.311436901489483, 39.480813103382886 ], [ -8.31155537098012, 39.481097270777603 ], [ -8.311616859855372, 39.481367830382567 ], [ -8.311636335696781, 39.481530734366409 ], [ -8.311549402957926, 39.481757394680805 ], [ -8.311481431077198, 39.481902420646207 ], [ -8.311434237162183, 39.481989505122051 ], [ -8.311428672275104, 39.482040577922795 ], [ -8.311468701519498, 39.48210401765833 ], [ -8.311585024504936, 39.482275060378598 ], [ -8.311642439798558, 39.482357545679641 ], [ -8.311744025150901, 39.482396711509928 ], [ -8.311822664647366, 39.48248238231281 ], [ -8.311873772592884, 39.482625289812262 ], [ -8.311952485753157, 39.482739558521864 ], [ -8.311961930801099, 39.482825335626273 ], [ -8.311911499880399, 39.48294695087472 ], [ -8.311799729744905, 39.483134581670299 ], [ -8.311787827328262, 39.483290308382202 ], [ -8.311534396950242, 39.483401512382912 ], [ -8.311451481309676, 39.483448110268178 ], [ -8.311447032366644, 39.483512460357254 ], [ -8.3115163560105, 39.483562399579263 ], [ -8.311585660315949, 39.483605189037164 ], [ -8.311678039151285, 39.483651517896988 ], [ -8.311673637275584, 39.483733741398936 ], [ -8.311650718191091, 39.483790971003174 ], [ -8.311623204042151, 39.483855357408416 ], [ -8.311623414239737, 39.483937573825123 ], [ -8.311591360953893, 39.484030564394132 ], [ -8.311550044392721, 39.484109270566321 ], [ -8.311545814747367, 39.484259412826525 ], [ -8.311532386963799, 39.484420292922621 ], [ -8.311518895182864, 39.484556150784542 ], [ -8.311482355965669, 39.48469919284846 ], [ -8.311459838173263, 39.484913706393037 ], [ -8.311404846270751, 39.485056777625928 ], [ -8.311280802645378, 39.485257148151625 ], [ -8.311047760128845, 39.485601787338233 ], [ -8.310934057226111, 39.486044922382824 ], [ -8.310913506371103, 39.486143491184585 ], [ -8.310904009115758, 39.486203494963753 ], [ -8.31090584161382, 39.486327423842241 ], [ -8.311066901318378, 39.486718346522096 ], [ -8.31112696197288, 39.486929463080791 ], [ -8.31117666805735, 39.487138171677124 ], [ -8.311206712207673, 39.487250169000056 ], [ -8.311223274560071, 39.487315533467104 ], [ -8.311236309318746, 39.487458902952909 ], [ -8.311265187265121, 39.487748790052194 ], [ -8.311363342048443, 39.487994259273343 ], [ -8.311468883575182, 39.488217466209669 ], [ -8.311577952329753, 39.488637020834283 ], [ -8.311604259206177, 39.488740291487609 ], [ -8.311619248472361, 39.488782511242107 ], [ -8.311734679789589, 39.489099376274154 ], [ -8.311784206888916, 39.489237284496092 ], [ -8.311829006985137, 39.489345384135895 ], [ -8.311835552906373, 39.489586133487201 ], [ -8.311840766084959, 39.489667725153623 ], [ -8.311873028170897, 39.489738021910213 ], [ -8.311888990696279, 39.489887331370198 ], [ -8.311905330429736, 39.490092209733319 ], [ -8.311872084483367, 39.490272850878249 ], [ -8.311778997869951, 39.490686054214834 ], [ -8.31168909041944, 39.491118704945826 ], [ -8.311548295203282, 39.49174067036617 ], [ -8.311317891573173, 39.493001633520237 ], [ -8.311397603144842, 39.494116029468209 ], [ -8.311488766646765, 39.49480085946491 ], [ -8.311766808503066, 39.495599433324855 ], [ -8.311817394437718, 39.495740852468153 ], [ -8.312030617366698, 39.496285349257562 ], [ -8.312284801363923, 39.496935706297855 ], [ -8.312397130682845, 39.497304812735678 ], [ -8.312119428415679, 39.497474024980683 ], [ -8.311971847230232, 39.497499274373219 ], [ -8.311713631338327, 39.497564015317863 ], [ -8.311450774505172, 39.497618038205232 ], [ -8.311054555278558, 39.497715770155764 ], [ -8.310793615440263, 39.497801235565845 ], [ -8.310527115318186, 39.497831279967492 ], [ -8.310290242421981, 39.497853261508148 ], [ -8.309730276109496, 39.497870060319507 ], [ -8.309758118263266, 39.498345314125046 ], [ -8.309763109828285, 39.498481041599739 ], [ -8.309833438518726, 39.49897892293879 ], [ -8.30995140649781, 39.499692271226529 ], [ -8.310013228252959, 39.499954274579011 ], [ -8.310168633209242, 39.500393391648387 ], [ -8.310253776150127, 39.500682386531537 ], [ -8.309952650999806, 39.500814170123348 ], [ -8.30983221557457, 39.500864432883276 ], [ -8.309682484000401, 39.500915999187143 ], [ -8.309503495470347, 39.500982563055601 ], [ -8.309391590876311, 39.501005251995927 ], [ -8.309320910229584, 39.501006623716705 ], [ -8.309158866144854, 39.501016866025118 ], [ -8.309084842273425, 39.501029501373758 ], [ -8.308993631266331, 39.501050894931225 ], [ -8.308892407392348, 39.501203715207488 ], [ -8.308822149681582, 39.501374053984307 ], [ -8.308786157409607, 39.501437966867066 ], [ -8.30861066555144, 39.501510739780926 ], [ -8.308569294994674, 39.501518372576299 ], [ -8.308569266685005, 39.501507113910684 ], [ -8.308119774089988, 39.501542832076346 ], [ -8.307856478580549, 39.501605197832717 ], [ -8.307780856829988, 39.501677460870468 ], [ -8.307733906186536, 39.501731390353378 ], [ -8.307643290824219, 39.501850149963097 ], [ -8.307570969965331, 39.501894303470031 ], [ -8.307490259240423, 39.501932344778396 ], [ -8.30746330338167, 39.50193977361873 ], [ -8.307417863084263, 39.501945962886154 ], [ -8.3073235756061, 39.501946105104949 ], [ -8.307273002692437, 39.501947354479846 ], [ -8.307210685386199, 39.50194744871267 ], [ -8.307160207617009, 39.501940232248558 ], [ -8.30710458288703, 39.501919509413092 ], [ -8.307016861405517, 39.501895140807413 ], [ -8.306929296212273, 39.50188914881501 ], [ -8.306835009971058, 39.50188929063571 ], [ -8.306638120348474, 39.501959389548738 ], [ -8.306360676558596, 39.502083292410177 ], [ -8.306296775875063, 39.50210176272325 ], [ -8.306091459760069, 39.502148546119336 ], [ -8.30593160050817, 39.502197697076916 ], [ -8.305751547401458, 39.502259212841196 ], [ -8.305610256905911, 39.502340124066528 ], [ -8.305502680075207, 39.502422247912143 ], [ -8.305386840304815, 39.502543565101234 ], [ -8.305277676202369, 39.502688019287241 ], [ -8.305230649350923, 39.50271258515842 ], [ -8.305122956750051, 39.502745802800824 ], [ -8.304974841703473, 39.502794935063434 ], [ -8.304885780253755, 39.502840369912612 ], [ -8.304818378892552, 39.502855060757504 ], [ -8.304655055134267, 39.502865123043193 ], [ -8.304340352262205, 39.502876579046408 ], [ -8.304232639697158, 39.502902406579082 ], [ -8.3040610602154, 39.502960127925917 ], [ -8.30393656699871, 39.503017865412197 ], [ -8.303857460173043, 39.503046086947691 ], [ -8.303806999789105, 39.503046161042555 ], [ -8.303749625863997, 39.503021837288749 ], [ -8.303685598436662, 39.50299004748733 ], [ -8.303594483250562, 39.502957215636755 ], [ -8.303520377895408, 39.502940123675295 ], [ -8.30345304322417, 39.502934188582003 ], [ -8.303053957228011, 39.502955494027354 ], [ -8.302734174329952, 39.502980465357403 ], [ -8.302621367695972, 39.503013592669362 ], [ -8.302572626720648, 39.503052845820136 ], [ -8.302461695346436, 39.5031410964706 ], [ -8.302342359354169, 39.503217108875319 ], [ -8.302249849084344, 39.503277233479857 ], [ -8.302069764844072, 39.503331265097948 ], [ -8.301919973697922, 39.503360847186528 ], [ -8.301613052181192, 39.503418044392767 ], [ -8.301575276278973, 39.503421520880764 ], [ -8.301459835452871, 39.503380167789182 ], [ -8.300488184416583, 39.503035807689741 ], [ -8.300095848011155, 39.50296315151958 ], [ -8.299755279012992, 39.503144324382369 ], [ -8.299039882282838, 39.503523738261713 ], [ -8.298590529716956, 39.503967252918891 ], [ -8.298400446019135, 39.504166847414915 ], [ -8.298078269442835, 39.503973213036872 ], [ -8.297709963664593, 39.504277989370529 ], [ -8.29740960512822, 39.504554483034681 ], [ -8.297571817226201, 39.50490182517499 ], [ -8.296579640216594, 39.50571115881035 ], [ -8.295886473462129, 39.506267773469382 ], [ -8.295294579803578, 39.506534043878254 ], [ -8.294262599317067, 39.506999525562279 ], [ -8.293529529202754, 39.505958906022897 ], [ -8.292557739965988, 39.504496000778992 ], [ -8.292015999648365, 39.503717114068245 ], [ -8.291754395606997, 39.503462578717937 ], [ -8.291496565522495, 39.503229206696552 ], [ -8.290475555394591, 39.503805696847294 ], [ -8.289624794574411, 39.504299083952901 ], [ -8.28888883559001, 39.504717283031795 ], [ -8.288390455457622, 39.505004554898562 ], [ -8.288178333336866, 39.505137152998792 ], [ -8.287685921390727, 39.505390910669995 ], [ -8.28726476186438, 39.505634568662671 ], [ -8.286825666525445, 39.505557160547426 ], [ -8.286593479945346, 39.505507029207301 ], [ -8.286359354799654, 39.505420064183554 ], [ -8.285854484753996, 39.504563641254258 ], [ -8.284901455908026, 39.504202551841821 ], [ -8.284831080105077, 39.504133561182904 ], [ -8.28457368947746, 39.503774434215103 ], [ -8.284486435857245, 39.503643772118785 ], [ -8.284319599272219, 39.503060882749324 ], [ -8.284281565993959, 39.502683453837534 ], [ -8.283616959721412, 39.502559491217497 ], [ -8.283210740487199, 39.502349531638146 ], [ -8.282879268472772, 39.50218756887481 ], [ -8.282195812949949, 39.501839619094937 ], [ -8.28209611124738, 39.501699871377681 ], [ -8.282168399576827, 39.501633573901174 ], [ -8.282261306559752, 39.501532758643968 ], [ -8.282716685366228, 39.501092176826262 ], [ -8.282610386792191, 39.500648454583967 ], [ -8.282565240436705, 39.5004706276627 ], [ -8.282427909921974, 39.500080536568817 ], [ -8.282194718183094, 39.499392082594973 ], [ -8.281905928010556, 39.49852968450741 ], [ -8.281447716597871, 39.497104935165169 ], [ -8.281373671561591, 39.496838784296877 ], [ -8.281075848798954, 39.496198144355546 ], [ -8.280869961410174, 39.49576184608474 ], [ -8.280670849895523, 39.495340577768168 ], [ -8.280430302847243, 39.494840102869638 ], [ -8.280180096298189, 39.494334594837035 ], [ -8.279761920608102, 39.493447316620369 ], [ -8.279075524766936, 39.491878913506063 ], [ -8.278655603663847, 39.490923450227754 ], [ -8.278332388852574, 39.490181148178635 ], [ -8.277992371122144, 39.489401938319666 ], [ -8.277676172043783, 39.488672147017901 ], [ -8.277548201439348, 39.488121082788524 ], [ -8.277251200815902, 39.486950016498497 ], [ -8.277103804467442, 39.486443109956006 ], [ -8.276584072274739, 39.484636696278336 ], [ -8.276464666410547, 39.484230363227269 ], [ -8.276257253629195, 39.48358842978935 ], [ -8.275854991636747, 39.482303547285454 ], [ -8.275631147869923, 39.481581109196306 ], [ -8.275456610510806, 39.480978853705196 ], [ -8.275372815978539, 39.48070145143393 ], [ -8.275300112550784, 39.480502219007839 ], [ -8.275220741136634, 39.480395314650877 ], [ -8.27475853346192, 39.480522792664559 ], [ -8.274415033790643, 39.480611574679855 ], [ -8.274195665454721, 39.479450218688918 ], [ -8.274064592478913, 39.478726042458085 ], [ -8.274005290290491, 39.478429694686611 ], [ -8.273915584894365, 39.477924966972196 ], [ -8.273825694829881, 39.477271983129846 ], [ -8.273754754279924, 39.476566556338767 ], [ -8.273610433315064, 39.475265408900484 ], [ -8.273377118810387, 39.473231204717536 ], [ -8.273363093796622, 39.473021088004295 ], [ -8.273296399636438, 39.472512008212561 ], [ -8.273254612520009, 39.472077743919442 ], [ -8.273175781843648, 39.471545617936769 ], [ -8.27246254896705, 39.470952924113398 ], [ -8.272704948216523, 39.470713768192979 ], [ -8.276008989828822, 39.468707823583216 ], [ -8.277068037163286, 39.467892183648608 ], [ -8.278339561016084, 39.466780752900938 ], [ -8.279171217016321, 39.466056256395461 ], [ -8.280445854872845, 39.465075038186754 ], [ -8.281377102912568, 39.46442696103064 ], [ -8.281856993219142, 39.464147305129245 ], [ -8.283223684639893, 39.463746793546058 ], [ -8.283959849894723, 39.463605318745678 ], [ -8.28601731258914, 39.463148025471163 ], [ -8.286673859194568, 39.463000337722946 ], [ -8.288137749482075, 39.462804095906151 ], [ -8.288794336007056, 39.462728902710694 ], [ -8.290417714160244, 39.462617172019741 ], [ -8.291398383666403, 39.462495946137807 ], [ -8.292760288463612, 39.462425792330329 ], [ -8.293604722607228, 39.462387420209737 ], [ -8.294494719268886, 39.46240481871542 ], [ -8.295365055041728, 39.462560586699091 ], [ -8.297154554584738, 39.463023082994177 ], [ -8.298804847459872, 39.463476019829372 ], [ -8.300417844960981, 39.463972135013343 ], [ -8.301483479306345, 39.464387966411259 ], [ -8.302190848945566, 39.464695148803372 ], [ -8.30374412231572, 39.46535955392423 ], [ -8.304529635109567, 39.465633911850936 ], [ -8.305453682593875, 39.465962639987886 ], [ -8.306510248370943, 39.466352318216444 ], [ -8.307479988202255, 39.466912525355646 ], [ -8.308040114339891, 39.467241782441889 ], [ -8.308904562395623, 39.467740981875856 ], [ -8.309603060189112, 39.468054710194203 ], [ -8.310048669889795, 39.468263889378726 ], [ -8.311078414587699, 39.468727874604184 ], [ -8.312990273109076, 39.469579574643014 ], [ -8.314149608787504, 39.470126551429331 ], [ -8.314387412279984, 39.470228947415492 ], [ -8.314959262014129, 39.470442231494857 ], [ -8.315329654698314, 39.470629625389691 ], [ -8.316044593210954, 39.471070911228942 ] ] ] } },
{ "type": "Feature", "properties": { "dtmnfr": "140803", "freguesia": "Santa Margarida da Coutada", "municipio": "Constância", "distrito_i": "Santarém", "nuts3_cod": "1D2", "nuts3": "Médio Tejo", "nuts2": "Oeste e Vale do Tejo", "nuts1": "Continente", "area_ha": 5871.99, "perimetro_": 39, "designacao": "Santa Margarida da Coutada" }, "geometry": { "type": "Polygon", "coordinates": [ [ [ -8.261593173963547, 39.411144876571157 ], [ -8.261556133736331, 39.410956223002778 ], [ -8.261440390159605, 39.410841597437312 ], [ -8.261129891356399, 39.4107065698513 ], [ -8.26077143513333, 39.410509983622156 ], [ -8.26060479010718, 39.41036857727056 ], [ -8.260502798326227, 39.410155313212762 ], [ -8.260535965585392, 39.409757255282763 ], [ -8.260552147169546, 39.409402184359436 ], [ -8.260551970563149, 39.409305804834567 ], [ -8.260514870652099, 39.409084184901012 ], [ -8.260432502959697, 39.408741648949977 ], [ -8.260417014866043, 39.408025694822484 ], [ -8.260393468411303, 39.40746764237462 ], [ -8.260491408387635, 39.407061224140321 ], [ -8.260592549432699, 39.406878631862895 ], [ -8.26071064654559, 39.406702050260812 ], [ -8.260752635216575, 39.406490699917939 ], [ -8.260721313661646, 39.406316268200428 ], [ -8.260644578528384, 39.406004528601578 ], [ -8.260500240343882, 39.405742042749381 ], [ -8.260308073512114, 39.405481682446037 ], [ -8.260082032230658, 39.405297287907977 ], [ -8.259777096713876, 39.405082173594685 ], [ -8.25964416105638, 39.404889477604542 ], [ -8.259567458681447, 39.404596203579224 ], [ -8.259437037515475, 39.40425579321451 ], [ -8.259173947300363, 39.40380878580914 ], [ -8.258871590067386, 39.403472615943308 ], [ -8.258744536716202, 39.403386557748028 ], [ -8.258592064550081, 39.40336843963798 ], [ -8.258374881442915, 39.403325532259949 ], [ -8.258092802400199, 39.40328278698226 ], [ -8.257886631513868, 39.403166006648746 ], [ -8.257703022487425, 39.403008494092667 ], [ -8.257581497218435, 39.402831999877741 ], [ -8.257208489703313, 39.402321700699126 ], [ -8.256982306139868, 39.401985442752412 ], [ -8.256529362514856, 39.401111884323804 ], [ -8.256322739424476, 39.400670939649281 ], [ -8.256195303856455, 39.400365377129191 ], [ -8.25590978041236, 39.399947035629403 ], [ -8.255771141972591, 39.399672286107645 ], [ -8.255584234973664, 39.399282567085095 ], [ -8.255519083415576, 39.39907340633097 ], [ -8.255171025142154, 39.398406982244055 ], [ -8.255069300166468, 39.398259373771822 ], [ -8.25496464236852, 39.39809330185745 ], [ -8.254865691510453, 39.397939570848045 ], [ -8.25470162896284, 39.397660705076326 ], [ -8.254650653933554, 39.397521145986182 ], [ -8.254593891335402, 39.397324311152772 ], [ -8.254353712209843, 39.397000403978019 ], [ -8.254006366725152, 39.396662551159608 ], [ -8.25377775682731, 39.396512195506745 ], [ -8.253452225982311, 39.39630131897205 ], [ -8.253002985281432, 39.39604562886332 ], [ -8.252645304572416, 39.395903238303404 ], [ -8.252196255691215, 39.395755088256998 ], [ -8.251921974405921, 39.395636117796805 ], [ -8.251679288449905, 39.395550802081388 ], [ -8.251126054969216, 39.395333307199301 ], [ -8.250531361177424, 39.395115851526249 ], [ -8.25015338673122, 39.395005416666045 ], [ -8.249876824149142, 39.394927050535514 ], [ -8.249646602012936, 39.395009499398093 ], [ -8.249439231472907, 39.394981109257294 ], [ -8.249185605195125, 39.394841949197904 ], [ -8.248973497800407, 39.394734918936287 ], [ -8.248761439431064, 39.394656485897613 ], [ -8.248558647108965, 39.394610215871005 ], [ -8.248392848677407, 39.394646127792448 ], [ -8.248190239850929, 39.394710673552318 ], [ -8.248047481761965, 39.394750136222122 ], [ -8.24789082032037, 39.394739566978217 ], [ -8.247743309461379, 39.394689666049459 ], [ -8.24758659562014, 39.394646923853848 ], [ -8.247443698443181, 39.394600592937586 ], [ -8.247305425211492, 39.394564982105706 ], [ -8.247144053268832, 39.3944900712901 ], [ -8.247033422642476, 39.394454432137856 ], [ -8.246927447182717, 39.394447386889169 ], [ -8.246710905130918, 39.394444023582246 ], [ -8.246522647084046, 39.394355189696817 ], [ -8.246377319416856, 39.394221397825532 ], [ -8.246239728224678, 39.39398699121471 ], [ -8.246158852450934, 39.393797383989451 ], [ -8.246096664579415, 39.393602890196959 ], [ -8.246022401668855, 39.39348163522456 ], [ -8.245921356932026, 39.393372376660317 ], [ -8.245829043061663, 39.393265225325251 ], [ -8.245704439023314, 39.393133081531232 ], [ -8.245639780118813, 39.393033051342293 ], [ -8.245575097283247, 39.392918723204623 ], [ -8.245519669449241, 39.392829408823864 ], [ -8.245421587064595, 39.392499644043106 ], [ -8.245467486055299, 39.39202925132453 ], [ -8.245464475655174, 39.391822000803522 ], [ -8.245414409766187, 39.39158444253448 ], [ -8.245299648221662, 39.391394867332878 ], [ -8.24515403168426, 39.391077331128677 ], [ -8.245124792952824, 39.390942698889184 ], [ -8.245124456925524, 39.390735446646111 ], [ -8.24521563195956, 39.39055296777989 ], [ -8.245447689705918, 39.390279015056564 ], [ -8.245559725413987, 39.390149650710917 ], [ -8.245645662034635, 39.389957628979396 ], [ -8.245676682182193, 39.389763673343865 ], [ -8.245592868900426, 39.389613698063613 ], [ -8.245440893095569, 39.389381911790224 ], [ -8.245317689366246, 39.389068410857753 ], [ -8.245210355824206, 39.388948807542207 ], [ -8.245001203176018, 39.388814089912792 ], [ -8.244768507878863, 39.388692625997152 ], [ -8.244645621586955, 39.388572952408921 ], [ -8.244637503003583, 39.38843425373026 ], [ -8.244694541413281, 39.388171913617555 ], [ -8.244715221209429, 39.388040660544121 ], [ -8.244675824009473, 39.387867760187071 ], [ -8.244550059317392, 39.387615141029507 ], [ -8.24438247990005, 39.387419490502701 ], [ -8.244131549929278, 39.387216356884096 ], [ -8.243501248346742, 39.386616459829867 ], [ -8.243906367487751, 39.386475108373574 ], [ -8.244458775783567, 39.386231499682545 ], [ -8.245195294749447, 39.385894769066837 ], [ -8.245407014385085, 39.385780174109279 ], [ -8.245485022443292, 39.385590637873129 ], [ -8.245526137607275, 39.385376115360067 ], [ -8.245575776479175, 39.384732617149766 ], [ -8.2455889300537, 39.384317937624623 ], [ -8.245546150548202, 39.383162685328109 ], [ -8.245589990707499, 39.382108757964183 ], [ -8.24563581345279, 39.381958575162514 ], [ -8.245626428057621, 39.381851343223602 ], [ -8.245506160097717, 39.381536883579805 ], [ -8.245150788712582, 39.38110825949515 ], [ -8.24474498805637, 39.380826246273905 ], [ -8.244417592089722, 39.380604927052467 ], [ -8.243407937605607, 39.380041081911699 ], [ -8.242366133440353, 39.379527304627985 ], [ -8.242126385368774, 39.379380965861678 ], [ -8.241895650237797, 39.379105928349738 ], [ -8.241600254886199, 39.378716558808449 ], [ -8.241332509741063, 39.378334312663142 ], [ -8.241217114906313, 39.378177132342216 ], [ -8.241083142165349, 39.37791987613663 ], [ -8.240913930489937, 39.377202994300475 ], [ -8.240897222907529, 39.37653207054084 ], [ -8.240817250426675, 39.375743114111991 ], [ -8.240995880294607, 39.375092349217482 ], [ -8.241050898275605, 39.374614133747315 ], [ -8.241114014005385, 39.374041269663785 ], [ -8.241108317437574, 39.373333478907526 ], [ -8.241029458076309, 39.372968929175634 ], [ -8.241028935267439, 39.372629330469366 ], [ -8.241124961292824, 39.372178826021674 ], [ -8.241317555909214, 39.371631713537418 ], [ -8.241356918303037, 39.371425146042903 ], [ -8.241654670990892, 39.370450473462569 ], [ -8.241964674977458, 39.369449309203034 ], [ -8.242218148744007, 39.36858943222024 ], [ -8.242431642562272, 39.368062311016317 ], [ -8.242646967207499, 39.367297132391791 ], [ -8.243184230906683, 39.365476999162809 ], [ -8.243291499712614, 39.36507247512931 ], [ -8.243590760292181, 39.364055646904504 ], [ -8.244204605074938, 39.361903883355303 ], [ -8.244318027614389, 39.361509800596444 ], [ -8.245052282072226, 39.358863872018411 ], [ -8.245437187785534, 39.357468740759465 ], [ -8.245896608873329, 39.35595265822063 ], [ -8.24627492688454, 39.354517271311714 ], [ -8.246792543318641, 39.352788019282322 ], [ -8.247057640840028, 39.351731488933531 ], [ -8.247419908845931, 39.350509128910872 ], [ -8.247768904606799, 39.349198962111572 ], [ -8.248141525172668, 39.348357865195617 ], [ -8.248260505469355, 39.347564125899098 ], [ -8.248344720432288, 39.347350928346913 ], [ -8.248512881227494, 39.346768178922893 ], [ -8.249240829157557, 39.346428774695362 ], [ -8.250011224064339, 39.3460869840995 ], [ -8.252221156321868, 39.345097171002294 ], [ -8.253660916012421, 39.344458681369311 ], [ -8.254788514812851, 39.343964894402369 ], [ -8.255334609213309, 39.343743908446598 ], [ -8.257645711256048, 39.343042833662011 ], [ -8.258994614412524, 39.342629286170897 ], [ -8.261198367626529, 39.341937714381864 ], [ -8.263470372427433, 39.34123386374074 ], [ -8.265950283576338, 39.340458751995804 ], [ -8.267877670635375, 39.339864380921782 ], [ -8.269785540497919, 39.339270093583949 ], [ -8.272990090265461, 39.338292929195667 ], [ -8.276126244942224, 39.337320356914063 ], [ -8.276874646402426, 39.337501639379489 ], [ -8.277499213137432, 39.337650106070754 ], [ -8.278777823158901, 39.337946901524305 ], [ -8.278940815620704, 39.33812413881757 ], [ -8.28070513454, 39.340402232520695 ], [ -8.281745289155191, 39.341660725054027 ], [ -8.282893132970198, 39.343134522040479 ], [ -8.283359415235031, 39.343763872099267 ], [ -8.283708362883139, 39.344196755448692 ], [ -8.28464104704871, 39.345329800598428 ], [ -8.285782069095422, 39.346600011344229 ], [ -8.286457044355632, 39.347309602689137 ], [ -8.287640688547691, 39.348676747080411 ], [ -8.287966870484491, 39.349078748271062 ], [ -8.288563569015173, 39.349778970023692 ], [ -8.289369084236643, 39.350677874858768 ], [ -8.289854994189833, 39.351214758666643 ], [ -8.290145838973139, 39.351830090757389 ], [ -8.290420312004487, 39.352438151053143 ], [ -8.290652557498881, 39.352992041765361 ], [ -8.290988382629328, 39.353384563552645 ], [ -8.291252492529367, 39.353661260980232 ], [ -8.291508478536858, 39.35465313575947 ], [ -8.2915673551247, 39.354828332943327 ], [ -8.291721227047708, 39.355655698126007 ], [ -8.29192789090186, 39.356582606908184 ], [ -8.29208232756972, 39.357347368802962 ], [ -8.292310076924371, 39.358002684631984 ], [ -8.292674928999595, 39.358992874986889 ], [ -8.293137843880222, 39.360190177399453 ], [ -8.293302418666793, 39.360561855933149 ], [ -8.293471166831548, 39.361033144333767 ], [ -8.293820113460717, 39.361855906212455 ], [ -8.294169300180927, 39.362778110397898 ], [ -8.294294871179341, 39.363087597191665 ], [ -8.294502664535935, 39.36357837808427 ], [ -8.294726213960578, 39.364154337409822 ], [ -8.294918465140448, 39.364645315589641 ], [ -8.295196946876873, 39.365340456165143 ], [ -8.295542211672458, 39.366208797292309 ], [ -8.295812732584615, 39.366815851716915 ], [ -8.296193344481724, 39.3678088924365 ], [ -8.296456221634736, 39.368467118452756 ], [ -8.296762345698749, 39.369258861165157 ], [ -8.296891812844329, 39.369587978555131 ], [ -8.297088173749897, 39.370183876832243 ], [ -8.297430120485162, 39.371296222311607 ], [ -8.297544103259677, 39.371648055183002 ], [ -8.297701272440902, 39.37220707999095 ], [ -8.297791927299304, 39.372556338880706 ], [ -8.298153471863914, 39.373702963223884 ], [ -8.298247736817054, 39.374009430708213 ], [ -8.298374398903755, 39.374761522996344 ], [ -8.29863119483505, 39.376064392751019 ], [ -8.298848202989916, 39.377128628566538 ], [ -8.298943156152568, 39.377670718921983 ], [ -8.298963509204727, 39.378076820930552 ], [ -8.298994411078191, 39.379547455722744 ], [ -8.298918025419029, 39.380220395563143 ], [ -8.298950620592791, 39.380844902557442 ], [ -8.298972164689969, 39.381699371555335 ], [ -8.298989326824522, 39.382326869133863 ], [ -8.299009602338996, 39.38265046810865 ], [ -8.299189471951271, 39.384481529159153 ], [ -8.299257532055831, 39.385176955003296 ], [ -8.299349528882155, 39.38612788198332 ], [ -8.299402351739962, 39.386374779754732 ], [ -8.299663157454017, 39.386757564411106 ], [ -8.300391091674477, 39.387676637840492 ], [ -8.300903923634182, 39.388297900338344 ], [ -8.301148800308322, 39.388597822573139 ], [ -8.301468625395572, 39.389412395802367 ], [ -8.301704612481419, 39.389844595025146 ], [ -8.301672605840066, 39.389944733246345 ], [ -8.301402596788446, 39.390692239325752 ], [ -8.301187291660408, 39.391200160464415 ], [ -8.301068205587956, 39.391489884002588 ], [ -8.300788619993366, 39.392090839957703 ], [ -8.300473285171796, 39.39280049969387 ], [ -8.30019386176855, 39.393470850231601 ], [ -8.298212314921349, 39.39429704450086 ], [ -8.298216598517476, 39.396097103963235 ], [ -8.298255143715181, 39.397073141175937 ], [ -8.298191576340249, 39.39738586794806 ], [ -8.298248649340721, 39.397710132768438 ], [ -8.298269673515815, 39.398154238119666 ], [ -8.29829602418039, 39.399080666617387 ], [ -8.298764354652661, 39.40010563225335 ], [ -8.299225097136642, 39.401065609444323 ], [ -8.299414983665965, 39.401476429576469 ], [ -8.299586161536324, 39.401769310760947 ], [ -8.300011182131206, 39.40250880801058 ], [ -8.300169075444956, 39.402755095488978 ], [ -8.3006604082527, 39.403568714560627 ], [ -8.301188640550437, 39.404470906372936 ], [ -8.301333868219215, 39.404704425775819 ], [ -8.301631947455284, 39.405057604808349 ], [ -8.302115365748573, 39.405664696587905 ], [ -8.302663222713825, 39.406408954522163 ], [ -8.302973468691233, 39.406794178499112 ], [ -8.303565895958675, 39.407620328966821 ], [ -8.303819899857826, 39.40803202652917 ], [ -8.304113937124946, 39.408382236168059 ], [ -8.304758625311633, 39.409158496870546 ], [ -8.30512459469864, 39.409342056266418 ], [ -8.305828416425134, 39.409700385461377 ], [ -8.306906280927425, 39.410262788299256 ], [ -8.307574015313369, 39.410624131312616 ], [ -8.308732296078281, 39.411203869386391 ], [ -8.309814282893072, 39.411769117550179 ], [ -8.310671068444702, 39.412217792700233 ], [ -8.311411145164216, 39.412611158466504 ], [ -8.31227579413922, 39.413036392097219 ], [ -8.312854628720279, 39.413216713126637 ], [ -8.313693123675408, 39.414384249143538 ], [ -8.31420315291224, 39.414985106344147 ], [ -8.314966834243529, 39.415986488995443 ], [ -8.31507979727623, 39.416199688717796 ], [ -8.315531647352627, 39.416914944453225 ], [ -8.31587031154284, 39.417419884873155 ], [ -8.316346173404707, 39.418120417991581 ], [ -8.316854494701932, 39.418926097964032 ], [ -8.317350700779604, 39.419670548353331 ], [ -8.317925461430272, 39.42051763996087 ], [ -8.318479833454132, 39.421206146226538 ], [ -8.31915081923189, 39.421981289860838 ], [ -8.319699416456194, 39.422629720518607 ], [ -8.32046685718719, 39.423593037976765 ], [ -8.320940002605775, 39.424199256185524 ], [ -8.321722018406486, 39.42517091812892 ], [ -8.322034166624039, 39.425544826148304 ], [ -8.322437142447134, 39.426049641264846 ], [ -8.32346162614944, 39.427291646426653 ], [ -8.32392264490262, 39.42786408906786 ], [ -8.324555846210654, 39.428664666976708 ], [ -8.32494986792792, 39.429152641888244 ], [ -8.325187444134865, 39.429890369869277 ], [ -8.325386844460722, 39.430427216132721 ], [ -8.325668281992725, 39.43118819877489 ], [ -8.325908663507171, 39.431883678097144 ], [ -8.326075994474788, 39.432371941548453 ], [ -8.326926255245356, 39.434722514488335 ], [ -8.327014279072175, 39.435005818423086 ], [ -8.327310297894391, 39.43581747923912 ], [ -8.327518497957753, 39.43641789916871 ], [ -8.327750482141706, 39.437087986339726 ], [ -8.327964242769276, 39.437597332811904 ], [ -8.328064035199709, 39.437933483049136 ], [ -8.328199125146808, 39.438345688168205 ], [ -8.328331150461663, 39.43874096136387 ], [ -8.328527344167629, 39.439195391255495 ], [ -8.328644698447446, 39.439537908206276 ], [ -8.328861463592915, 39.440076882781291 ], [ -8.328973145608842, 39.440425714734445 ], [ -8.329119837229742, 39.440869687674727 ], [ -8.329231252455195, 39.441203657233203 ], [ -8.329354251626732, 39.441444566015917 ], [ -8.329471523336151, 39.44175528902187 ], [ -8.329700587120543, 39.442448704863814 ], [ -8.329920497816651, 39.443106114641239 ], [ -8.330134712225275, 39.443681026255682 ], [ -8.330296223534873, 39.444186309481026 ], [ -8.330489623422343, 39.444668214562981 ], [ -8.330627355908115, 39.445021234644067 ], [ -8.330727086954489, 39.445327747250566 ], [ -8.33087129814327, 39.4457907311849 ], [ -8.331079654430161, 39.446424914427027 ], [ -8.331335446507319, 39.447190157217911 ], [ -8.331573280302381, 39.447932108037108 ], [ -8.331761183271137, 39.448557859890407 ], [ -8.332019525613649, 39.44927653100352 ], [ -8.332139887522803, 39.449682449157535 ], [ -8.33225057533555, 39.450038125316198 ], [ -8.332347446145361, 39.450272769448311 ], [ -8.33243050664842, 39.450472488027842 ], [ -8.333064790482982, 39.452229915274259 ], [ -8.333374245048461, 39.453177180143435 ], [ -8.333486755493301, 39.453314613915325 ], [ -8.333692238145179, 39.453581042799179 ], [ -8.333915013635938, 39.453879688448517 ], [ -8.3342951187884, 39.454384584869331 ], [ -8.334597335422474, 39.454791265328964 ], [ -8.335120765604067, 39.455434976502374 ], [ -8.335448403248547, 39.45587106441608 ], [ -8.33566763993268, 39.456186734228183 ], [ -8.335954506595046, 39.456585057610859 ], [ -8.336192794079141, 39.456897718138904 ], [ -8.336805597289942, 39.457737708740737 ], [ -8.33727470772309, 39.458346113657882 ], [ -8.337705255006457, 39.45891837259618 ], [ -8.337718641800405, 39.458966087203926 ], [ -8.338028787034872, 39.459998994134217 ], [ -8.3382064423048, 39.460626555461182 ], [ -8.338297755913649, 39.460895790062231 ], [ -8.338519809618417, 39.461525974575608 ], [ -8.338135028394715, 39.461858923622422 ], [ -8.337529366608251, 39.462395280873622 ], [ -8.336844555441576, 39.463008423384338 ], [ -8.336258092484435, 39.463520515001839 ], [ -8.335700599910032, 39.464010032002449 ], [ -8.335236444271453, 39.464430026442223 ], [ -8.335115540595472, 39.464530309026159 ], [ -8.334686448674827, 39.464702459882943 ], [ -8.334346047064097, 39.464886255816921 ], [ -8.334055127263074, 39.465384756122305 ], [ -8.334013486572299, 39.465490482212509 ], [ -8.333857351033457, 39.465706832044724 ], [ -8.333706258714692, 39.465936052098151 ], [ -8.333536372541079, 39.465857715531371 ], [ -8.333434473657487, 39.465862301839998 ], [ -8.333318956100308, 39.466058045860684 ], [ -8.333098803521731, 39.466559395047739 ], [ -8.333007970981923, 39.466814988451773 ], [ -8.332645342060991, 39.466670065900907 ], [ -8.332543510759134, 39.466623043800077 ], [ -8.332404527937495, 39.466664933214382 ], [ -8.332494637030688, 39.466875865435817 ], [ -8.332324461000153, 39.467222743517269 ], [ -8.332229738582612, 39.467258485261262 ], [ -8.331850592650886, 39.467189154699476 ], [ -8.331815126437837, 39.467099235197374 ], [ -8.331544720280496, 39.467140775217217 ], [ -8.331578902115659, 39.467308427554556 ], [ -8.331753442873692, 39.467431430212663 ], [ -8.332001005308818, 39.46740551272071 ], [ -8.332109680750825, 39.467494132394648 ], [ -8.332434243807892, 39.467655876695581 ], [ -8.332435931599056, 39.467678034666903 ], [ -8.332341368255253, 39.467769346817818 ], [ -8.33234923159608, 39.467834812555623 ], [ -8.332034429884661, 39.467836528679676 ], [ -8.331739435058163, 39.467854783033602 ], [ -8.331510445180674, 39.467912910701337 ], [ -8.331270620436181, 39.468004470610296 ], [ -8.331176016856151, 39.468041293933403 ], [ -8.330992744263751, 39.468076013634899 ], [ -8.330839897557798, 39.46810518523786 ], [ -8.330815729099223, 39.468187461287279 ], [ -8.330708747180546, 39.468203136983441 ], [ -8.330650769155969, 39.468206567177333 ], [ -8.330517620501372, 39.468175721769768 ], [ -8.330291323612125, 39.468119457861171 ], [ -8.330020631766438, 39.468062185146479 ], [ -8.329890642527817, 39.468036824347458 ], [ -8.329730618512482, 39.468198144071302 ], [ -8.329621022919152, 39.468357213982472 ], [ -8.329555791264816, 39.468548362999371 ], [ -8.329443035850442, 39.468701941990744 ], [ -8.329295015332633, 39.468794332662149 ], [ -8.329145507079662, 39.468893396247417 ], [ -8.3290601991591, 39.468971270561788 ], [ -8.32900557650825, 39.469134659769303 ], [ -8.328973971644963, 39.469300260133842 ], [ -8.328943540136963, 39.469348049461956 ], [ -8.328775786273416, 39.469448310596682 ], [ -8.328524149323323, 39.469598070911537 ], [ -8.328253270806917, 39.469392719997664 ], [ -8.327976979570074, 39.469169413923737 ], [ -8.327810507705525, 39.469012406854006 ], [ -8.327563901593626, 39.469138180906469 ], [ -8.327495416596664, 39.469206927053811 ], [ -8.327499899690727, 39.469272398756985 ], [ -8.327541219679905, 39.469462556930189 ], [ -8.327129112272864, 39.469410198398528 ], [ -8.327112108139472, 39.469480391410428 ], [ -8.326947089696988, 39.469519669657423 ], [ -8.326983879345853, 39.469627239450432 ], [ -8.326705034299051, 39.469525430238868 ], [ -8.326260701085692, 39.469583241132455 ], [ -8.325825904978927, 39.469061565518949 ], [ -8.325423305196683, 39.468539919655143 ], [ -8.325364679385148, 39.468491000407475 ], [ -8.325101952392707, 39.468548629002726 ], [ -8.324816037126853, 39.46855982443256 ], [ -8.324603845233183, 39.46854587539422 ], [ -8.324382370119801, 39.468510493730278 ], [ -8.324045508241603, 39.468443128086442 ], [ -8.323550221515067, 39.468352714452216 ], [ -8.323243385727498, 39.468293412629663 ], [ -8.322797562126251, 39.468231908493223 ], [ -8.321716079225553, 39.468083089077581 ], [ -8.321565185625502, 39.468103241010901 ], [ -8.321486251813127, 39.468094723061931 ], [ -8.321139831248281, 39.468005489132615 ], [ -8.321238206360912, 39.467600552852716 ], [ -8.320977621852867, 39.467495148850674 ], [ -8.320121895516911, 39.467287215791842 ], [ -8.320051659100583, 39.467355783860683 ], [ -8.319921598966099, 39.467432012996142 ], [ -8.319803521785479, 39.467470843622628 ], [ -8.31975892172006, 39.467479561951066 ], [ -8.319290537236798, 39.467882658958011 ], [ -8.319555240998906, 39.468136409311604 ], [ -8.319824796899965, 39.468336559508487 ], [ -8.319434885835111, 39.468624873501597 ], [ -8.318998800688702, 39.468944690875944 ], [ -8.318834584065353, 39.469068259304429 ], [ -8.318693624319305, 39.469373100712644 ], [ -8.318231868903426, 39.469437882869173 ], [ -8.318166841542912, 39.469457711730058 ], [ -8.3178233740165, 39.469692533858456 ], [ -8.317463992027795, 39.470063208678795 ], [ -8.317257710558868, 39.470277898850192 ], [ -8.316948632451934, 39.470468620508555 ], [ -8.316044593210954, 39.471070911228942 ], [ -8.315329654698314, 39.470629625389691 ], [ -8.314959262014129, 39.470442231494857 ], [ -8.314387412279984, 39.470228947415492 ], [ -8.314149608787504, 39.470126551429331 ], [ -8.312990273109076, 39.469579574643014 ], [ -8.311078414587699, 39.468727874604184 ], [ -8.310048669889795, 39.468263889378726 ], [ -8.309603060189112, 39.468054710194203 ], [ -8.308904562395623, 39.467740981875856 ], [ -8.308040114339891, 39.467241782441889 ], [ -8.307479988202255, 39.466912525355646 ], [ -8.306510248370943, 39.466352318216444 ], [ -8.305453682593875, 39.465962639987886 ], [ -8.304529635109567, 39.465633911850936 ], [ -8.30374412231572, 39.46535955392423 ], [ -8.302190848945566, 39.464695148803372 ], [ -8.301483479306345, 39.464387966411259 ], [ -8.300417844960981, 39.463972135013343 ], [ -8.298804847459872, 39.463476019829372 ], [ -8.297154554584738, 39.463023082994177 ], [ -8.297792458071115, 39.461901730543808 ], [ -8.297842376062302, 39.461558491126951 ], [ -8.297316180293205, 39.461355479145972 ], [ -8.296951111630198, 39.461120021544822 ], [ -8.296751828194262, 39.461017262595817 ], [ -8.296549527767279, 39.460819127589978 ], [ -8.29633556969225, 39.460503195716299 ], [ -8.296212911730441, 39.460373220699807 ], [ -8.295768675679767, 39.460065811382869 ], [ -8.295558609504154, 39.459774100608612 ], [ -8.295372572343044, 39.459472719291334 ], [ -8.295240968657865, 39.459363723177887 ], [ -8.295056280594343, 39.45926388984212 ], [ -8.294811628155493, 39.459156989816577 ], [ -8.294543894489538, 39.459039397540316 ], [ -8.294151605489194, 39.458900528733615 ], [ -8.29388878868766, 39.458915191027153 ], [ -8.293662839297156, 39.458919078062273 ], [ -8.293445973788936, 39.458862182576532 ], [ -8.293256718909301, 39.458780225325988 ], [ -8.293132047482439, 39.458708903597156 ], [ -8.292942638053708, 39.45855902759979 ], [ -8.292735069840857, 39.458534290233722 ], [ -8.292555201898208, 39.458523813191718 ], [ -8.292352212981367, 39.458484770195966 ], [ -8.292130730114069, 39.458424303681788 ], [ -8.291821590749414, 39.458346082839299 ], [ -8.291493925737695, 39.458232140183028 ], [ -8.291291702214043, 39.458071687558352 ], [ -8.290931954178777, 39.45785628305336 ], [ -8.290699459801139, 39.45775671659333 ], [ -8.290487326014629, 39.457643685419654 ], [ -8.290408748737169, 39.4575615736929 ], [ -8.290307034553996, 39.457443746960372 ], [ -8.290168285962446, 39.457261626585229 ], [ -8.290061978290094, 39.457150954720277 ], [ -8.289886644470108, 39.457058610571771 ], [ -8.289209740981921, 39.456858139032036 ], [ -8.288891496950297, 39.456754447087377 ], [ -8.288498539391759, 39.456593572956912 ], [ -8.288099957299709, 39.456413610067251 ], [ -8.287414904930957, 39.456146662460391 ], [ -8.287060660799931, 39.455996808937648 ], [ -8.286801873134134, 39.455924649947292 ], [ -8.286722424318565, 39.455883504471494 ], [ -8.28655905959639, 39.455804402337762 ], [ -8.286360566785824, 39.455708147324053 ], [ -8.286171352215881, 39.455636903117444 ], [ -8.286014454922729, 39.455583489688586 ], [ -8.285779114495792, 39.455505155686389 ], [ -8.285585289629356, 39.455433916574862 ], [ -8.285299218981335, 39.45535207320178 ], [ -8.284966959404809, 39.455234543199836 ], [ -8.284704478938556, 39.455134188711298 ], [ -8.284361719234068, 39.455024123986774 ], [ -8.284094735693282, 39.454903234316994 ], [ -8.283970058526691, 39.454821178032155 ], [ -8.283882447947025, 39.454733022635779 ], [ -8.28376656772295, 39.454542617128041 ], [ -8.283710772552196, 39.454328209205009 ], [ -8.283701258329057, 39.454192383619407 ], [ -8.283681265766768, 39.453976331456658 ], [ -8.283606130910165, 39.453832952818814 ], [ -8.283561579317398, 39.453566995549288 ], [ -8.28352890243811, 39.453381154957292 ], [ -8.283477734438353, 39.453173889784757 ], [ -8.283354234288115, 39.452758209470694 ], [ -8.283314859638194, 39.452480612770067 ], [ -8.283289862287594, 39.452380719091622 ], [ -8.283276185110344, 39.45233948718684 ], [ -8.283189465123355, 39.452062537000941 ], [ -8.283110457802973, 39.45177309032195 ], [ -8.282984997977326, 39.451322842093759 ], [ -8.282808566994195, 39.450754695809742 ], [ -8.282557502555896, 39.449782706002146 ], [ -8.282353086993716, 39.449060883209626 ], [ -8.282204499336215, 39.448571342415384 ], [ -8.282060340778978, 39.447996003546812 ], [ -8.281879269238329, 39.447406412965194 ], [ -8.28177696210405, 39.446995455562892 ], [ -8.281660869188967, 39.446605963246327 ], [ -8.281572759026036, 39.446366571865582 ], [ -8.281526267125663, 39.446184322107548 ], [ -8.281488912490754, 39.445962739468719 ], [ -8.281419230594684, 39.44571617553359 ], [ -8.281372785013374, 39.445555374136404 ], [ -8.281215550558198, 39.44533036923508 ], [ -8.28110440722164, 39.445098156573721 ], [ -8.28100723934646, 39.44493384463992 ], [ -8.280919346294757, 39.444794544239883 ], [ -8.280662750803652, 39.444633694155726 ], [ -8.280562185067804, 39.444431706021447 ], [ -8.280521565975583, 39.444177851249165 ], [ -8.280400613118047, 39.443730089769105 ], [ -8.280190515839848, 39.443207861533935 ], [ -8.280027293458017, 39.442820047280357 ], [ -8.279915174127133, 39.442317243588853 ], [ -8.27988139003862, 39.442052210214449 ], [ -8.279835946168197, 39.441547694648477 ], [ -8.279884363375283, 39.441207977235976 ], [ -8.279959232320584, 39.440853725919709 ], [ -8.280065443635753, 39.440599682658146 ], [ -8.280575805675422, 39.439922965595287 ], [ -8.280722068078701, 39.439714177349273 ], [ -8.280748554052773, 39.439605877910914 ], [ -8.280520976263666, 39.439268139492519 ], [ -8.280360550963509, 39.43909855950367 ], [ -8.280030899109841, 39.438885514297425 ], [ -8.279774856997047, 39.438761186833581 ], [ -8.279632356092948, 39.438717681254545 ], [ -8.279409988114264, 39.438696981897515 ], [ -8.278894165752618, 39.43877040934558 ], [ -8.278593960693877, 39.438799885249779 ], [ -8.278389483459348, 39.438838963982093 ], [ -8.27795844967579, 39.439017395613426 ], [ -8.277025223169636, 39.439406584730619 ], [ -8.276840710946798, 39.439437623348049 ], [ -8.276782821215782, 39.439416616532611 ], [ -8.276704817121436, 39.439331055661079 ], [ -8.276602123152768, 39.439158162960773 ], [ -8.276454648023025, 39.438787526574707 ], [ -8.276356171774127, 39.438465920863017 ], [ -8.276220055381202, 39.438251003246307 ], [ -8.276104279982762, 39.438154140414838 ], [ -8.275961712627574, 39.438076948483584 ], [ -8.275812616689555, 39.43798796242487 ], [ -8.275776867433201, 39.437944411168012 ], [ -8.275727936344056, 39.437819817853004 ], [ -8.275684631457587, 39.437323406719159 ], [ -8.275633061251092, 39.437098744441954 ], [ -8.275500727731377, 39.436574880594314 ], [ -8.275435340899252, 39.436127040799128 ], [ -8.275341122677395, 39.435722926792351 ], [ -8.275314282241911, 39.435548312488095 ], [ -8.275291765593259, 39.43538990561705 ], [ -8.275240307611051, 39.435218567523009 ], [ -8.275074987867251, 39.434861374170715 ], [ -8.274854114535882, 39.434486502533794 ], [ -8.274764865454348, 39.434294223764873 ], [ -8.274717753408208, 39.434088923443909 ], [ -8.27459809574893, 39.433171976793602 ], [ -8.274506493952217, 39.432906922568606 ], [ -8.274350119549819, 39.432603037256101 ], [ -8.274154045081781, 39.43236558111785 ], [ -8.273837719686252, 39.432112151117245 ], [ -8.273463747501578, 39.431834199592124 ], [ -8.273136394044277, 39.431580689992707 ], [ -8.272419060293348, 39.430939634809867 ], [ -8.272236404747565, 39.430786196246153 ], [ -8.271719754220321, 39.430421313842707 ], [ -8.271283333038669, 39.430098484281608 ], [ -8.270882521543555, 39.429746435154954 ], [ -8.270784395242487, 39.429578387323801 ], [ -8.27045618689176, 39.428825255434759 ], [ -8.270340068803064, 39.428544015713989 ], [ -8.270143673620579, 39.428191712697881 ], [ -8.26997867266887, 39.427976822298348 ], [ -8.269818189550211, 39.42781191296271 ], [ -8.269256488131449, 39.427080042634145 ], [ -8.268967228810515, 39.426803866894367 ], [ -8.268604013157116, 39.426364390740503 ], [ -8.26828048602475, 39.425785893350564 ], [ -8.268157952604799, 39.425604635625312 ], [ -8.268077702392787, 39.425485114635634 ], [ -8.267839234405495, 39.425165195389923 ], [ -8.267643115467223, 39.424943853390708 ], [ -8.267564928614634, 39.424753176344304 ], [ -8.267491136214487, 39.424549519450004 ], [ -8.267486181314702, 39.42438776234723 ], [ -8.267545474317288, 39.424002824483544 ], [ -8.267649068128348, 39.423527218596732 ], [ -8.267695364204496, 39.423206875577684 ], [ -8.267698515016065, 39.422558456776585 ], [ -8.267735516157755, 39.422178316442952 ], [ -8.267799502543262, 39.421938923904214 ], [ -8.267836768785967, 39.421634801263963 ], [ -8.267787749190244, 39.421568569416067 ], [ -8.267687486476616, 39.421486275041367 ], [ -8.267282594311913, 39.421274719341589 ], [ -8.266801829996806, 39.420981020971325 ], [ -8.266690487494488, 39.420872792622141 ], [ -8.266503095044579, 39.420591722363916 ], [ -8.266322731584065, 39.420223092963504 ], [ -8.266210969222096, 39.419894914923084 ], [ -8.266083687720057, 39.419589455084001 ], [ -8.265992361036156, 39.419502191496299 ], [ -8.265856363865918, 39.419313200415459 ], [ -8.265805110973455, 39.419233999130405 ], [ -8.265735772901284, 39.419046460349051 ], [ -8.265738030576603, 39.418890910591543 ], [ -8.265751048940334, 39.418776056143322 ], [ -8.265813215963769, 39.418675736235642 ], [ -8.266183941612011, 39.418340602642893 ], [ -8.266334794816078, 39.418164160146134 ], [ -8.266307541770143, 39.417881191882458 ], [ -8.266164625556952, 39.417417136684833 ], [ -8.266005614595645, 39.416852937089274 ], [ -8.265958664036376, 39.416712301587815 ], [ -8.265882855658447, 39.416600791042043 ], [ -8.265684845183371, 39.416405206968669 ], [ -8.26535967703048, 39.416088624345768 ], [ -8.265279452728587, 39.415973876757533 ], [ -8.265145171399775, 39.415462972498233 ], [ -8.265026666799084, 39.415125162193256 ], [ -8.264872702439879, 39.414827839219953 ], [ -8.264738991559355, 39.414674332078434 ], [ -8.264300689930597, 39.414331752838912 ], [ -8.263320762782282, 39.413213743301796 ], [ -8.262971089818409, 39.412881058516035 ], [ -8.262703846173384, 39.412661404742131 ], [ -8.262401055031319, 39.412493676206395 ], [ -8.261769216242508, 39.412213006315667 ], [ -8.26163781661754, 39.41210966257686 ], [ -8.261508553778237, 39.411909400731894 ], [ -8.261546027931059, 39.411579968459691 ], [ -8.261593173963547, 39.411144876571157 ] ] ] } }
]
}
